0118583670999992024010100004+31198+121336FM-15+000399999V0203201N003012200019N005000199+00501-00101999999ADDGF100991999999999999999999MA1103101999999MW1051REMMET059METAR ZSSS 010000Z 32003MPS 5000 HZ NSC 05/M01 Q1031 NOSIG=
0126583670999992024010100304+31198+121336FM-15+000399999V0203201V003012200019N005000199+00601-00101999999ADDGF100991999999999999999999MA1103101999999MW1051REMMET067METAR ZSSS 010030Z 32003MPS 290V350 5000 HZ NSC 06/M01 Q1031 NOSIG=
0117583670999992024010101004+31198+121336FM-15+000399999V0203201V003012200019N006000199+00601-00101999999ADDGF100991999999999999999999MA1103201999999REMMET064METAR ZSSS 010100Z 32003MPS 300V360 6000 NSC 06/M01 Q1032 NOSIG=
0117583670999992024010101304+31198+121336FM-15+000399999V0203301V003012200019N006000199+00701-00101999999ADDGF100991999999999999999999MA1103201999999REMMET064METAR ZSSS 010130Z 33003MPS 290V030 6000 NSC 07/M01 Q1032 NOSIG=
0117583670999992024010102004+31198+121336FM-15+000399999V0200201V003012200019N006000199+00601-00101999999ADDGF100991999999999999999999MA1103101999999REMMET064METAR ZSSS 010200Z 02003MPS 330V050 6000 NSC 06/M01 Q1031 NOSIG=
0117583670999992024010102304+31198+121336FM-15+000399999V0200101V002012200019N006000199+00701-00101999999ADDGF100991999999999999999999MA1103101999999REMMET064METAR ZSSS 010230Z 01002MPS 320V050 6000 NSC 07/M01 Q1031 NOSIG=
0150583670999992024010103004+31198+121336FM-15+000399999V0209999V001019999999N008000199+00801-00101999999ADDGA1021+009141999GE19AGL   +99999+99999GF199999021999009141999999MA1103001999999REMMET059METAR ZSSS 010300Z VRB01MPS 8000 FEW030 08/M01 Q1030 NOSIG=
0158583670999992024010103304+31198+121336FM-15+000399999V0200401V002019999999N008000199+00801-00101999999ADDGA1041+009141999GE19AGL   +99999+99999GF199999041999009141999999MA1103001999999REMMET067METAR ZSSS 010330Z 04002MPS 350V090 8000 SCT030 08/M01 Q1030 NOSIG=
0158583670999992024010104004+31198+121336FM-15+000399999V0203501V003019999999N008000199+00901-00101999999ADDGA1041+009141999GE19AGL   +99999+99999GF199999041999009141999999MA1102901999999REMMET067METAR ZSSS 010400Z 35003MPS 300V050 8000 SCT030 09/M01 Q1029 NOSIG=
0158583670999992024010104304+31198+121336FM-15+000399999V0203401V003019999999N008000199+00901+00001999999ADDGA1041+009141999GE19AGL   +99999+99999GF199999041999009141999999MA1102901999999REMMET067METAR ZSSS 010430Z 34003MPS 300V020 8000 SCT030 09/M00 Q1029 NOSIG=
0158583670999992024010105004+31198+121336FM-15+000399999V0202901V002019999999N008000199+00901-00101999999ADDGA1041+009141999GE19AGL   +99999+99999GF199999041999009141999999MA1102801999999REMMET067METAR ZSSS 010500Z 29002MPS 230V340 8000 SCT030 09/M01 Q1028 NOSIG=
0109583670999992024010105304+31198+121336FM-15+000399999V0209999V002012200019N008000199+01001+00001999999ADDGF100991999999999999999999MA1102801999999REMMET056METAR ZSSS 010530Z VRB02MPS 8000 NSC 10/M00 Q1028 NOSIG=
0109583670999992024010106004+31198+121336FM-15+000399999V0209999V001012200019N008000199+00901-00101999999ADDGF100991999999999999999999MA1102801999999REMMET056METAR ZSSS 010600Z VRB01MPS 8000 NSC 09/M01 Q1028 NOSIG=
0117583670999992024010106304+31198+121336FM-15+000399999V0203601V002012200019N008000199+01001-00101999999ADDGF100991999999999999999999MA1102701999999REMMET064METAR ZSSS 010630Z 36002MPS 310V120 8000 NSC 10/M01 Q1027 NOSIG=
0117583670999992024010107004+31198+121336FM-15+000399999V0203601V002012200019N008000199+00901-00101999999ADDGF100991999999999999999999MA1102701999999REMMET064METAR ZSSS 010700Z 36002MPS 310V050 8000 NSC 09/M01 Q1027 NOSIG=
0109583670999992024010107304+31198+121336FM-15+000399999V0209999V001012200019N008000199+00901-00101999999ADDGF100991999999999999999999MA1102701999999REMMET056METAR ZSSS 010730Z VRB01MPS 8000 NSC 09/M01 Q1027 NOSIG=
0109583670999992024010108004+31198+121336FM-15+000399999V0209999V001012200019N008000199+00901-00101999999ADDGF100991999999999999999999MA1102701999999REMMET056METAR ZSSS 010800Z VRB01MPS 8000 NSC 09/M01 Q1027 NOSIG=
0109583670999992024010108304+31198+121336FM-15+000399999V0209999V001012200019N008000199+00901-00101999999ADDGF100991999999999999999999MA1102701999999REMMET056METAR ZSSS 010830Z VRB01MPS 8000 NSC 09/M01 Q1027 NOSIG=
0117583670999992024010109004+31198+121336FM-15+000399999V0203601V002012200019N008000199+00801-00101999999ADDGF100991999999999999999999MA1102701999999REMMET064METAR ZSSS 010900Z 36002MPS 330V040 8000 NSC 08/M01 Q1027 NOSIG=
0117583670999992024010109304+31198+121336FM-15+000399999V0203501V002012200019N008000199+00701-00101999999ADDGF100991999999999999999999MA1102701999999REMMET064METAR ZSSS 010930Z 35002MPS 330V030 8000 NSC 07/M01 Q1027 NOSIG=
0080583670999992024010110004+31198+121336FM-15+000399999V0200101N003019999999Y009900599+00701-00101999999ADDMA1102701999999REMMET053METAR ZSSS 011000Z 01003MPS CAVOK 07/M01 Q1027 NOSIG=
0080583670999992024010110304+31198+121336FM-15+000399999V0200301N002019999999Y009900599+00701-00101999999ADDMA1102701999999REMMET053METAR ZSSS 011030Z 03002MPS CAVOK 07/M01 Q1027 NOSIG=
0080583670999992024010111004+31198+121336FM-15+000399999V0200201N002019999999Y009900599+00601-00101999999ADDMA1102701999999REMMET053METAR ZSSS 011100Z 02002MPS CAVOK 06/M01 Q1027 NOSIG=
0088583670999992024010111304+31198+121336FM-15+000399999V0200901V002019999999Y009900599+00701-00101999999ADDMA1102701999999REMMET061METAR ZSSS 011130Z 09002MPS 070V130 CAVOK 07/M01 Q1027 NOSIG=
0080583670999992024010112004+31198+121336FM-15+000399999V0201001N002019999999Y009900599+00701-00101999999ADDMA1102701999999REMMET053METAR ZSSS 011200Z 10002MPS CAVOK 07/M01 Q1027 NOSIG=
0080583670999992024010112304+31198+121336FM-15+000399999V0201101N003019999999Y009900599+00701+00001999999ADDMA1102701999999REMMET053METAR ZSSS 011230Z 11003MPS CAVOK 07/M00 Q1027 NOSIG=
0079583670999992024010113004+31198+121336FM-15+000399999V0201101N003019999999Y009900599+00601+00101999999ADDMA1102701999999REMMET052METAR ZSSS 011300Z 11003MPS CAVOK 06/01 Q1027 NOSIG=
0079583670999992024010113304+31198+121336FM-15+000399999V0201101N002019999999Y009900599+00601+00101999999ADDMA1102701999999REMMET052METAR ZSSS 011330Z 11002MPS CAVOK 06/01 Q1027 NOSIG=
0087583670999992024010114004+31198+121336FM-15+000399999V0201101V003019999999Y009900599+00601+00101999999ADDMA1102701999999REMMET060METAR ZSSS 011400Z 11003MPS 080V140 CAVOK 06/01 Q1027 NOSIG=
0079583670999992024010114304+31198+121336FM-15+000399999V0201101N003019999999Y009900599+00601+00201999999ADDMA1102701999999REMMET052METAR ZSSS 011430Z 11003MPS CAVOK 06/02 Q1027 NOSIG=
0079583670999992024010115004+31198+121336FM-15+000399999V0200801N001019999999Y009900599+00601+00201999999ADDMA1102701999999REMMET052METAR ZSSS 011500Z 08001MPS CAVOK 06/02 Q1027 NOSIG=
0087583670999992024010115304+31198+121336FM-15+000399999V0201001V002019999999Y009900599+00501+00201999999ADDMA1102701999999REMMET060METAR ZSSS 011530Z 10002MPS 050V120 CAVOK 05/02 Q1027 NOSIG=
0079583670999992024010116004+31198+121336FM-15+000399999V0201001N001019999999Y009900599+00501+00201999999ADDMA1102701999999REMMET052METAR ZSSS 011600Z 10001MPS CAVOK 05/02 Q1027 NOSIG=
0079583670999992024010116304+31198+121336FM-15+000399999V0209999C000019999999Y009900599+00401+00101999999ADDMA1102701999999REMMET052METAR ZSSS 011630Z 00000MPS CAVOK 04/01 Q1027 NOSIG=
0079583670999992024010117004+31198+121336FM-15+000399999V0200501N001019999999Y009900599+00401+00101999999ADDMA1102601999999REMMET052METAR ZSSS 011700Z 05001MPS CAVOK 04/01 Q1026 NOSIG=
0079583670999992024010117304+31198+121336FM-15+000399999V0200201N001019999999Y009900599+00401+00201999999ADDMA1102601999999REMMET052METAR ZSSS 011730Z 02001MPS CAVOK 04/02 Q1026 NOSIG=
0079583670999992024010118004+31198+121336FM-15+000399999V0209999C000019999999Y009900599+00301+00101999999ADDMA1102601999999REMMET052METAR ZSSS 011800Z 00000MPS CAVOK 03/01 Q1026 NOSIG=
0079583670999992024010118304+31198+121336FM-15+000399999V0200101N001019999999Y009900599+00301+00101999999ADDMA1102601999999REMMET052METAR ZSSS 011830Z 01001MPS CAVOK 03/01 Q1026 NOSIG=
0079583670999992024010119004+31198+121336FM-15+000399999V0200201N001019999999Y009900599+00201+00001999999ADDMA1102501999999REMMET052METAR ZSSS 011900Z 02001MPS CAVOK 02/00 Q1025 NOSIG=
0079583670999992024010119304+31198+121336FM-15+000399999V0200201N001019999999Y009900599+00201+00101999999ADDMA1102501999999REMMET052METAR ZSSS 011930Z 02001MPS CAVOK 02/01 Q1025 NOSIG=
0080583670999992024010120004+31198+121336FM-15+000399999V0203601N002019999999Y009900599+00101+00001999999ADDMA1102501999999REMMET053METAR ZSSS 012000Z 36002MPS CAVOK 01/M00 Q1025 NOSIG=
0079583670999992024010120304+31198+121336FM-15+000399999V0203601N001019999999Y009900599+00201+00101999999ADDMA1102501999999REMMET052METAR ZSSS 012030Z 36001MPS CAVOK 02/01 Q1025 NOSIG=
0079583670999992024010121004+31198+121336FM-15+000399999V0200101N002019999999Y009900599+00201+00101999999ADDMA1102501999999REMMET052METAR ZSSS 012100Z 01002MPS CAVOK 02/01 Q1025 NOSIG=
0079583670999992024010121304+31198+121336FM-15+000399999V0203501N001019999999Y009900599+00201+00101999999ADDMA1102501999999REMMET052METAR ZSSS 012130Z 35001MPS CAVOK 02/01 Q1025 NOSIG=
0079583670999992024010122004+31198+121336FM-15+000399999V0200101N002019999999Y009900599+00201+00101999999ADDMA1102501999999REMMET052METAR ZSSS 012200Z 01002MPS CAVOK 02/01 Q1025 NOSIG=
0079583670999992024010122304+31198+121336FM-15+000399999V0203601N002019999999Y009900599+00201+00101999999ADDMA1102501999999REMMET052METAR ZSSS 012230Z 36002MPS CAVOK 02/01 Q1025 NOSIG=
0079583670999992024010123004+31198+121336FM-15+000399999V0200101N001019999999Y009900599+00201+00101999999ADDMA1102501999999REMMET052METAR ZSSS 012300Z 01001MPS CAVOK 02/01 Q1025 NOSIG=
0108583670999992024010123304+31198+121336FM-15+000399999V0200201N001012200019N008000199+00301+00201999999ADDGF100991999999999999999999MA1102501999999REMMET055METAR ZSSS 012330Z 02001MPS 8000 NSC 03/02 Q1025 NOSIG=
0108583670999992024010200004+31198+121336FM-15+000399999V0200101N001012200019N008000199+00401+00301999999ADDGF100991999999999999999999MA1102501999999REMMET055METAR ZSSS 020000Z 01001MPS 8000 NSC 04/03 Q1025 NOSIG=
0108583670999992024010200304+31198+121336FM-15+000399999V0209999V001012200019N008000199+00601+00301999999ADDGF100991999999999999999999MA1102501999999REMMET055METAR ZSSS 020030Z VRB01MPS 8000 NSC 06/03 Q1025 NOSIG=
0079583670999992024010201004+31198+121336FM-15+000399999V0200801N002019999999Y009900599+00701+00301999999ADDMA1102501999999REMMET052METAR ZSSS 020100Z 08002MPS CAVOK 07/03 Q1025 NOSIG=
0087583670999992024010201304+31198+121336FM-15+000399999V0200701V002019999999Y009900599+00801+00201999999ADDMA1102501999999REMMET060METAR ZSSS 020130Z 07002MPS 040V120 CAVOK 08/02 Q1025 NOSIG=
0079583670999992024010202004+31198+121336FM-15+000399999V0201301N003019999999Y009900599+00901+00101999999ADDMA1102501999999REMMET052METAR ZSSS 020200Z 13003MPS CAVOK 09/01 Q1025 NOSIG=
0087583670999992024010202304+31198+121336FM-15+000399999V0201101V002019999999Y009900599+00901+00101999999ADDMA1102401999999REMMET060METAR ZSSS 020230Z 11002MPS 080V180 CAVOK 09/01 Q1024 NOSIG=
0087583670999992024010203004+31198+121336FM-15+000399999V0201601V002019999999Y009900599+01001+00201999999ADDMA1102401999999REMMET060METAR ZSSS 020300Z 16002MPS 090V240 CAVOK 10/02 Q1024 NOSIG=
0079583670999992024010203304+31198+121336FM-15+000399999V0209999V001019999999Y009900599+01001+00201999999ADDMA1102401999999REMMET052METAR ZSSS 020330Z VRB01MPS CAVOK 10/02 Q1024 NOSIG=
0087583670999992024010204004+31198+121336FM-15+000399999V0201801V002019999999Y009900599+01101+00301999999ADDMA1102301999999REMMET060METAR ZSSS 020400Z 18002MPS 130V250 CAVOK 11/03 Q1023 NOSIG=
0079583670999992024010204304+31198+121336FM-15+000399999V0209999V002019999999Y009900599+01101+00201999999ADDMA1102201999999REMMET052METAR ZSSS 020430Z VRB02MPS CAVOK 11/02 Q1022 NOSIG=
0079583670999992024010205004+31198+121336FM-15+000399999V0209999V002019999999Y009900599+01201+00201999999ADDMA1102201999999REMMET052METAR ZSSS 020500Z VRB02MPS CAVOK 12/02 Q1022 NOSIG=
0079583670999992024010205304+31198+121336FM-15+000399999V0209999V001019999999Y009900599+01201+00201999999ADDMA1102101999999REMMET052METAR ZSSS 020530Z VRB01MPS CAVOK 12/02 Q1021 NOSIG=
0087583670999992024010206004+31198+121336FM-15+000399999V0201001V002019999999Y009900599+01201+00201999999ADDMA1102101999999REMMET060METAR ZSSS 020600Z 10002MPS 020V190 CAVOK 12/02 Q1021 NOSIG=
0079583670999992024010206304+31198+121336FM-15+000399999V0209999V002019999999Y009900599+01201+00201999999ADDMA1102101999999REMMET052METAR ZSSS 020630Z VRB02MPS CAVOK 12/02 Q1021 NOSIG=
0087583670999992024010207004+31198+121336FM-15+000399999V0201401V002019999999Y009900599+01201+00201999999ADDMA1102001999999REMMET060METAR ZSSS 020700Z 14002MPS 050V180 CAVOK 12/02 Q1020 NOSIG=
0079583670999992024010207304+31198+121336FM-15+000399999V0200901N002019999999Y009900599+01201+00201999999ADDMA1102001999999REMMET052METAR ZSSS 020730Z 09002MPS CAVOK 12/02 Q1020 NOSIG=
0087583670999992024010208004+31198+121336FM-15+000399999V0200401V002019999999Y009900599+01101+00201999999ADDMA1102101999999REMMET060METAR ZSSS 020800Z 04002MPS 010V130 CAVOK 11/02 Q1021 NOSIG=
0079583670999992024010208304+31198+121336FM-15+000399999V0200401N004019999999Y009900599+01101+00301999999ADDMA1102101999999REMMET052METAR ZSSS 020830Z 04004MPS CAVOK 11/03 Q1021 NOSIG=
0079583670999992024010209004+31198+121336FM-15+000399999V0200301N005019999999Y009900599+01001+00301999999ADDMA1102101999999REMMET052METAR ZSSS 020900Z 03005MPS CAVOK 10/03 Q1021 NOSIG=
0079583670999992024010209304+31198+121336FM-15+000399999V0200301N003019999999Y009900599+01001+00301999999ADDMA1102201999999REMMET052METAR ZSSS 020930Z 03003MPS CAVOK 10/03 Q1022 NOSIG=
0149583670999992024010210004+31198+121336FM-15+000399999V0200301N003019999999N009999199+01001+00201999999ADDGA1041+012191999GE19AGL   +99999+99999GF199999041999012191999999MA1102201999999REMMET058METAR ZSSS 021000Z 03003MPS 9999 SCT040 10/02 Q1022 NOSIG=
0149583670999992024010210304+31198+121336FM-15+000399999V0200401N00501012191CN009999199+00901+00301999999ADDGA1071+012191999GE19AGL   +99999+99999GF199999071999012191999999MA1102301999999REMMET058METAR ZSSS 021030Z 04005MPS 9999 BKN040 09/03 Q1023 NOSIG=
0149583670999992024010211004+31198+121336FM-15+000399999V0200201N00701009141CN009999199+00801+00201999999ADDGA1071+009141999GE19AGL   +99999+99999GF199999071999009141999999MA1102301999999REMMET058METAR ZSSS 021100Z 02007MPS 9999 BKN030 08/02 Q1023 NOSIG=
0149583670999992024010211304+31198+121336FM-15+000399999V0200301N00601009141CN009999199+00801+00101999999ADDGA1071+009141999GE19AGL   +99999+99999GF199999071999009141999999MA1102401999999REMMET058METAR ZSSS 021130Z 03006MPS 9999 BKN030 08/01 Q1024 NOSIG=
0149583670999992024010212004+31198+121336FM-15+000399999V0200301N006019999999N009999199+00701+00001999999ADDGA1041+009141999GE19AGL   +99999+99999GF199999041999009141999999MA1102301999999REMMET058METAR ZSSS 021200Z 03006MPS 9999 SCT030 07/00 Q1023 NOSIG=
0149583670999992024010212304+31198+121336FM-15+000399999V0200501N006019999999N009999199+00701+00001999999ADDGA1041+009141999GE19AGL   +99999+99999GF199999041999009141999999MA1102301999999REMMET058METAR ZSSS 021230Z 05006MPS 9999 SCT030 07/00 Q1023 NOSIG=
0079583670999992024010213004+31198+121336FM-15+000399999V0200501N005019999999Y009900599+00701+00101999999ADDMA1102301999999REMMET052METAR ZSSS 021300Z 05005MPS CAVOK 07/01 Q1023 NOSIG=
0087583670999992024010213304+31198+121336FM-15+000399999V0200301V002019999999Y009900599+00701+00101999999ADDMA1102301999999REMMET060METAR ZSSS 021330Z 03002MPS 010V070 CAVOK 07/01 Q1023 NOSIG=
0079583670999992024010214004+31198+121336FM-15+000399999V0203601N003019999999Y009900599+00701+00101999999ADDMA1102401999999REMMET052METAR ZSSS 021400Z 36003MPS CAVOK 07/01 Q1024 NOSIG=
0149583670999992024010214304+31198+121336FM-15+000399999V0203501N004019999999N009999199+00701+00101999999ADDGA1041+012191999GE19AGL   +99999+99999GF199999041999012191999999MA1102401999999REMMET058METAR ZSSS 021430Z 35004MPS 9999 SCT040 07/01 Q1024 NOSIG=
0149583670999992024010215004+31198+121336FM-15+000399999V0203601N003019999999N009999199+00701+00101999999ADDGA1041+012191999GE19AGL   +99999+99999GF199999041999012191999999MA1102401999999REMMET058METAR ZSSS 021500Z 36003MPS 9999 SCT040 07/01 Q1024 NOSIG=
0149583670999992024010215304+31198+121336FM-15+000399999V0203401N002019999999N009999199+00701+00101999999ADDGA1041+012191999GE19AGL   +99999+99999GF199999041999012191999999MA1102401999999REMMET058METAR ZSSS 021530Z 34002MPS 9999 SCT040 07/01 Q1024 NOSIG=
0149583670999992024010216004+31198+121336FM-15+000399999V0203301N004019999999N009999199+00701+00201999999ADDGA1041+012191999GE19AGL   +99999+99999GF199999041999012191999999MA1102401999999REMMET058METAR ZSSS 021600Z 33004MPS 9999 SCT040 07/02 Q1024 NOSIG=
0159583670999992024010216304+31198+121336FM-15+000399999V0203301N00301009141CN009999199+00601+00201999999ADDGA1071+009141999GE19AGL   +99999+99999GF199999071999009141999999MA1102401999999MW1611REMMET062METAR ZSSS 021630Z 33003MPS 9999 -RA BKN030 06/02 Q1024 NOSIG=
0159583670999992024010217004+31198+121336FM-15+000399999V0203301N00301009141CN009999199+00501+00301999999ADDGA1071+009141999GE19AGL   +99999+99999GF199999071999009141999999MA1102401999999MW1611REMMET062METAR ZSSS 021700Z 33003MPS 9999 -RA BKN030 05/03 Q1024 NOSIG=
0159583670999992024010217304+31198+121336FM-15+000399999V0203201N00301009141CN007000199+00501+00301999999ADDGA1071+009141999GE19AGL   +99999+99999GF199999071999009141999999MA1102401999999MW1611REMMET062METAR ZSSS 021730Z 32003MPS 7000 -RA BKN030 05/03 Q1024 NOSIG=
0159583670999992024010218004+31198+121336FM-15+000399999V0203301N00401007011CN007000199+00501+00301999999ADDGA1071+007011999GE19AGL   +99999+99999GF199999071999007011999999MA1102401999999MW1611REMMET062METAR ZSSS 021800Z 33004MPS 7000 -RA BKN023 05/03 Q1024 NOSIG=
0159583670999992024010218304+31198+121336FM-15+000399999V0203201N00501007011CN007000199+00501+00301999999ADDGA1071+007011999GE19AGL   +99999+99999GF199999071999007011999999MA1102501999999MW1611REMMET062METAR ZSSS 021830Z 32005MPS 7000 -RA BKN023 05/03 Q1025 NOSIG=
0159583670999992024010219004+31198+121336FM-15+000399999V0203301N00401007011CN007000199+00401+00301999999ADDGA1071+007011999GE19AGL   +99999+99999GF199999071999007011999999MA1102501999999MW1611REMMET062METAR ZSSS 021900Z 33004MPS 7000 -RA BKN023 04/03 Q1025 NOSIG=
0159583670999992024010219304+31198+121336FM-15+000399999V0203401N00401004881CN007000199+00401+00301999999ADDGA1071+004881999GE19AGL   +99999+99999GF199999071999004881999999MA1102401999999MW1611REMMET062METAR ZSSS 021930Z 34004MPS 7000 -RA BKN016 04/03 Q1024 NOSIG=
0167583670999992024010220004+31198+121336FM-15+000399999V0203301V00401004881CN007000199+00401+00301999999ADDGA1071+004881999GE19AGL   +99999+99999GF199999071999004881999999MA1102401999999MW1611REMMET070METAR ZSSS 022000Z 33004MPS 300V360 7000 -RA BKN016 04/03 Q1024 NOSIG=
0159583670999992024010220304+31198+121336FM-15+000399999V0203201N00401004571CN007000199+00401+00301999999ADDGA1071+004571999GE19AGL   +99999+99999GF199999071999004571999999MA1102401999999MW1611REMMET062METAR ZSSS 022030Z 32004MPS 7000 -RA BKN015 04/03 Q1024 NOSIG=
0181583670999992024010221004+31198+121336FM-15+000399999V0203301V00301004571CN007000199+00501+00301999999ADDGA1071+004571999GE19AGL   +99999+99999GF199999071999004571999999MA1102401999999MW1611REMMET084METAR ZSSS 022100Z 33003MPS 300V360 7000 -RA BKN015 05/03 Q1024 BECMG TL2130 BKN009=
0149583670999992024010221304+31198+121336FM-15+000399999V0203401N00401003351CN007000199+00501+00301999999ADDGA1071+003351999GE19AGL   +99999+99999GF199999071999003351999999MA1102401999999REMMET058METAR ZSSS 022130Z 34004MPS 7000 BKN011 05/03 Q1024 NOSIG=
0163583670999992024010222004+31198+121336FM-15+000399999V0203201N00401003351CN007000199+00501+00301999999ADDGA1071+003351999GE19AGL   +99999+99999GF199999071999003351999999MA1102501999999REMMET072METAR ZSSS 022200Z 32004MPS 7000 BKN011 05/03 Q1025 BECMG TL2330 BKN015=
0149583670999992024010222304+31198+121336FM-15+000399999V0203301N00401003961CN007000199+00501+00301999999ADDGA1071+003961999GE19AGL   +99999+99999GF199999071999003961999999MA1102501999999REMMET058METAR ZSSS 022230Z 33004MPS 7000 BKN013 05/03 Q1025 NOSIG=
0149583670999992024010223004+31198+121336FM-15+000399999V0203201N00501003961CN007000199+00501+00301999999ADDGA1071+003961999GE19AGL   +99999+99999GF199999071999003961999999MA1102501999999REMMET058METAR ZSSS 022300Z 32005MPS 7000 BKN013 05/03 Q1025 NOSIG=
0157583670999992024010223304+31198+121336FM-15+000399999V0203201V00501005491CN008000199+00501+00201999999ADDGA1071+005491999GE19AGL   +99999+99999GF199999071999005491999999MA1102601999999REMMET066METAR ZSSS 022330Z 32005MPS 290V350 8000 BKN018 05/02 Q1026 NOSIG=
0149583670999992024010300004+31198+121336FM-15+000399999V0203301N00701006401CN009999199+00501+00201999999ADDGA1071+006401999GE19AGL   +99999+99999GF199999071999006401999999MA1102601999999REMMET058METAR ZSSS 030000Z 33007MPS 9999 BKN021 05/02 Q1026 NOSIG=
0157583670999992024010300304+31198+121336FM-15+000399999V0203101V00601007921CN009999199+00501+00101999999ADDGA1071+007921999GE19AGL   +99999+99999GF199999071999007921999999MA1102701999999REMMET066METAR ZSSS 030030Z 31006MPS 280V340 9999 BKN026 05/01 Q1027 NOSIG=
0157583670999992024010301004+31198+121336FM-15+000399999V0203001V00601007921CN008000199+00601+00101999999ADDGA1071+007921999GE19AGL   +99999+99999GF199999071999007921999999MA1102701999999REMMET066METAR ZSSS 030100Z 30006MPS 280V350 8000 BKN026 06/01 Q1027 NOSIG=
0157583670999992024010301304+31198+121336FM-15+000399999V0203001V00601007011CN006000199+00601+00101999999ADDGA1071+007011999GE19AGL   +99999+99999GF199999071999007011999999MA1102701999999REMMET066METAR ZSSS 030130Z 30006MPS 270V350 6000 BKN023 06/01 Q1027 NOSIG=
0149583670999992024010302004+31198+121336FM-15+000399999V0203101N00601007011CN006000199+00601+00001999999ADDGA1071+007011999GE19AGL   +99999+99999GF199999071999007011999999MA1102701999999REMMET058METAR ZSSS 030200Z 31006MPS 6000 BKN023 06/00 Q1027 NOSIG=
0149583670999992024010302304+31198+121336FM-15+000399999V0203301N00601007011CN007000199+00701+00001999999ADDGA1071+007011999GE19AGL   +99999+99999GF199999071999007011999999MA1102801999999REMMET058METAR ZSSS 030230Z 33006MPS 7000 BKN023 07/00 Q1028 NOSIG=
0157583670999992024010303004+31198+121336FM-15+000399999V0203101V00601007011CN007000199+00801+00001999999ADDGA1071+007011999GE19AGL   +99999+99999GF199999071999007011999999MA1102701999999REMMET066METAR ZSSS 030300Z 31006MPS 280V340 7000 BKN023 08/00 Q1027 NOSIG=
0150583670999992024010303304+31198+121336FM-15+000399999V0203301N00601007011CN007000199+00801+00001999999ADDGA1071+007011999GE19AGL   +99999+99999GF199999071999007011999999MA1102701999999REMMET059METAR ZSSS 030330Z 33006MPS 7000 BKN023 08/M00 Q1027 NOSIG=
0149583670999992024010304004+31198+121336FM-15+000399999V0203201N006019999999N007000199+00801+00001999999ADDGA1041+007921999GE19AGL   +99999+99999GF199999041999007921999999MA1102701999999REMMET058METAR ZSSS 030400Z 32006MPS 7000 SCT026 08/00 Q1027 NOSIG=
0116583670999992024010304304+31198+121336FM-15+000399999V0203101V006012200019N007000199+00901+00001999999ADDGF100991999999999999999999MA1102601999999REMMET063METAR ZSSS 030430Z 31006MPS 270V340 7000 NSC 09/00 Q1026 NOSIG=
0108583670999992024010305004+31198+121336FM-15+000399999V0203201N005012200019N007000199+00901+00001999999ADDGF100991999999999999999999MA1102601999999REMMET055METAR ZSSS 030500Z 32005MPS 7000 NSC 09/00 Q1026 NOSIG=
0116583670999992024010305304+31198+121336FM-15+000399999V0203201V004012200019N007000199+00901+00001999999ADDGF100991999999999999999999MA1102601999999REMMET063METAR ZSSS 030530Z 32004MPS 250V050 7000 NSC 09/00 Q1026 NOSIG=
0116583670999992024010306004+31198+121336FM-15+000399999V0203101V005012200019N007000199+00901+00001999999ADDGF100991999999999999999999MA1102601999999REMMET063METAR ZSSS 030600Z 31005MPS 280V340 7000 NSC 09/00 Q1026 NOSIG=
0109583670999992024010306304+31198+121336FM-15+000399999V0203201N005012200019N007000199+00901+00001999999ADDGF100991999999999999999999MA1102601999999REMMET056METAR ZSSS 030630Z 32005MPS 7000 NSC 09/M00 Q1026 NOSIG=
0117583670999992024010307004+31198+121336FM-15+000399999V0203201V006012200019N007000199+00901+00001999999ADDGF100991999999999999999999MA1102601999999REMMET064METAR ZSSS 030700Z 32006MPS 280V350 7000 NSC 09/M00 Q1026 NOSIG=
0109583670999992024010307304+31198+121336FM-15+000399999V0203301N004012200019N007000199+00801+00001999999ADDGF100991999999999999999999MA1102601999999REMMET056METAR ZSSS 030730Z 33004MPS 7000 NSC 08/M00 Q1026 NOSIG=
0116583670999992024010308004+31198+121336FM-15+000399999V0203301V004012200019N007000199+00801+00001999999ADDGF100991999999999999999999MA1102701999999REMMET063METAR ZSSS 030800Z 33004MPS 290V010 7000 NSC 08/00 Q1027 NOSIG=
0116583670999992024010308304+31198+121336FM-15+000399999V0203401V004012200019N006000199+00701+00001999999ADDGF100991999999999999999999MA1102701999999REMMET063METAR ZSSS 030830Z 34004MPS 280V360 6000 NSC 07/00 Q1027 NOSIG=
0108583670999992024010309004+31198+121336FM-15+000399999V0203501N005012200019N006000199+00701+00001999999ADDGF100991999999999999999999MA1102701999999REMMET055METAR ZSSS 030900Z 35005MPS 6000 NSC 07/00 Q1027 NOSIG=
0108583670999992024010309304+31198+121336FM-15+000399999V0203501N004012200019N006000199+00601+00101999999ADDGF100991999999999999999999MA1102701999999REMMET055METAR ZSSS 030930Z 35004MPS 6000 NSC 06/01 Q1027 NOSIG=
0108583670999992024010310004+31198+121336FM-15+000399999V0203301N004012200019N008000199+00601+00101999999ADDGF100991999999999999999999MA1102801999999REMMET055METAR ZSSS 031000Z 33004MPS 8000 NSC 06/01 Q1028 NOSIG=
0108583670999992024010310304+31198+121336FM-15+000399999V0203401N003012200019N008000199+00501+00001999999ADDGF100991999999999999999999MA1102801999999REMMET055METAR ZSSS 031030Z 34003MPS 8000 NSC 05/00 Q1028 NOSIG=
0108583670999992024010311004+31198+121336FM-15+000399999V0203401N003012200019N008000199+00501+00001999999ADDGF100991999999999999999999MA1102801999999REMMET055METAR ZSSS 031100Z 34003MPS 8000 NSC 05/00 Q1028 NOSIG=
0108583670999992024010311304+31198+121336FM-15+000399999V0203601N004012200019N006000199+00401+00001999999ADDGF100991999999999999999999MA1102801999999REMMET055METAR ZSSS 031130Z 36004MPS 6000 NSC 04/00 Q1028 NOSIG=
0108583670999992024010312004+31198+121336FM-15+000399999V0200101N003012200019N006000199+00301+00101999999ADDGF100991999999999999999999MA1102801999999REMMET055METAR ZSSS 031200Z 01003MPS 6000 NSC 03/01 Q1028 NOSIG=
0117583670999992024010312304+31198+121336FM-15+000399999V0200101N003012200019N005000199+00301+00001999999ADDGF100991999999999999999999MA1102801999999MW1101REMMET058METAR ZSSS 031230Z 01003MPS 5000 BR NSC 03/00 Q1028 NOSIG=
0117583670999992024010313004+31198+121336FM-15+000399999V0200101N003012200019N005000199+00301+00001999999ADDGF100991999999999999999999MA1102801999999MW1101REMMET058METAR ZSSS 031300Z 01003MPS 5000 BR NSC 03/00 Q1028 NOSIG=
0117583670999992024010313304+31198+121336FM-15+000399999V0200101N003012200019N005000199+00301+00101999999ADDGF100991999999999999999999MA1102801999999MW1101REMMET058METAR ZSSS 031330Z 01003MPS 5000 BR NSC 03/01 Q1028 NOSIG=
0117583670999992024010314004+31198+121336FM-15+000399999V0200101N003012200019N005000199+00301+00101999999ADDGF100991999999999999999999MA1102801999999MW1101REMMET058METAR ZSSS 031400Z 01003MPS 5000 BR NSC 03/01 Q1028 NOSIG=
0117583670999992024010314304+31198+121336FM-15+000399999V0203601N002012200019N005000199+00201+00001999999ADDGF100991999999999999999999MA1102801999999MW1101REMMET058METAR ZSSS 031430Z 36002MPS 5000 BR NSC 02/00 Q1028 NOSIG=
0125583670999992024010315004+31198+121336FM-15+000399999V0203601V002012200019N004000199+00301+00001999999ADDGF100991999999999999999999MA1102701999999MW1101REMMET066METAR ZSSS 031500Z 36002MPS 320V040 4000 BR NSC 03/00 Q1027 NOSIG=
0117583670999992024010315304+31198+121336FM-15+000399999V0209999V001012200019N004000199+00301+00001999999ADDGF100991999999999999999999MA1102701999999MW1101REMMET058METAR ZSSS 031530Z VRB01MPS 4000 BR NSC 03/00 Q1027 NOSIG=
0117583670999992024010316004+31198+121336FM-15+000399999V0203601N001012200019N004000199+00201+00001999999ADDGF100991999999999999999999MA1102701999999MW1101REMMET058METAR ZSSS 031600Z 36001MPS 4000 BR NSC 02/00 Q1027 NOSIG=
0117583670999992024010316304+31198+121336FM-15+000399999V0209999V001012200019N003500199+00201+00101999999ADDGF100991999999999999999999MA1102701999999MW1101REMMET058METAR ZSSS 031630Z VRB01MPS 3500 BR NSC 02/01 Q1027 NOSIG=
0117583670999992024010317004+31198+121336FM-15+000399999V0201001N001012200019N003500199+00201+00001999999ADDGF100991999999999999999999MA1102701999999MW1101REMMET058METAR ZSSS 031700Z 10001MPS 3500 BR NSC 02/00 Q1027 NOSIG=
0117583670999992024010317304+31198+121336FM-15+000399999V0209999V001012200019N003500199+00201+00101999999ADDGF100991999999999999999999MA1102701999999MW1101REMMET058METAR ZSSS 031730Z VRB01MPS 3500 BR NSC 02/01 Q1027 NOSIG=
0129583670999992024010318004+31198+121336FM-15+000399999V0209999V001012200019N003500199+00201+00001999999ADDGF100991999999999999999999MA1102601999999MW1101REMMET070METAR ZSSS 031800Z VRB01MPS 3500 BR NSC 02/00 Q1026 BECMG TL1950 2800=
0118583670999992024010318304+31198+121336FM-15+000399999V0209999V001012200019N002600199+00101+00001999999ADDGF100991999999999999999999MA1102601999999MW1101REMMET059METAR ZSSS 031830Z VRB01MPS 2600 BR NSC 01/M00 Q1026 NOSIG=
0117583670999992024010319004+31198+121336FM-15+000399999V0209999V001012200019N002600199+00101+00001999999ADDGF100991999999999999999999MA1102601999999MW1101REMMET058METAR ZSSS 031900Z VRB01MPS 2600 BR NSC 01/00 Q1026 NOSIG=
0118583670999992024010319304+31198+121336FM-15+000399999V0209999C000012200019N002600199+00101+00001999999ADDGF100991999999999999999999MA1102601999999MW1101REMMET059METAR ZSSS 031930Z 00000MPS 2600 BR NSC 01/M00 Q1026 NOSIG=
0118583670999992024010320004+31198+121336FM-15+000399999V0202101N001012200019N002600199+00101+00001999999ADDGF100991999999999999999999MA1102601999999MW1101REMMET059METAR ZSSS 032000Z 21001MPS 2600 BR NSC 01/M00 Q1026 NOSIG=
0118583670999992024010320304+31198+121336FM-15+000399999V0202001N001012200019N002500199+00001+00001999999ADDGF100991999999999999999999MA1102501999999MW1101REMMET059METAR ZSSS 032030Z 20001MPS 2500 BR NSC 00/M00 Q1025 NOSIG=
0117583670999992024010321004+31198+121336FM-15+000399999V0202001N001012200019N002500199+00201+00101999999ADDGF100991999999999999999999MA1102501999999MW1101REMMET058METAR ZSSS 032100Z 20001MPS 2500 BR NSC 02/01 Q1025 NOSIG=
0118583670999992024010321304+31198+121336FM-15+000399999V0202101N002012200019N002500199+00001-00101999999ADDGF100991999999999999999999MA1102601999999MW1101REMMET059METAR ZSSS 032130Z 21002MPS 2500 BR NSC 00/M01 Q1026 NOSIG=
0118583670999992024010322004+31198+121336FM-15+000399999V0201901N001012200019N002500199+00101+00001999999ADDGF100991999999999999999999MA1102601999999MW1101REMMET059METAR ZSSS 032200Z 19001MPS 2500 BR NSC 01/M00 Q1026 NOSIG=
0118583670999992024010322304+31198+121336FM-15+000399999V0201501N001012200019N002500199+00101+00001999999ADDGF100991999999999999999999MA1102601999999MW1101REMMET059METAR ZSSS 032230Z 15001MPS 2500 BR NSC 01/M00 Q1026 NOSIG=
0117583670999992024010323004+31198+121336FM-15+000399999V0201601N001012200019N002000199+00101+00001999999ADDGF100991999999999999999999MA1102601999999MW1101REMMET058METAR ZSSS 032300Z 16001MPS 2000 BR NSC 01/00 Q1026 NOSIG=
0118583670999992024010323304+31198+121336FM-15+000399999V0201801N001012200019N002000199+00101+00001999999ADDGF100991999999999999999999MA1102601999999MW1101REMMET059METAR ZSSS 032330Z 18001MPS 2000 BR NSC 01/M00 Q1026 NOSIG=
0163583670999992024010400004+31198+121336FM-15+000399999V0201501N002012200019N002000199+00201+00101999999ADDED118L99999GF100991999999999999999999MA1102601999999MW1101REMMET093METAR ZSSS 040000Z 15002MPS 2000 R18L/1400N R18R/P2000N BR NSC 02/01 Q1026 BECMG TL0150 3000=
0151583670999992024010400304+31198+121336FM-15+000399999V0201501N002012200019N002000199+00401+00201999999ADDED118L99999GF100991999999999999999999MA1102701999999MW1101REMMET081METAR ZSSS 040030Z 15002MPS 2000 R18L/1200N R18R/P2000N BR NSC 04/02 Q1027 NOSIG=
0162583670999992024010401004+31198+121336FM-15+000399999V0201501N002012200019N002000199+00401+00301999999ADDED118L99999GF100991999999999999999999MA1102701999999MW1101REMMET092METAR ZSSS 040100Z 15002MPS 2000 R18L/1200N R18R/2000N BR NSC 04/03 Q1027 BECMG TL0250 3000=
0158583670999992024010401304+31198+121336FM-15+000399999V0201801V002012200019N002000199+00501+00301999999ADDED118L99999GF100991999999999999999999MA1102701999999MW1101REMMET088METAR ZSSS 040130Z 18002MPS 150V220 2000 R18L/1200N R18R/1800N BR NSC 05/03 Q1027 NOSIG=
0137583670999992024010402004+31198+121336FM-15+000399999V0202001V003012200019N002000199+00601+00401999999ADDGF100991999999999999999999MA1102701999999MW1101REMMET078METAR ZSSS 040200Z 20003MPS 180V240 2000 BR NSC 06/04 Q1027 BECMG TL0340 3000=
0125583670999992024010402304+31198+121336FM-15+000399999V0201801V003012200019N003000199+00801+00301999999ADDGF100991999999999999999999MA1102601999999MW1101REMMET066METAR ZSSS 040230Z 18003MPS 140V210 3000 BR NSC 08/03 Q1026 NOSIG=
0125583670999992024010403004+31198+121336FM-15+000399999V0202001V004012200019N003000199+00801+00201999999ADDGF100991999999999999999999MA1102601999999MW1051REMMET066METAR ZSSS 040300Z 20004MPS 160V250 3000 HZ NSC 08/02 Q1026 NOSIG=
0125583670999992024010403304+31198+121336FM-15+000399999V0202001V003012200019N004000199+00901+00201999999ADDGF100991999999999999999999MA1102501999999MW1051REMMET066METAR ZSSS 040330Z 20003MPS 160V230 4000 HZ NSC 09/02 Q1025 NOSIG=
0125583670999992024010404004+31198+121336FM-15+000399999V0201901V004012200019N005000199+01001+00101999999ADDGF100991999999999999999999MA1102401999999MW1051REMMET066METAR ZSSS 040400Z 19004MPS 150V220 5000 HZ NSC 10/01 Q1024 NOSIG=
0125583670999992024010404304+31198+121336FM-15+000399999V0202001V004012200019N005000199+01101+00001999999ADDGF100991999999999999999999MA1102401999999MW1051REMMET066METAR ZSSS 040430Z 20004MPS 170V240 5000 HZ NSC 11/00 Q1024 NOSIG=
0108583670999992024010405004+31198+121336FM-15+000399999V0201901N004012200019N006000199+01101+00001999999ADDGF100991999999999999999999MA1102301999999REMMET055METAR ZSSS 040500Z 19004MPS 6000 NSC 11/00 Q1023 NOSIG=
0116583670999992024010405304+31198+121336FM-15+000399999V0202001V003012200019N007000199+01101+00101999999ADDGF100991999999999999999999MA1102301999999REMMET063METAR ZSSS 040530Z 20003MPS 140V240 7000 NSC 11/01 Q1023 NOSIG=
0117583670999992024010406004+31198+121336FM-15+000399999V0201901V004012200019N007000199+01201-00101999999ADDGF100991999999999999999999MA1102201999999REMMET064METAR ZSSS 040600Z 19004MPS 160V220 7000 NSC 12/M01 Q1022 NOSIG=
0116583670999992024010406304+31198+121336FM-15+000399999V0201701V003012200019N008000199+01201+00001999999ADDGF100991999999999999999999MA1102201999999REMMET063METAR ZSSS 040630Z 17003MPS 130V210 8000 NSC 12/00 Q1022 NOSIG=
0117583670999992024010407004+31198+121336FM-15+000399999V0201901V004012200019N008000199+01201-00101999999ADDGF100991999999999999999999MA1102201999999REMMET064METAR ZSSS 040700Z 19004MPS 130V240 8000 NSC 12/M01 Q1022 NOSIG=
0109583670999992024010407304+31198+121336FM-15+000399999V0201801N004012200019N008000199+01201-00101999999ADDGF100991999999999999999999MA1102201999999REMMET056METAR ZSSS 040730Z 18004MPS 8000 NSC 12/M01 Q1022 NOSIG=
0080583670999992024010408004+31198+121336FM-15+000399999V0201801N003019999999Y009900599+01101-00301999999ADDMA1102201999999REMMET053METAR ZSSS 040800Z 18003MPS CAVOK 11/M03 Q1022 NOSIG=
0080583670999992024010408304+31198+121336FM-15+000399999V0201801N004019999999Y009900599+01001-00401999999ADDMA1102201999999REMMET053METAR ZSSS 040830Z 18004MPS CAVOK 10/M04 Q1022 NOSIG=
0080583670999992024010409004+31198+121336FM-15+000399999V0201601N005019999999Y009900599+01001-00301999999ADDMA1102201999999REMMET053METAR ZSSS 040900Z 16005MPS CAVOK 10/M03 Q1022 NOSIG=
0080583670999992024010409304+31198+121336FM-15+000399999V0201501N004019999999Y009900599+00801-00301999999ADDMA1102201999999REMMET053METAR ZSSS 040930Z 15004MPS CAVOK 08/M03 Q1022 NOSIG=
0080583670999992024010410004+31198+121336FM-15+000399999V0201501N004019999999Y009900599+00801-00301999999ADDMA1102201999999REMMET053METAR ZSSS 041000Z 15004MPS CAVOK 08/M03 Q1022 NOSIG=
0080583670999992024010410304+31198+121336FM-15+000399999V0201501N004019999999Y009900599+00701-00301999999ADDMA1102201999999REMMET053METAR ZSSS 041030Z 15004MPS CAVOK 07/M03 Q1022 NOSIG=
0080583670999992024010411004+31198+121336FM-15+000399999V0201501N004019999999Y009900599+00701-00101999999ADDMA1102201999999REMMET053METAR ZSSS 041100Z 15004MPS CAVOK 07/M01 Q1022 NOSIG=
0079583670999992024010411304+31198+121336FM-15+000399999V0201501N004019999999Y009900599+00801+00001999999ADDMA1102201999999REMMET052METAR ZSSS 041130Z 15004MPS CAVOK 08/00 Q1022 NOSIG=
0079583670999992024010412004+31198+121336FM-15+000399999V0201501N004019999999Y009900599+00701+00101999999ADDMA1102301999999REMMET052METAR ZSSS 041200Z 15004MPS CAVOK 07/01 Q1023 NOSIG=
0108583670999992024010412304+31198+121336FM-15+000399999V0201501N004012200019N008000199+00701+00101999999ADDGF100991999999999999999999MA1102201999999REMMET055METAR ZSSS 041230Z 15004MPS 8000 NSC 07/01 Q1022 NOSIG=
0108583670999992024010413004+31198+121336FM-15+000399999V0201601N003012200019N008000199+00701+00201999999ADDGF100991999999999999999999MA1102201999999REMMET055METAR ZSSS 041300Z 16003MPS 8000 NSC 07/02 Q1022 NOSIG=
0108583670999992024010413304+31198+121336FM-15+000399999V0201501N003012200019N008000199+00701+00301999999ADDGF100991999999999999999999MA1102201999999REMMET055METAR ZSSS 041330Z 15003MPS 8000 NSC 07/03 Q1022 NOSIG=
0108583670999992024010414004+31198+121336FM-15+000399999V0201501N003012200019N008000199+00701+00201999999ADDGF100991999999999999999999MA1102201999999REMMET055METAR ZSSS 041400Z 15003MPS 8000 NSC 07/02 Q1022 NOSIG=
0108583670999992024010414304+31198+121336FM-15+000399999V0201501N003012200019N008000199+00701+00201999999ADDGF100991999999999999999999MA1102201999999REMMET055METAR ZSSS 041430Z 15003MPS 8000 NSC 07/02 Q1022 NOSIG=
0108583670999992024010415004+31198+121336FM-15+000399999V0201501N002012200019N008000199+00601+00301999999ADDGF100991999999999999999999MA1102201999999REMMET055METAR ZSSS 041500Z 15002MPS 8000 NSC 06/03 Q1022 NOSIG=
0108583670999992024010415304+31198+121336FM-15+000399999V0201501N002012200019N008000199+00601+00301999999ADDGF100991999999999999999999MA1102201999999REMMET055METAR ZSSS 041530Z 15002MPS 8000 NSC 06/03 Q1022 NOSIG=
0108583670999992024010416004+31198+121336FM-15+000399999V0201501N002012200019N008000199+00501+00201999999ADDGF100991999999999999999999MA1102201999999REMMET055METAR ZSSS 041600Z 15002MPS 8000 NSC 05/02 Q1022 NOSIG=
0108583670999992024010416304+31198+121336FM-15+000399999V0201501N002012200019N008000199+00601+00201999999ADDGF100991999999999999999999MA1102201999999REMMET055METAR ZSSS 041630Z 15002MPS 8000 NSC 06/02 Q1022 NOSIG=
0108583670999992024010417004+31198+121336FM-15+000399999V0201601N002012200019N008000199+00601+00201999999ADDGF100991999999999999999999MA1102201999999REMMET055METAR ZSSS 041700Z 16002MPS 8000 NSC 06/02 Q1022 NOSIG=
0079583670999992024010417304+31198+121336FM-15+000399999V0201501N002019999999Y009900599+00501+00201999999ADDMA1102201999999REMMET052METAR ZSSS 041730Z 15002MPS CAVOK 05/02 Q1022 NOSIG=
0079583670999992024010418004+31198+121336FM-15+000399999V0201501N002019999999Y009900599+00501+00201999999ADDMA1102101999999REMMET052METAR ZSSS 041800Z 15002MPS CAVOK 05/02 Q1021 NOSIG=
0079583670999992024010418304+31198+121336FM-15+000399999V0201501N002019999999Y009900599+00501+00201999999ADDMA1102101999999REMMET052METAR ZSSS 041830Z 15002MPS CAVOK 05/02 Q1021 NOSIG=
0079583670999992024010419004+31198+121336FM-15+000399999V0201601N002019999999Y009900599+00501+00201999999ADDMA1102101999999REMMET052METAR ZSSS 041900Z 16002MPS CAVOK 05/02 Q1021 NOSIG=
0079583670999992024010419304+31198+121336FM-15+000399999V0201501N001019999999Y009900599+00401+00101999999ADDMA1102101999999REMMET052METAR ZSSS 041930Z 15001MPS CAVOK 04/01 Q1021 NOSIG=
0079583670999992024010420004+31198+121336FM-15+000399999V0201601N001019999999Y009900599+00501+00201999999ADDMA1102101999999REMMET052METAR ZSSS 042000Z 16001MPS CAVOK 05/02 Q1021 NOSIG=
0079583670999992024010420304+31198+121336FM-15+000399999V0201801N002019999999Y009900599+00401+00201999999ADDMA1102101999999REMMET052METAR ZSSS 042030Z 18002MPS CAVOK 04/02 Q1021 NOSIG=
0079583670999992024010421004+31198+121336FM-15+000399999V0202001N001019999999Y009900599+00601+00201999999ADDMA1102101999999REMMET052METAR ZSSS 042100Z 20001MPS CAVOK 06/02 Q1021 NOSIG=
0079583670999992024010421304+31198+121336FM-15+000399999V0201801N001019999999Y009900599+00501+00201999999ADDMA1102101999999REMMET052METAR ZSSS 042130Z 18001MPS CAVOK 05/02 Q1021 NOSIG=
0079583670999992024010422004+31198+121336FM-15+000399999V0209999C000019999999Y009900599+00501+00201999999ADDMA1102201999999REMMET052METAR ZSSS 042200Z 00000MPS CAVOK 05/02 Q1022 NOSIG=
0079583670999992024010422304+31198+121336FM-15+000399999V0209999C000019999999Y009900599+00401+00201999999ADDMA1102201999999REMMET052METAR ZSSS 042230Z 00000MPS CAVOK 04/02 Q1022 NOSIG=
0079583670999992024010423004+31198+121336FM-15+000399999V0201601N001019999999Y009900599+00501+00301999999ADDMA1102201999999REMMET052METAR ZSSS 042300Z 16001MPS CAVOK 05/03 Q1022 NOSIG=
0079583670999992024010423304+31198+121336FM-15+000399999V0201901N002019999999Y009900599+00501+00301999999ADDMA1102201999999REMMET052METAR ZSSS 042330Z 19002MPS CAVOK 05/03 Q1022 NOSIG=
0079583670999992024010500004+31198+121336FM-15+000399999V0201601N001019999999Y009900599+00601+00301999999ADDMA1102201999999REMMET052METAR ZSSS 050000Z 16001MPS CAVOK 06/03 Q1022 NOSIG=
0108583670999992024010500304+31198+121336FM-15+000399999V0209999V001012200019N008000199+00701+00401999999ADDGF100991999999999999999999MA1102301999999REMMET055METAR ZSSS 050030Z VRB01MPS 8000 NSC 07/04 Q1023 NOSIG=
0116583670999992024010501004+31198+121336FM-15+000399999V0201901V002012200019N008000199+00801+00401999999ADDGF100991999999999999999999MA1102301999999REMMET063METAR ZSSS 050100Z 19002MPS 150V210 8000 NSC 08/04 Q1023 NOSIG=
0116583670999992024010501304+31198+121336FM-15+000399999V0202401V002012200019N008000199+00901+00201999999ADDGF100991999999999999999999MA1102301999999REMMET063METAR ZSSS 050130Z 24002MPS 140V270 8000 NSC 09/02 Q1023 NOSIG=
0116583670999992024010502004+31198+121336FM-15+000399999V0202301V002012200019N008000199+01001+00201999999ADDGF100991999999999999999999MA1102301999999REMMET063METAR ZSSS 050200Z 23002MPS 180V290 8000 NSC 10/02 Q1023 NOSIG=
0116583670999992024010502304+31198+121336FM-15+000399999V0202801V002012200019N008000199+01001+00201999999ADDGF100991999999999999999999MA1102301999999REMMET063METAR ZSSS 050230Z 28002MPS 240V310 8000 NSC 10/02 Q1023 NOSIG=
0108583670999992024010503004+31198+121336FM-15+000399999V0209999V002012200019N008000199+01101+00201999999ADDGF100991999999999999999999MA1102301999999REMMET055METAR ZSSS 050300Z VRB02MPS 8000 NSC 11/02 Q1023 NOSIG=
0116583670999992024010503304+31198+121336FM-15+000399999V0202801V002012200019N008000199+01301+00201999999ADDGF100991999999999999999999MA1102201999999REMMET063METAR ZSSS 050330Z 28002MPS 200V360 8000 NSC 13/02 Q1022 NOSIG=
0116583670999992024010504004+31198+121336FM-15+000399999V0203201V002012200019N008000199+01401+00201999999ADDGF100991999999999999999999MA1102201999999REMMET063METAR ZSSS 050400Z 32002MPS 250V040 8000 NSC 14/02 Q1022 NOSIG=
0116583670999992024010504304+31198+121336FM-15+000399999V0203101V002012200019N008000199+01501+00301999999ADDGF100991999999999999999999MA1102101999999REMMET063METAR ZSSS 050430Z 31002MPS 270V010 8000 NSC 15/03 Q1021 NOSIG=
0116583670999992024010505004+31198+121336FM-15+000399999V0203301V002012200019N008000199+01501+00201999999ADDGF100991999999999999999999MA1102101999999REMMET063METAR ZSSS 050500Z 33002MPS 270V020 8000 NSC 15/02 Q1021 NOSIG=
0087583670999992024010505304+31198+121336FM-15+000399999V0202901V003019999999Y009900599+01501+00101999999ADDMA1102101999999REMMET060METAR ZSSS 050530Z 29003MPS 240V340 CAVOK 15/01 Q1021 NOSIG=
0087583670999992024010506004+31198+121336FM-15+000399999V0202801V003019999999Y009900599+01601+00101999999ADDMA1102001999999REMMET060METAR ZSSS 050600Z 28003MPS 250V340 CAVOK 16/01 Q1020 NOSIG=
0088583670999992024010506304+31198+121336FM-15+000399999V0203001V003019999999Y009900599+01601+00001999999ADDMA1102001999999REMMET061METAR ZSSS 050630Z 30003MPS 260V350 CAVOK 16/M00 Q1020 NOSIG=
0088583670999992024010507004+31198+121336FM-15+000399999V0203101V002019999999Y009900599+01501+00001999999ADDMA1102001999999REMMET061METAR ZSSS 050700Z 31002MPS 260V020 CAVOK 15/M00 Q1020 NOSIG=
0088583670999992024010507304+31198+121336FM-15+000399999V0203201V002019999999Y009900599+01501+00001999999ADDMA1102001999999REMMET061METAR ZSSS 050730Z 32002MPS 260V360 CAVOK 15/M00 Q1020 NOSIG=
0088583670999992024010508004+31198+121336FM-15+000399999V0203401V002019999999Y009900599+01501+00001999999ADDMA1102101999999REMMET061METAR ZSSS 050800Z 34002MPS 310V010 CAVOK 15/M00 Q1021 NOSIG=
0088583670999992024010508304+31198+121336FM-15+000399999V0203101V002019999999Y009900599+01401+00001999999ADDMA1102101999999REMMET061METAR ZSSS 050830Z 31002MPS 280V030 CAVOK 14/M00 Q1021 NOSIG=
0079583670999992024010509004+31198+121336FM-15+000399999V0209999V001019999999Y009900599+01301+00001999999ADDMA1102101999999REMMET052METAR ZSSS 050900Z VRB01MPS CAVOK 13/00 Q1021 NOSIG=
0088583670999992024010509304+31198+121336FM-15+000399999V0202901V002019999999Y009900599+01301-00101999999ADDMA1102101999999REMMET061METAR ZSSS 050930Z 29002MPS 260V340 CAVOK 13/M01 Q1021 NOSIG=
0079583670999992024010510004+31198+121336FM-15+000399999V0209999V001019999999Y009900599+01201+00001999999ADDMA1102201999999REMMET052METAR ZSSS 051000Z VRB01MPS CAVOK 12/00 Q1022 NOSIG=
0079583670999992024010510304+31198+121336FM-15+000399999V0203601N004019999999Y009900599+01101+00201999999ADDMA1102201999999REMMET052METAR ZSSS 051030Z 36004MPS CAVOK 11/02 Q1022 NOSIG=
0079583670999992024010511004+31198+121336FM-15+000399999V0209999V001019999999Y009900599+00901+00201999999ADDMA1102201999999REMMET052METAR ZSSS 051100Z VRB01MPS CAVOK 09/02 Q1022 NOSIG=
0079583670999992024010511304+31198+121336FM-15+000399999V0209999V001019999999Y009900599+01101+00301999999ADDMA1102201999999REMMET052METAR ZSSS 051130Z VRB01MPS CAVOK 11/03 Q1022 NOSIG=
0108583670999992024010512004+31198+121336FM-15+000399999V0200701N001012200019N008000199+01001+00301999999ADDGF100991999999999999999999MA1102301999999REMMET055METAR ZSSS 051200Z 07001MPS 8000 NSC 10/03 Q1023 NOSIG=
0108583670999992024010512304+31198+121336FM-15+000399999V0209999V001012200019N008000199+00901+00301999999ADDGF100991999999999999999999MA1102301999999REMMET055METAR ZSSS 051230Z VRB01MPS 8000 NSC 09/03 Q1023 NOSIG=
0116583670999992024010513004+31198+121336FM-15+000399999V0201401V002012200019N008000199+00901+00301999999ADDGF100991999999999999999999MA1102301999999REMMET063METAR ZSSS 051300Z 14002MPS 100V160 8000 NSC 09/03 Q1023 NOSIG=
0116583670999992024010513304+31198+121336FM-15+000399999V0200901V002012200019N008000199+00901+00301999999ADDGF100991999999999999999999MA1102301999999REMMET063METAR ZSSS 051330Z 09002MPS 040V140 8000 NSC 09/03 Q1023 NOSIG=
0108583670999992024010514004+31198+121336FM-15+000399999V0209999C000012200019N008000199+00801+00301999999ADDGF100991999999999999999999MA1102301999999REMMET055METAR ZSSS 051400Z 00000MPS 8000 NSC 08/03 Q1023 NOSIG=
0108583670999992024010514304+31198+121336FM-15+000399999V0203601N003012200019N007000199+00701+00301999999ADDGF100991999999999999999999MA1102301999999REMMET055METAR ZSSS 051430Z 36003MPS 7000 NSC 07/03 Q1023 NOSIG=
0108583670999992024010515004+31198+121336FM-15+000399999V0203601N002012200019N007000199+00701+00401999999ADDGF100991999999999999999999MA1102301999999REMMET055METAR ZSSS 051500Z 36002MPS 7000 NSC 07/04 Q1023 NOSIG=
0108583670999992024010515304+31198+121336FM-15+000399999V0203401N001012200019N007000199+00701+00301999999ADDGF100991999999999999999999MA1102301999999REMMET055METAR ZSSS 051530Z 34001MPS 7000 NSC 07/03 Q1023 NOSIG=
0108583670999992024010516004+31198+121336FM-15+000399999V0200201N001012200019N007000199+00601+00301999999ADDGF100991999999999999999999MA1102301999999REMMET055METAR ZSSS 051600Z 02001MPS 7000 NSC 06/03 Q1023 NOSIG=
0108583670999992024010516304+31198+121336FM-15+000399999V0203501N002012200019N006000199+00601+00201999999ADDGF100991999999999999999999MA1102301999999REMMET055METAR ZSSS 051630Z 35002MPS 6000 NSC 06/02 Q1023 NOSIG=
0108583670999992024010517004+31198+121336FM-15+000399999V0203601N002012200019N006000199+00501+00201999999ADDGF100991999999999999999999MA1102301999999REMMET055METAR ZSSS 051700Z 36002MPS 6000 NSC 05/02 Q1023 NOSIG=
0117583670999992024010517304+31198+121336FM-15+000399999V0203601N002012200019N005000199+00401+00201999999ADDGF100991999999999999999999MA1102301999999MW1101REMMET058METAR ZSSS 051730Z 36002MPS 5000 BR NSC 04/02 Q1023 NOSIG=
0117583670999992024010518004+31198+121336FM-15+000399999V0203501N002012200019N005000199+00501+00201999999ADDGF100991999999999999999999MA1102301999999MW1101REMMET058METAR ZSSS 051800Z 35002MPS 5000 BR NSC 05/02 Q1023 NOSIG=
0117583670999992024010518304+31198+121336FM-15+000399999V0203501N002012200019N005000199+00401+00201999999ADDGF100991999999999999999999MA1102301999999MW1101REMMET058METAR ZSSS 051830Z 35002MPS 5000 BR NSC 04/02 Q1023 NOSIG=
0117583670999992024010519004+31198+121336FM-15+000399999V0203601N001012200019N005000199+00501+00201999999ADDGF100991999999999999999999MA1102301999999MW1101REMMET058METAR ZSSS 051900Z 36001MPS 5000 BR NSC 05/02 Q1023 NOSIG=
0117583670999992024010519304+31198+121336FM-15+000399999V0203601N002012200019N005000199+00401+00201999999ADDGF100991999999999999999999MA1102301999999MW1101REMMET058METAR ZSSS 051930Z 36002MPS 5000 BR NSC 04/02 Q1023 NOSIG=
0117583670999992024010520004+31198+121336FM-15+000399999V0203501N003012200019N005000199+00401+00201999999ADDGF100991999999999999999999MA1102301999999MW1101REMMET058METAR ZSSS 052000Z 35003MPS 5000 BR NSC 04/02 Q1023 NOSIG=
0117583670999992024010520304+31198+121336FM-15+000399999V0203501N002012200019N005000199+00401+00201999999ADDGF100991999999999999999999MA1102301999999MW1101REMMET058METAR ZSSS 052030Z 35002MPS 5000 BR NSC 04/02 Q1023 NOSIG=
0117583670999992024010521004+31198+121336FM-15+000399999V0203601N003012200019N005000199+00401+00201999999ADDGF100991999999999999999999MA1102301999999MW1101REMMET058METAR ZSSS 052100Z 36003MPS 5000 BR NSC 04/02 Q1023 NOSIG=
0117583670999992024010521304+31198+121336FM-15+000399999V0203601N003012200019N005000199+00401+00201999999ADDGF100991999999999999999999MA1102401999999MW1101REMMET058METAR ZSSS 052130Z 36003MPS 5000 BR NSC 04/02 Q1024 NOSIG=
0117583670999992024010522004+31198+121336FM-15+000399999V0203601N003012200019N004000199+00401+00301999999ADDGF100991999999999999999999MA1102401999999MW1101REMMET058METAR ZSSS 052200Z 36003MPS 4000 BR NSC 04/03 Q1024 NOSIG=
0117583670999992024010522304+31198+121336FM-15+000399999V0203601N003012200019N004000199+00401+00201999999ADDGF100991999999999999999999MA1102401999999MW1101REMMET058METAR ZSSS 052230Z 36003MPS 4000 BR NSC 04/02 Q1024 NOSIG=
0129583670999992024010523004+31198+121336FM-15+000399999V0200101N003012200019N003500199+00401+00201999999ADDGF100991999999999999999999MA1102401999999MW1101REMMET070METAR ZSSS 052300Z 01003MPS 3500 BR NSC 04/02 Q1024 BECMG TL2340 2800=
0117583670999992024010523304+31198+121336FM-15+000399999V0200101N002012200019N002000199+00401+00201999999ADDGF100991999999999999999999MA1102501999999MW1101REMMET058METAR ZSSS 052330Z 01002MPS 2000 BR NSC 04/02 Q1025 NOSIG=
0129583670999992024010600004+31198+121336FM-15+000399999V0200101N002012200019N002000199+00601+00401999999ADDGF100991999999999999999999MA1102501999999MW1101REMMET070METAR ZSSS 060000Z 01002MPS 2000 BR NSC 06/04 Q1025 BECMG TL0130 3000=
0117583670999992024010600304+31198+121336FM-15+000399999V0200101N002012200019N002000199+00601+00401999999ADDGF100991999999999999999999MA1102501999999MW1101REMMET058METAR ZSSS 060030Z 01002MPS 2000 BR NSC 06/04 Q1025 NOSIG=
0129583670999992024010601004+31198+121336FM-15+000399999V0200101N002012200019N002000199+00701+00401999999ADDGF100991999999999999999999MA1102501999999MW1101REMMET070METAR ZSSS 060100Z 01002MPS 2000 BR NSC 07/04 Q1025 BECMG TL0240 3000=
0117583670999992024010601304+31198+121336FM-15+000399999V0209999V001012200019N002000199+00901+00501999999ADDGF100991999999999999999999MA1102501999999MW1101REMMET058METAR ZSSS 060130Z VRB01MPS 2000 BR NSC 09/05 Q1025 NOSIG=
0137583670999992024010602004+31198+121336FM-15+000399999V0203501V002012200019N002700199+01001+00401999999ADDGF100991999999999999999999MA1102501999999MW1051REMMET078METAR ZSSS 060200Z 35002MPS 310V030 2700 HZ NSC 10/04 Q1025 BECMG TL0340 3000=
0125583670999992024010602304+31198+121336FM-15+000399999V0203301V002012200019N003000199+01101+00401999999ADDGF100991999999999999999999MA1102501999999MW1051REMMET066METAR ZSSS 060230Z 33002MPS 290V020 3000 HZ NSC 11/04 Q1025 NOSIG=
0117583670999992024010603004+31198+121336FM-15+000399999V0209999V002012200019N004000199+01101+00301999999ADDGF100991999999999999999999MA1102501999999MW1051REMMET058METAR ZSSS 060300Z VRB02MPS 4000 HZ NSC 11/03 Q1025 NOSIG=
0117583670999992024010603304+31198+121336FM-15+000399999V0209999V001012200019N004000199+01201+00301999999ADDGF100991999999999999999999MA1102401999999MW1051REMMET058METAR ZSSS 060330Z VRB01MPS 4000 HZ NSC 12/03 Q1024 NOSIG=
0125583670999992024010604004+31198+121336FM-15+000399999V0203201V002012200019N004000199+01301+00301999999ADDGF100991999999999999999999MA1102401999999MW1051REMMET066METAR ZSSS 060400Z 32002MPS 280V010 4000 HZ NSC 13/03 Q1024 NOSIG=
0125583670999992024010604304+31198+121336FM-15+000399999V0203201V003012200019N004000199+01301+00301999999ADDGF100991999999999999999999MA1102401999999MW1051REMMET066METAR ZSSS 060430Z 32003MPS 290V030 4000 HZ NSC 13/03 Q1024 NOSIG=
0117583670999992024010605004+31198+121336FM-15+000399999V0209999V003012200019N005000199+01401+00301999999ADDGF100991999999999999999999MA1102301999999MW1051REMMET058METAR ZSSS 060500Z VRB03MPS 5000 HZ NSC 14/03 Q1023 NOSIG=
0125583670999992024010605304+31198+121336FM-15+000399999V0203201V003012200019N005000199+01401+00301999999ADDGF100991999999999999999999MA1102301999999MW1051REMMET066METAR ZSSS 060530Z 32003MPS 280V020 5000 HZ NSC 14/03 Q1023 NOSIG=
0116583670999992024010606004+31198+121336FM-15+000399999V0203401V004012200019N007000199+01401+00201999999ADDGF100991999999999999999999MA1102301999999REMMET063METAR ZSSS 060600Z 34004MPS 300V010 7000 NSC 14/02 Q1023 NOSIG=
0116583670999992024010606304+31198+121336FM-15+000399999V0203501V003012200019N007000199+01401+00201999999ADDGF100991999999999999999999MA1102301999999REMMET063METAR ZSSS 060630Z 35003MPS 320V020 7000 NSC 14/02 Q1023 NOSIG=
0108583670999992024010607004+31198+121336FM-15+000399999V0203601N005012200019N007000199+01301+00201999999ADDGF100991999999999999999999MA1102301999999REMMET055METAR ZSSS 060700Z 36005MPS 7000 NSC 13/02 Q1023 NOSIG=
0108583670999992024010607304+31198+121336FM-15+000399999V0203601N004012200019N007000199+01201+00301999999ADDGF100991999999999999999999MA1102301999999REMMET055METAR ZSSS 060730Z 36004MPS 7000 NSC 12/03 Q1023 NOSIG=
0108583670999992024010608004+31198+121336FM-15+000399999V0200101N005012200019N007000199+01201+00301999999ADDGF100991999999999999999999MA1102401999999REMMET055METAR ZSSS 060800Z 01005MPS 7000 NSC 12/03 Q1024 NOSIG=
0117583670999992024010608304+31198+121336FM-15+000399999V0200201N004012200019N005000199+01101+00301999999ADDGF100991999999999999999999MA1102401999999MW1051REMMET058METAR ZSSS 060830Z 02004MPS 5000 HZ NSC 11/03 Q1024 NOSIG=
0117583670999992024010609004+31198+121336FM-15+000399999V0200101N005012200019N004000199+01001+00301999999ADDGF100991999999999999999999MA1102501999999MW1051REMMET058METAR ZSSS 060900Z 01005MPS 4000 HZ NSC 10/03 Q1025 NOSIG=
0117583670999992024010609304+31198+121336FM-15+000399999V0200101N004012200019N005000199+00901+00301999999ADDGF100991999999999999999999MA1102501999999MW1051REMMET058METAR ZSSS 060930Z 01004MPS 5000 HZ NSC 09/03 Q1025 NOSIG=
0108583670999992024010610004+31198+121336FM-15+000399999V0200101N004012200019N006000199+00901+00201999999ADDGF100991999999999999999999MA1102501999999REMMET055METAR ZSSS 061000Z 01004MPS 6000 NSC 09/02 Q1025 NOSIG=
0108583670999992024010610304+31198+121336FM-15+000399999V0203601N004012200019N006000199+00801+00201999999ADDGF100991999999999999999999MA1102601999999REMMET055METAR ZSSS 061030Z 36004MPS 6000 NSC 08/02 Q1026 NOSIG=
0108583670999992024010611004+31198+121336FM-15+000399999V0200101N003012200019N007000199+00701+00201999999ADDGF100991999999999999999999MA1102601999999REMMET055METAR ZSSS 061100Z 01003MPS 7000 NSC 07/02 Q1026 NOSIG=
0108583670999992024010611304+31198+121336FM-15+000399999V0200101N003012200019N007000199+00701+00201999999ADDGF100991999999999999999999MA1102601999999REMMET055METAR ZSSS 061130Z 01003MPS 7000 NSC 07/02 Q1026 NOSIG=
0108583670999992024010612004+31198+121336FM-15+000399999V0200101N004012200019N007000199+00701+00301999999ADDGF100991999999999999999999MA1102701999999REMMET055METAR ZSSS 061200Z 01004MPS 7000 NSC 07/03 Q1027 NOSIG=
0108583670999992024010612304+31198+121336FM-15+000399999V0203601N003012200019N007000199+00701+00301999999ADDGF100991999999999999999999MA1102701999999REMMET055METAR ZSSS 061230Z 36003MPS 7000 NSC 07/03 Q1027 NOSIG=
0108583670999992024010613004+31198+121336FM-15+000399999V0203501N003012200019N006000199+00601+00401999999ADDGF100991999999999999999999MA1102701999999REMMET055METAR ZSSS 061300Z 35003MPS 6000 NSC 06/04 Q1027 NOSIG=
0117583670999992024010613304+31198+121336FM-15+000399999V0203601N004012200019N005000199+00601+00401999999ADDGF100991999999999999999999MA1102701999999MW1101REMMET058METAR ZSSS 061330Z 36004MPS 5000 BR NSC 06/04 Q1027 NOSIG=
0117583670999992024010614004+31198+121336FM-15+000399999V0203601N004012200019N005000199+00601+00401999999ADDGF100991999999999999999999MA1102701999999MW1101REMMET058METAR ZSSS 061400Z 36004MPS 5000 BR NSC 06/04 Q1027 NOSIG=
0117583670999992024010614304+31198+121336FM-15+000399999V0203601N004012200019N005000199+00501+00301999999ADDGF100991999999999999999999MA1102801999999MW1101REMMET058METAR ZSSS 061430Z 36004MPS 5000 BR NSC 05/03 Q1028 NOSIG=
0117583670999992024010615004+31198+121336FM-15+000399999V0200101N004012200019N004000199+00501+00401999999ADDGF100991999999999999999999MA1102801999999MW1101REMMET058METAR ZSSS 061500Z 01004MPS 4000 BR NSC 05/04 Q1028 NOSIG=
0117583670999992024010615304+31198+121336FM-15+000399999V0203601N004012200019N004000199+00501+00401999999ADDGF100991999999999999999999MA1102801999999MW1101REMMET058METAR ZSSS 061530Z 36004MPS 4000 BR NSC 05/04 Q1028 NOSIG=
0117583670999992024010616004+31198+121336FM-15+000399999V0203601N004012200019N004000199+00501+00301999999ADDGF100991999999999999999999MA1102801999999MW1101REMMET058METAR ZSSS 061600Z 36004MPS 4000 BR NSC 05/03 Q1028 NOSIG=
0117583670999992024010616304+31198+121336FM-15+000399999V0200101N004012200019N004000199+00401+00301999999ADDGF100991999999999999999999MA1102701999999MW1101REMMET058METAR ZSSS 061630Z 01004MPS 4000 BR NSC 04/03 Q1027 NOSIG=
0117583670999992024010617004+31198+121336FM-15+000399999V0203601N004012200019N004000199+00401+00201999999ADDGF100991999999999999999999MA1102801999999MW1101REMMET058METAR ZSSS 061700Z 36004MPS 4000 BR NSC 04/02 Q1028 NOSIG=
0117583670999992024010617304+31198+121336FM-15+000399999V0200101N004012200019N004000199+00401+00301999999ADDGF100991999999999999999999MA1102801999999MW1101REMMET058METAR ZSSS 061730Z 01004MPS 4000 BR NSC 04/03 Q1028 NOSIG=
0117583670999992024010618004+31198+121336FM-15+000399999V0200101N003012200019N004000199+00401+00201999999ADDGF100991999999999999999999MA1102801999999MW1101REMMET058METAR ZSSS 061800Z 01003MPS 4000 BR NSC 04/02 Q1028 NOSIG=
0117583670999992024010618304+31198+121336FM-15+000399999V0200101N003012200019N005000199+00301+00201999999ADDGF100991999999999999999999MA1102901999999MW1101REMMET058METAR ZSSS 061830Z 01003MPS 5000 BR NSC 03/02 Q1029 NOSIG=
0117583670999992024010619004+31198+121336FM-15+000399999V0203601N003012200019N005000199+00401+00201999999ADDGF100991999999999999999999MA1102801999999MW1101REMMET058METAR ZSSS 061900Z 36003MPS 5000 BR NSC 04/02 Q1028 NOSIG=
0117583670999992024010619304+31198+121336FM-15+000399999V0203601N002012200019N005000199+00301+00101999999ADDGF100991999999999999999999MA1102801999999MW1101REMMET058METAR ZSSS 061930Z 36002MPS 5000 BR NSC 03/01 Q1028 NOSIG=
0117583670999992024010620004+31198+121336FM-15+000399999V0203501N002012200019N005000199+00401+00201999999ADDGF100991999999999999999999MA1102901999999MW1101REMMET058METAR ZSSS 062000Z 35002MPS 5000 BR NSC 04/02 Q1029 NOSIG=
0117583670999992024010620304+31198+121336FM-15+000399999V0200101N003012200019N005000199+00301+00101999999ADDGF100991999999999999999999MA1102901999999MW1101REMMET058METAR ZSSS 062030Z 01003MPS 5000 BR NSC 03/01 Q1029 NOSIG=
0117583670999992024010621004+31198+121336FM-15+000399999V0203601N003012200019N005000199+00301+00101999999ADDGF100991999999999999999999MA1102901999999MW1101REMMET058METAR ZSSS 062100Z 36003MPS 5000 BR NSC 03/01 Q1029 NOSIG=
0117583670999992024010621304+31198+121336FM-15+000399999V0203501N002012200019N005000199+00301+00201999999ADDGF100991999999999999999999MA1102901999999MW1101REMMET058METAR ZSSS 062130Z 35002MPS 5000 BR NSC 03/02 Q1029 NOSIG=
0117583670999992024010622004+31198+121336FM-15+000399999V0203601N002012200019N005000199+00301+00101999999ADDGF100991999999999999999999MA1102901999999MW1101REMMET058METAR ZSSS 062200Z 36002MPS 5000 BR NSC 03/01 Q1029 NOSIG=
0117583670999992024010622304+31198+121336FM-15+000399999V0203401N003012200019N005000199+00301+00101999999ADDGF100991999999999999999999MA1103001999999MW1101REMMET058METAR ZSSS 062230Z 34003MPS 5000 BR NSC 03/01 Q1030 NOSIG=
0117583670999992024010623004+31198+121336FM-15+000399999V0203501N003012200019N005000199+00301+00101999999ADDGF100991999999999999999999MA1103001999999MW1101REMMET058METAR ZSSS 062300Z 35003MPS 5000 BR NSC 03/01 Q1030 NOSIG=
0117583670999992024010623304+31198+121336FM-15+000399999V0203401N003012200019N005000199+00401+00101999999ADDGF100991999999999999999999MA1103101999999MW1101REMMET058METAR ZSSS 062330Z 34003MPS 5000 BR NSC 04/01 Q1031 NOSIG=
0117583670999992024010700004+31198+121336FM-15+000399999V0203401N003012200019N005000199+00401+00201999999ADDGF100991999999999999999999MA1103101999999MW1101REMMET058METAR ZSSS 070000Z 34003MPS 5000 BR NSC 04/02 Q1031 NOSIG=
0108583670999992024010700304+31198+121336FM-15+000399999V0203501N003012200019N007000199+00501+00201999999ADDGF100991999999999999999999MA1103101999999REMMET055METAR ZSSS 070030Z 35003MPS 7000 NSC 05/02 Q1031 NOSIG=
0079583670999992024010701004+31198+121336FM-15+000399999V0203601N004019999999Y009900599+00501+00101999999ADDMA1103201999999REMMET052METAR ZSSS 070100Z 36004MPS CAVOK 05/01 Q1032 NOSIG=
0079583670999992024010701304+31198+121336FM-15+000399999V0203601N005019999999Y009900599+00601+00101999999ADDMA1103201999999REMMET052METAR ZSSS 070130Z 36005MPS CAVOK 06/01 Q1032 NOSIG=
0079583670999992024010702004+31198+121336FM-15+000399999V0203501N005019999999Y009900599+00601+00101999999ADDMA1103201999999REMMET052METAR ZSSS 070200Z 35005MPS CAVOK 06/01 Q1032 NOSIG=
0157583670999992024010702304+31198+121336FM-15+000399999V0203601V005019999999N009999199+00701+00001999999ADDGA1021+010061999GE19AGL   +99999+99999GF199999021999010061999999MA1103201999999REMMET066METAR ZSSS 070230Z 36005MPS 320V030 9999 FEW033 07/00 Q1032 NOSIG=
0150583670999992024010703004+31198+121336FM-15+000399999V0200301N005019999999N009999199+00801-00101999999ADDGA1021+010061999GE19AGL   +99999+99999GF199999021999010061999999MA1103101999999REMMET059METAR ZSSS 070300Z 03005MPS 9999 FEW033 08/M01 Q1031 NOSIG=
0088583670999992024010703304+31198+121336FM-15+000399999V0200101V005019999999Y009900599+00801-00201999999ADDMA1103101999999REMMET061METAR ZSSS 070330Z 01005MPS 330V030 CAVOK 08/M02 Q1031 NOSIG=
0088583670999992024010704004+31198+121336FM-15+000399999V0203601V004019999999Y009900599+00901-00301999999ADDMA1103101999999REMMET061METAR ZSSS 070400Z 36004MPS 320V050 CAVOK 09/M03 Q1031 NOSIG=
0080583670999992024010704304+31198+121336FM-15+000399999V0200201N005019999999Y009900599+00801-00401999999ADDMA1103001999999REMMET053METAR ZSSS 070430Z 02005MPS CAVOK 08/M04 Q1030 NOSIG=
0088583670999992024010705004+31198+121336FM-15+000399999V0200201V005019999999Y009900599+00901-00401999999ADDMA1103001999999REMMET061METAR ZSSS 070500Z 02005MPS 350V050 CAVOK 09/M04 Q1030 NOSIG=
0080583670999992024010705304+31198+121336FM-15+000399999V0203501N005019999999Y009900599+00901-00401999999ADDMA1103001999999REMMET053METAR ZSSS 070530Z 35005MPS CAVOK 09/M04 Q1030 NOSIG=
0080583670999992024010706004+31198+121336FM-15+000399999V0200101N005019999999Y009900599+00801-00501999999ADDMA1103001999999REMMET053METAR ZSSS 070600Z 01005MPS CAVOK 08/M05 Q1030 NOSIG=
0088583670999992024010706304+31198+121336FM-15+000399999V0203501V005019999999Y009900599+00901-00601999999ADDMA1102901999999REMMET061METAR ZSSS 070630Z 35005MPS 320V020 CAVOK 09/M06 Q1029 NOSIG=
0088583670999992024010707004+31198+121336FM-15+000399999V0200101V004019999999Y009900599+00901-00601999999ADDMA1102901999999REMMET061METAR ZSSS 070700Z 01004MPS 330V040 CAVOK 09/M06 Q1029 NOSIG=
0080583670999992024010707304+31198+121336FM-15+000399999V0200301N004019999999Y009900599+00801-00501999999ADDMA1103001999999REMMET053METAR ZSSS 070730Z 03004MPS CAVOK 08/M05 Q1030 NOSIG=
0080583670999992024010708004+31198+121336FM-15+000399999V0200301N004019999999Y009900599+00801-00501999999ADDMA1103001999999REMMET053METAR ZSSS 070800Z 03004MPS CAVOK 08/M05 Q1030 NOSIG=
0088583670999992024010708304+31198+121336FM-15+000399999V0200201V004019999999Y009900599+00701-00501999999ADDMA1103001999999REMMET061METAR ZSSS 070830Z 02004MPS 340V100 CAVOK 07/M05 Q1030 NOSIG=
0080583670999992024010709004+31198+121336FM-15+000399999V0200301N004019999999Y009900599+00701-00501999999ADDMA1103001999999REMMET053METAR ZSSS 070900Z 03004MPS CAVOK 07/M05 Q1030 NOSIG=
0080583670999992024010709304+31198+121336FM-15+000399999V0200101N004019999999Y009900599+00501-00501999999ADDMA1103001999999REMMET053METAR ZSSS 070930Z 01004MPS CAVOK 05/M05 Q1030 NOSIG=
0088583670999992024010710004+31198+121336FM-15+000399999V0200401V005019999999Y009900599+00601-00301999999ADDMA1103101999999REMMET061METAR ZSSS 071000Z 04005MPS 020V080 CAVOK 06/M03 Q1031 NOSIG=
0080583670999992024010710304+31198+121336FM-15+000399999V0200401N004019999999Y009900599+00501-00401999999ADDMA1103101999999REMMET053METAR ZSSS 071030Z 04004MPS CAVOK 05/M04 Q1031 NOSIG=
0080583670999992024010711004+31198+121336FM-15+000399999V0200301N004019999999Y009900599+00501-00401999999ADDMA1103101999999REMMET053METAR ZSSS 071100Z 03004MPS CAVOK 05/M04 Q1031 NOSIG=
0080583670999992024010711304+31198+121336FM-15+000399999V0200301N006019999999Y009900599+00401-00401999999ADDMA1103101999999REMMET053METAR ZSSS 071130Z 03006MPS CAVOK 04/M04 Q1031 NOSIG=
0080583670999992024010712004+31198+121336FM-15+000399999V0200501N005019999999Y009900599+00401-00301999999ADDMA1103101999999REMMET053METAR ZSSS 071200Z 05005MPS CAVOK 04/M03 Q1031 NOSIG=
0080583670999992024010712304+31198+121336FM-15+000399999V0200501N005019999999Y009900599+00401-00301999999ADDMA1103101999999REMMET053METAR ZSSS 071230Z 05005MPS CAVOK 04/M03 Q1031 NOSIG=
0088583670999992024010713004+31198+121336FM-15+000399999V0200501V004019999999Y009900599+00401-00301999999ADDMA1103101999999REMMET061METAR ZSSS 071300Z 05004MPS 030V090 CAVOK 04/M03 Q1031 NOSIG=
0088583670999992024010713304+31198+121336FM-15+000399999V0200601V003019999999Y009900599+00401-00301999999ADDMA1103101999999REMMET061METAR ZSSS 071330Z 06003MPS 030V090 CAVOK 04/M03 Q1031 NOSIG=
0080583670999992024010714004+31198+121336FM-15+000399999V0200501N004019999999Y009900599+00401-00301999999ADDMA1103101999999REMMET053METAR ZSSS 071400Z 05004MPS CAVOK 04/M03 Q1031 NOSIG=
0080583670999992024010714304+31198+121336FM-15+000399999V0200501N003019999999Y009900599+00301-00301999999ADDMA1103101999999REMMET053METAR ZSSS 071430Z 05003MPS CAVOK 03/M03 Q1031 NOSIG=
0088583670999992024010715004+31198+121336FM-15+000399999V0200801V002019999999Y009900599+00301-00301999999ADDMA1103101999999REMMET061METAR ZSSS 071500Z 08002MPS 040V100 CAVOK 03/M03 Q1031 NOSIG=
0080583670999992024010715304+31198+121336FM-15+000399999V0200601N003019999999Y009900599+00301-00301999999ADDMA1103001999999REMMET053METAR ZSSS 071530Z 06003MPS CAVOK 03/M03 Q1030 NOSIG=
0080583670999992024010716004+31198+121336FM-15+000399999V0200701N003019999999Y009900599+00401-00301999999ADDMA1103001999999REMMET053METAR ZSSS 071600Z 07003MPS CAVOK 04/M03 Q1030 NOSIG=
0080583670999992024010716304+31198+121336FM-15+000399999V0200801N002019999999Y009900599+00301-00301999999ADDMA1103001999999REMMET053METAR ZSSS 071630Z 08002MPS CAVOK 03/M03 Q1030 NOSIG=
0080583670999992024010717004+31198+121336FM-15+000399999V0200701N003019999999Y009900599+00301-00301999999ADDMA1103001999999REMMET053METAR ZSSS 071700Z 07003MPS CAVOK 03/M03 Q1030 NOSIG=
0080583670999992024010717304+31198+121336FM-15+000399999V0200701N002019999999Y009900599+00301-00301999999ADDMA1102901999999REMMET053METAR ZSSS 071730Z 07002MPS CAVOK 03/M03 Q1029 NOSIG=
0080583670999992024010718004+31198+121336FM-15+000399999V0200701N002019999999Y009900599+00301-00301999999ADDMA1102901999999REMMET053METAR ZSSS 071800Z 07002MPS CAVOK 03/M03 Q1029 NOSIG=
0080583670999992024010718304+31198+121336FM-15+000399999V0200701N002019999999Y009900599+00301-00301999999ADDMA1102801999999REMMET053METAR ZSSS 071830Z 07002MPS CAVOK 03/M03 Q1028 NOSIG=
0080583670999992024010719004+31198+121336FM-15+000399999V0209999V001019999999Y009900599+00201-00301999999ADDMA1102901999999REMMET053METAR ZSSS 071900Z VRB01MPS CAVOK 02/M03 Q1029 NOSIG=
0088583670999992024010719304+31198+121336FM-15+000399999V0200901V002019999999Y009900599+00301-00301999999ADDMA1102901999999REMMET061METAR ZSSS 071930Z 09002MPS 060V120 CAVOK 03/M03 Q1029 NOSIG=
0080583670999992024010720004+31198+121336FM-15+000399999V0200901N001019999999Y009900599+00301-00201999999ADDMA1102801999999REMMET053METAR ZSSS 072000Z 09001MPS CAVOK 03/M02 Q1028 NOSIG=
0088583670999992024010720304+31198+121336FM-15+000399999V0200901V002019999999Y009900599+00301-00201999999ADDMA1102701999999REMMET061METAR ZSSS 072030Z 09002MPS 060V120 CAVOK 03/M02 Q1027 NOSIG=
0088583670999992024010721004+31198+121336FM-15+000399999V0201001V002019999999Y009900599+00401-00201999999ADDMA1102701999999REMMET061METAR ZSSS 072100Z 10002MPS 080V140 CAVOK 04/M02 Q1027 NOSIG=
0080583670999992024010721304+31198+121336FM-15+000399999V0201201N002019999999Y009900599+00301-00201999999ADDMA1102701999999REMMET053METAR ZSSS 072130Z 12002MPS CAVOK 03/M02 Q1027 NOSIG=
0080583670999992024010722004+31198+121336FM-15+000399999V0201101N002019999999Y009900599+00401-00201999999ADDMA1102701999999REMMET053METAR ZSSS 072200Z 11002MPS CAVOK 04/M02 Q1027 NOSIG=
0080583670999992024010722304+31198+121336FM-15+000399999V0209999V001019999999Y009900599+00301-00201999999ADDMA1102801999999REMMET053METAR ZSSS 072230Z VRB01MPS CAVOK 03/M02 Q1028 NOSIG=
0088583670999992024010723004+31198+121336FM-15+000399999V0201001V002019999999Y009900599+00401-00201999999ADDMA1102701999999REMMET061METAR ZSSS 072300Z 10002MPS 080V150 CAVOK 04/M02 Q1027 NOSIG=
0080583670999992024010723304+31198+121336FM-15+000399999V0201101N003019999999Y009900599+00401-00101999999ADDMA1102701999999REMMET053METAR ZSSS 072330Z 11003MPS CAVOK 04/M01 Q1027 NOSIG=
0088583670999992024010800004+31198+121336FM-15+000399999V0201101V003019999999Y009900599+00501-00101999999ADDMA1102701999999REMMET061METAR ZSSS 080000Z 11003MPS 070V150 CAVOK 05/M01 Q1027 NOSIG=
0088583670999992024010800304+31198+121336FM-15+000399999V0201001V002019999999Y009900599+00501-00101999999ADDMA1102701999999REMMET061METAR ZSSS 080030Z 10002MPS 070V160 CAVOK 05/M01 Q1027 NOSIG=
0080583670999992024010801004+31198+121336FM-15+000399999V0201301N003019999999Y009900599+00601+00001999999ADDMA1102701999999REMMET053METAR ZSSS 080100Z 13003MPS CAVOK 06/M00 Q1027 NOSIG=
0088583670999992024010801304+31198+121336FM-15+000399999V0201301V004019999999Y009900599+00601+00001999999ADDMA1102801999999REMMET061METAR ZSSS 080130Z 13004MPS 100V160 CAVOK 06/M00 Q1028 NOSIG=
0087583670999992024010802004+31198+121336FM-15+000399999V0201401V004019999999Y009900599+00701+00001999999ADDMA1102701999999REMMET060METAR ZSSS 080200Z 14004MPS 100V160 CAVOK 07/00 Q1027 NOSIG=
0088583670999992024010802304+31198+121336FM-15+000399999V0201301V004019999999Y009900599+00701+00001999999ADDMA1102701999999REMMET061METAR ZSSS 080230Z 13004MPS 090V180 CAVOK 07/M00 Q1027 NOSIG=
0087583670999992024010803004+31198+121336FM-15+000399999V0201301V004019999999Y009900599+00801+00001999999ADDMA1102701999999REMMET060METAR ZSSS 080300Z 13004MPS 100V160 CAVOK 08/00 Q1027 NOSIG=
0087583670999992024010803304+31198+121336FM-15+000399999V0201301V004019999999Y009900599+00801+00001999999ADDMA1102601999999REMMET060METAR ZSSS 080330Z 13004MPS 100V170 CAVOK 08/00 Q1026 NOSIG=
0087583670999992024010804004+31198+121336FM-15+000399999V0201201V004019999999Y009900599+00901+00001999999ADDMA1102601999999REMMET060METAR ZSSS 080400Z 12004MPS 090V160 CAVOK 09/00 Q1026 NOSIG=
0087583670999992024010804304+31198+121336FM-15+000399999V0201301V004019999999Y009900599+00901+00101999999ADDMA1102501999999REMMET060METAR ZSSS 080430Z 13004MPS 100V170 CAVOK 09/01 Q1025 NOSIG=
0087583670999992024010805004+31198+121336FM-15+000399999V0201501V004019999999Y009900599+01001+00101999999ADDMA1102501999999REMMET060METAR ZSSS 080500Z 15004MPS 120V180 CAVOK 10/01 Q1025 NOSIG=
0087583670999992024010805304+31198+121336FM-15+000399999V0201401V004019999999Y009900599+01001+00101999999ADDMA1102401999999REMMET060METAR ZSSS 080530Z 14004MPS 100V180 CAVOK 10/01 Q1024 NOSIG=
0087583670999992024010806004+31198+121336FM-15+000399999V0201201V003019999999Y009900599+01001+00101999999ADDMA1102401999999REMMET060METAR ZSSS 080600Z 12003MPS 090V150 CAVOK 10/01 Q1024 NOSIG=
0079583670999992024010806304+31198+121336FM-15+000399999V0201401N004019999999Y009900599+00901+00201999999ADDMA1102401999999REMMET052METAR ZSSS 080630Z 14004MPS CAVOK 09/02 Q1024 NOSIG=
0118583670999992024010807004+31198+121336FM-15+000399999V0201301N004012200019N009999199+00901+00201999999ADDGF100991999999999999999999MA1102301999999MW1611REMMET059METAR ZSSS 080700Z 13004MPS 9999 -RA NSC 09/02 Q1023 NOSIG=
0118583670999992024010807304+31198+121336FM-15+000399999V0201601N005012200019N009999199+00901+00401999999ADDGF100991999999999999999999MA1102301999999MW1611REMMET059METAR ZSSS 080730Z 16005MPS 9999 -RA NSC 09/04 Q1023 NOSIG=
0118583670999992024010808004+31198+121336FM-15+000399999V0201601N004012200019N009999199+00801+00401999999ADDGF100991999999999999999999MA1102301999999MW1611REMMET059METAR ZSSS 080800Z 16004MPS 9999 -RA NSC 08/04 Q1023 NOSIG=
0118583670999992024010808304+31198+121336FM-15+000399999V0201501N003012200019N009999199+00801+00401999999ADDGF100991999999999999999999MA1102301999999MW1611REMMET059METAR ZSSS 080830Z 15003MPS 9999 -RA NSC 08/04 Q1023 NOSIG=
0118583670999992024010809004+31198+121336FM-15+000399999V0201401N003012200019N009999199+00801+00401999999ADDGF100991999999999999999999MA1102301999999MW1611REMMET059METAR ZSSS 080900Z 14003MPS 9999 -RA NSC 08/04 Q1023 NOSIG=
0079583670999992024010809304+31198+121336FM-15+000399999V0201301N004019999999Y009900599+00801+00401999999ADDMA1102301999999REMMET052METAR ZSSS 080930Z 13004MPS CAVOK 08/04 Q1023 NOSIG=
0087583670999992024010810004+31198+121336FM-15+000399999V0201401V003019999999Y009900599+00801+00401999999ADDMA1102301999999REMMET060METAR ZSSS 081000Z 14003MPS 100V160 CAVOK 08/04 Q1023 NOSIG=
0079583670999992024010810304+31198+121336FM-15+000399999V0201401N003019999999Y009900599+00801+00401999999ADDMA1102301999999REMMET052METAR ZSSS 081030Z 14003MPS CAVOK 08/04 Q1023 NOSIG=
0087583670999992024010811004+31198+121336FM-15+000399999V0201301V002019999999Y009900599+00801+00401999999ADDMA1102301999999REMMET060METAR ZSSS 081100Z 13002MPS 100V160 CAVOK 08/04 Q1023 NOSIG=
0087583670999992024010811304+31198+121336FM-15+000399999V0201301V002019999999Y009900599+00901+00401999999ADDMA1102301999999REMMET060METAR ZSSS 081130Z 13002MPS 100V170 CAVOK 09/04 Q1023 NOSIG=
0159583670999992024010812004+31198+121336FM-15+000399999V0201401N00301007921CN009999199+00801+00501999999ADDGA1071+007921999GE19AGL   +99999+99999GF199999071999007921999999MA1102301999999MW1611REMMET062METAR ZSSS 081200Z 14003MPS 9999 -RA BKN026 08/05 Q1023 NOSIG=
0157583670999992024010812304+31198+121336FM-15+000399999V0201301V00201007921CN009999199+00801+00501999999ADDGA1071+007921999GE19AGL   +99999+99999GF199999071999007921999999MA1102301999999REMMET066METAR ZSSS 081230Z 13002MPS 100V160 9999 BKN026 08/05 Q1023 NOSIG=
0157583670999992024010813004+31198+121336FM-15+000399999V0201501V00201010061CN009999199+00801+00501999999ADDGA1071+010061999GE19AGL   +99999+99999GF199999071999010061999999MA1102301999999REMMET066METAR ZSSS 081300Z 15002MPS 120V180 9999 BKN033 08/05 Q1023 NOSIG=
0149583670999992024010813304+31198+121336FM-15+000399999V0201501N00301010061CN009999199+00801+00501999999ADDGA1071+010061999GE19AGL   +99999+99999GF199999071999010061999999MA1102201999999REMMET058METAR ZSSS 081330Z 15003MPS 9999 BKN033 08/05 Q1022 NOSIG=
0157583670999992024010814004+31198+121336FM-15+000399999V0201501V00201010061CN009999199+00801+00501999999ADDGA1071+010061999GE19AGL   +99999+99999GF199999071999010061999999MA1102201999999REMMET066METAR ZSSS 081400Z 15002MPS 120V180 9999 BKN033 08/05 Q1022 NOSIG=
0159583670999992024010814304+31198+121336FM-15+000399999V0201601N00201010061CN009999199+00801+00501999999ADDGA1071+010061999GE19AGL   +99999+99999GF199999071999010061999999MA1102201999999MW1611REMMET062METAR ZSSS 081430Z 16002MPS 9999 -RA BKN033 08/05 Q1022 NOSIG=
0149583670999992024010815004+31198+121336FM-15+000399999V0201501N00201010061CN009999199+00801+00501999999ADDGA1071+010061999GE19AGL   +99999+99999GF199999071999010061999999MA1102201999999REMMET058METAR ZSSS 081500Z 15002MPS 9999 BKN033 08/05 Q1022 NOSIG=
0149583670999992024010815304+31198+121336FM-15+000399999V0201601N00201010061CN009999199+00801+00501999999ADDGA1071+010061999GE19AGL   +99999+99999GF199999071999010061999999MA1102201999999REMMET058METAR ZSSS 081530Z 16002MPS 9999 BKN033 08/05 Q1022 NOSIG=
0149583670999992024010816004+31198+121336FM-15+000399999V0201601N00201010061CN009999199+00801+00501999999ADDGA1071+010061999GE19AGL   +99999+99999GF199999071999010061999999MA1102201999999REMMET058METAR ZSSS 081600Z 16002MPS 9999 BKN033 08/05 Q1022 NOSIG=
0149583670999992024010816304+31198+121336FM-15+000399999V0201401N002019999999N009999199+00801+00501999999ADDGA1021+010061999GE19AGL   +99999+99999GF199999021999010061999999MA1102201999999REMMET058METAR ZSSS 081630Z 14002MPS 9999 FEW033 08/05 Q1022 NOSIG=
0149583670999992024010817004+31198+121336FM-15+000399999V0201501N001019999999N009999199+00801+00601999999ADDGA1021+010061999GE19AGL   +99999+99999GF199999021999010061999999MA1102201999999REMMET058METAR ZSSS 081700Z 15001MPS 9999 FEW033 08/06 Q1022 NOSIG=
0079583670999992024010817304+31198+121336FM-15+000399999V0201401N001019999999Y009900599+00801+00601999999ADDMA1102101999999REMMET052METAR ZSSS 081730Z 14001MPS CAVOK 08/06 Q1021 NOSIG=
0079583670999992024010818004+31198+121336FM-15+000399999V0209999C000019999999Y009900599+00801+00601999999ADDMA1102101999999REMMET052METAR ZSSS 081800Z 00000MPS CAVOK 08/06 Q1021 NOSIG=
0079583670999992024010818304+31198+121336FM-15+000399999V0202001N001019999999Y009900599+00801+00601999999ADDMA1102101999999REMMET052METAR ZSSS 081830Z 20001MPS CAVOK 08/06 Q1021 NOSIG=
0079583670999992024010819004+31198+121336FM-15+000399999V0202101N002019999999Y009900599+00801+00601999999ADDMA1102101999999REMMET052METAR ZSSS 081900Z 21002MPS CAVOK 08/06 Q1021 NOSIG=
0079583670999992024010819304+31198+121336FM-15+000399999V0202001N001019999999Y009900599+00801+00601999999ADDMA1102101999999REMMET052METAR ZSSS 081930Z 20001MPS CAVOK 08/06 Q1021 NOSIG=
0079583670999992024010820004+31198+121336FM-15+000399999V0202001N002019999999Y009900599+00801+00601999999ADDMA1102001999999REMMET052METAR ZSSS 082000Z 20002MPS CAVOK 08/06 Q1020 NOSIG=
0079583670999992024010820304+31198+121336FM-15+000399999V0201801N001019999999Y009900599+00801+00601999999ADDMA1102001999999REMMET052METAR ZSSS 082030Z 18001MPS CAVOK 08/06 Q1020 NOSIG=
0079583670999992024010821004+31198+121336FM-15+000399999V0202301N001019999999Y009900599+00701+00501999999ADDMA1102001999999REMMET052METAR ZSSS 082100Z 23001MPS CAVOK 07/05 Q1020 NOSIG=
0079583670999992024010821304+31198+121336FM-15+000399999V0202801N001019999999Y009900599+00701+00501999999ADDMA1102001999999REMMET052METAR ZSSS 082130Z 28001MPS CAVOK 07/05 Q1020 NOSIG=
0079583670999992024010822004+31198+121336FM-15+000399999V0202801N002019999999Y009900599+00701+00501999999ADDMA1102101999999REMMET052METAR ZSSS 082200Z 28002MPS CAVOK 07/05 Q1021 NOSIG=
0079583670999992024010822304+31198+121336FM-15+000399999V0202401N002019999999Y009900599+00701+00501999999ADDMA1102001999999REMMET052METAR ZSSS 082230Z 24002MPS CAVOK 07/05 Q1020 NOSIG=
0116583670999992024010823004+31198+121336FM-15+000399999V0202601V002012200019N008000199+00701+00501999999ADDGF100991999999999999999999MA1102101999999REMMET063METAR ZSSS 082300Z 26002MPS 240V320 8000 NSC 07/05 Q1021 NOSIG=
0116583670999992024010823304+31198+121336FM-15+000399999V0202801V003012200019N008000199+00801+00501999999ADDGF100991999999999999999999MA1102101999999REMMET063METAR ZSSS 082330Z 28003MPS 260V330 8000 NSC 08/05 Q1021 NOSIG=
0116583670999992024010900004+31198+121336FM-15+000399999V0202501V002012200019N008000199+00801+00501999999ADDGF100991999999999999999999MA1102101999999REMMET063METAR ZSSS 090000Z 25002MPS 200V310 8000 NSC 08/05 Q1021 NOSIG=
0116583670999992024010900304+31198+121336FM-15+000399999V0202501V002012200019N006000199+00801+00501999999ADDGF100991999999999999999999MA1102101999999REMMET063METAR ZSSS 090030Z 25002MPS 220V300 6000 NSC 08/05 Q1021 NOSIG=
0116583670999992024010901004+31198+121336FM-15+000399999V0202601V003012200019N006000199+00901+00501999999ADDGF100991999999999999999999MA1102101999999REMMET063METAR ZSSS 090100Z 26003MPS 230V310 6000 NSC 09/05 Q1021 NOSIG=
0116583670999992024010901304+31198+121336FM-15+000399999V0202601V003012200019N006000199+00901+00501999999ADDGF100991999999999999999999MA1102201999999REMMET063METAR ZSSS 090130Z 26003MPS 230V320 6000 NSC 09/05 Q1022 NOSIG=
0125583670999992024010902004+31198+121336FM-15+000399999V0202801V003012200019N005000199+01001+00501999999ADDGF100991999999999999999999MA1102201999999MW1101REMMET066METAR ZSSS 090200Z 28003MPS 240V310 5000 BR NSC 10/05 Q1022 NOSIG=
0125583670999992024010902304+31198+121336FM-15+000399999V0202901V002012200019N005000199+01101+00501999999ADDGF100991999999999999999999MA1102101999999MW1051REMMET066METAR ZSSS 090230Z 29002MPS 240V320 5000 HZ NSC 11/05 Q1021 NOSIG=
0125583670999992024010903004+31198+121336FM-15+000399999V0203101V002012200019N005000199+01201+00401999999ADDGF100991999999999999999999MA1102101999999MW1051REMMET066METAR ZSSS 090300Z 31002MPS 250V360 5000 HZ NSC 12/04 Q1021 NOSIG=
0125583670999992024010903304+31198+121336FM-15+000399999V0202801V002012200019N005000199+01201+00401999999ADDGF100991999999999999999999MA1102001999999MW1051REMMET066METAR ZSSS 090330Z 28002MPS 200V360 5000 HZ NSC 12/04 Q1020 NOSIG=
0125583670999992024010904004+31198+121336FM-15+000399999V0202701V002012200019N005000199+01301+00401999999ADDGF100991999999999999999999MA1101901999999MW1051REMMET066METAR ZSSS 090400Z 27002MPS 210V330 5000 HZ NSC 13/04 Q1019 NOSIG=
0125583670999992024010904304+31198+121336FM-15+000399999V0203101V003012200019N005000199+01401+00401999999ADDGF100991999999999999999999MA1101901999999MW1051REMMET066METAR ZSSS 090430Z 31003MPS 270V350 5000 HZ NSC 14/04 Q1019 NOSIG=
0125583670999992024010905004+31198+121336FM-15+000399999V0202601V003012200019N005000199+01401+00301999999ADDGF100991999999999999999999MA1101901999999MW1051REMMET066METAR ZSSS 090500Z 26003MPS 220V310 5000 HZ NSC 14/03 Q1019 NOSIG=
0125583670999992024010905304+31198+121336FM-15+000399999V0202801V003012200019N005000199+01401+00301999999ADDGF100991999999999999999999MA1101801999999MW1051REMMET066METAR ZSSS 090530Z 28003MPS 230V330 5000 HZ NSC 14/03 Q1018 NOSIG=
0125583670999992024010906004+31198+121336FM-15+000399999V0202601V004012200019N005000199+01401+00301999999ADDGF100991999999999999999999MA1101801999999MW1051REMMET066METAR ZSSS 090600Z 26004MPS 230V300 5000 HZ NSC 14/03 Q1018 NOSIG=
0116583670999992024010906304+31198+121336FM-15+000399999V0202901V003012200019N006000199+01401+00301999999ADDGF100991999999999999999999MA1101801999999REMMET063METAR ZSSS 090630Z 29003MPS 200V330 6000 NSC 14/03 Q1018 NOSIG=
0116583670999992024010907004+31198+121336FM-15+000399999V0202801V004012200019N006000199+01401+00301999999ADDGF100991999999999999999999MA1101801999999REMMET063METAR ZSSS 090700Z 28004MPS 240V330 6000 NSC 14/03 Q1018 NOSIG=
0116583670999992024010907304+31198+121336FM-15+000399999V0202901V003012200019N006000199+01401+00301999999ADDGF100991999999999999999999MA1101801999999REMMET063METAR ZSSS 090730Z 29003MPS 250V340 6000 NSC 14/03 Q1018 NOSIG=
0116583670999992024010908004+31198+121336FM-15+000399999V0202801V003012200019N007000199+01401+00401999999ADDGF100991999999999999999999MA1101801999999REMMET063METAR ZSSS 090800Z 28003MPS 240V320 7000 NSC 14/04 Q1018 NOSIG=
0116583670999992024010908304+31198+121336FM-15+000399999V0202901V004012200019N007000199+01301+00401999999ADDGF100991999999999999999999MA1101801999999REMMET063METAR ZSSS 090830Z 29004MPS 250V340 7000 NSC 13/04 Q1018 NOSIG=
0116583670999992024010909004+31198+121336FM-15+000399999V0202801V004012200019N007000199+01301+00401999999ADDGF100991999999999999999999MA1101801999999REMMET063METAR ZSSS 090900Z 28004MPS 250V320 7000 NSC 13/04 Q1018 NOSIG=
0116583670999992024010909304+31198+121336FM-15+000399999V0202901V004012200019N007000199+01301+00401999999ADDGF100991999999999999999999MA1101901999999REMMET063METAR ZSSS 090930Z 29004MPS 260V330 7000 NSC 13/04 Q1019 NOSIG=
0087583670999992024010910004+31198+121336FM-15+000399999V0203101V003019999999Y009900599+01201+00401999999ADDMA1101901999999REMMET060METAR ZSSS 091000Z 31003MPS 280V350 CAVOK 12/04 Q1019 NOSIG=
0079583670999992024010910304+31198+121336FM-15+000399999V0203201N003019999999Y009900599+01201+00401999999ADDMA1102001999999REMMET052METAR ZSSS 091030Z 32003MPS CAVOK 12/04 Q1020 NOSIG=
0079583670999992024010911004+31198+121336FM-15+000399999V0203301N003019999999Y009900599+01101+00401999999ADDMA1102001999999REMMET052METAR ZSSS 091100Z 33003MPS CAVOK 11/04 Q1020 NOSIG=
0116583670999992024010911304+31198+121336FM-15+000399999V0203101V002012200019N008000199+01201+00401999999ADDGF100991999999999999999999MA1102001999999REMMET063METAR ZSSS 091130Z 31002MPS 260V350 8000 NSC 12/04 Q1020 NOSIG=
0108583670999992024010912004+31198+121336FM-15+000399999V0203201N004012200019N008000199+01101+00401999999ADDGF100991999999999999999999MA1102001999999REMMET055METAR ZSSS 091200Z 32004MPS 8000 NSC 11/04 Q1020 NOSIG=
0108583670999992024010912304+31198+121336FM-15+000399999V0203301N005012200019N008000199+01101+00401999999ADDGF100991999999999999999999MA1102101999999REMMET055METAR ZSSS 091230Z 33005MPS 8000 NSC 11/04 Q1021 NOSIG=
0157583670999992024010913004+31198+121336FM-15+000399999V0203401V004019999999N006000199+01101+00401999999ADDGA1041+012191999GE19AGL   +99999+99999GF199999041999012191999999MA1102101999999REMMET066METAR ZSSS 091300Z 34004MPS 310V010 6000 SCT040 11/04 Q1021 NOSIG=
0149583670999992024010913304+31198+121336FM-15+000399999V0203301N003019999999N006000199+01001+00401999999ADDGA1041+012191999GE19AGL   +99999+99999GF199999041999012191999999MA1102101999999REMMET058METAR ZSSS 091330Z 33003MPS 6000 SCT040 10/04 Q1021 NOSIG=
0149583670999992024010914004+31198+121336FM-15+000399999V0203301N003019999999N006000199+01001+00401999999ADDGA1041+012191999GE19AGL   +99999+99999GF199999041999012191999999MA1102201999999REMMET058METAR ZSSS 091400Z 33003MPS 6000 SCT040 10/04 Q1022 NOSIG=
0149583670999992024010914304+31198+121336FM-15+000399999V0203301N004019999999N006000199+01001+00401999999ADDGA1041+012191999GE19AGL   +99999+99999GF199999041999012191999999MA1102201999999REMMET058METAR ZSSS 091430Z 33004MPS 6000 SCT040 10/04 Q1022 NOSIG=
0149583670999992024010915004+31198+121336FM-15+000399999V0203301N006019999999N006000199+01001+00301999999ADDGA1041+012191999GE19AGL   +99999+99999GF199999041999012191999999MA1102301999999REMMET058METAR ZSSS 091500Z 33006MPS 6000 SCT040 10/03 Q1023 NOSIG=
0158583670999992024010915304+31198+121336FM-15+000399999V0203301N008019999999N005000199+01001+00301999999ADDGA1041+012191999GE19AGL   +99999+99999GF199999041999012191999999MA1102301999999MW1051REMMET061METAR ZSSS 091530Z 33008MPS 5000 HZ SCT040 10/03 Q1023 NOSIG=
0158583670999992024010916004+31198+121336FM-15+000399999V0203301N006019999999N005000199+00901+00301999999ADDGA1041+012191999GE19AGL   +99999+99999GF199999041999012191999999MA1102301999999MW1051REMMET061METAR ZSSS 091600Z 33006MPS 5000 HZ SCT040 09/03 Q1023 NOSIG=
0158583670999992024010916304+31198+121336FM-15+000399999V0203501N007019999999N005000199+00901+00301999999ADDGA1041+010061999GE19AGL   +99999+99999GF199999041999010061999999MA1102301999999MW1051REMMET061METAR ZSSS 091630Z 35007MPS 5000 HZ SCT033 09/03 Q1023 NOSIG=
0158583670999992024010917004+31198+121336FM-15+000399999V0200101N007019999999N005000199+00801+00401999999ADDGA1041+010061999GE19AGL   +99999+99999GF199999041999010061999999MA1102301999999MW1051REMMET061METAR ZSSS 091700Z 01007MPS 5000 HZ SCT033 08/04 Q1023 NOSIG=
0149583670999992024010917304+31198+121336FM-15+000399999V0203601N007019999999N006000199+00701+00201999999ADDGA1041+010061999GE19AGL   +99999+99999GF199999041999010061999999MA1102401999999REMMET058METAR ZSSS 091730Z 36007MPS 6000 SCT033 07/02 Q1024 NOSIG=
0149583670999992024010918004+31198+121336FM-15+000399999V0203601N006019999999N006000199+00701+00101999999ADDGA1041+010061999GE19AGL   +99999+99999GF199999041999010061999999MA1102401999999REMMET058METAR ZSSS 091800Z 36006MPS 6000 SCT033 07/01 Q1024 NOSIG=
0108583670999992024010918304+31198+121336FM-15+000399999V0203601N004012200019N006000199+00601+00201999999ADDGF100991999999999999999999MA1102401999999REMMET055METAR ZSSS 091830Z 36004MPS 6000 NSC 06/02 Q1024 NOSIG=
0108583670999992024010919004+31198+121336FM-15+000399999V0203401N004012200019N006000199+00601+00201999999ADDGF100991999999999999999999MA1102401999999REMMET055METAR ZSSS 091900Z 34004MPS 6000 NSC 06/02 Q1024 NOSIG=
0149583670999992024010919304+31198+121336FM-15+000399999V0203501N006019999999N006000199+00601+00101999999ADDGA1041+007011999GE19AGL   +99999+99999GF199999041999007011999999MA1102401999999REMMET058METAR ZSSS 091930Z 35006MPS 6000 SCT023 06/01 Q1024 NOSIG=
0149583670999992024010920004+31198+121336FM-15+000399999V0203401N006019999999N006000199+00601+00101999999ADDGA1041+007011999GE19AGL   +99999+99999GF199999041999007011999999MA1102401999999REMMET058METAR ZSSS 092000Z 34006MPS 6000 SCT023 06/01 Q1024 NOSIG=
0149583670999992024010920304+31198+121336FM-15+000399999V0203401N005019999999N006000199+00601+00101999999ADDGA1041+007011999GE19AGL   +99999+99999GF199999041999007011999999MA1102401999999REMMET058METAR ZSSS 092030Z 34005MPS 6000 SCT023 06/01 Q1024 NOSIG=
0149583670999992024010921004+31198+121336FM-15+000399999V0203301N005019999999N006000199+00501+00101999999ADDGA1041+007011999GE19AGL   +99999+99999GF199999041999007011999999MA1102401999999REMMET058METAR ZSSS 092100Z 33005MPS 6000 SCT023 05/01 Q1024 NOSIG=
0149583670999992024010921304+31198+121336FM-15+000399999V0203301N005019999999N006000199+00501+00101999999ADDGA1041+007011999GE19AGL   +99999+99999GF199999041999007011999999MA1102501999999REMMET058METAR ZSSS 092130Z 33005MPS 6000 SCT023 05/01 Q1025 NOSIG=
0157583670999992024010922004+31198+121336FM-15+000399999V0203201V003019999999N006000199+00401+00101999999ADDGA1041+007011999GE19AGL   +99999+99999GF199999041999007011999999MA1102501999999REMMET066METAR ZSSS 092200Z 32003MPS 280V340 6000 SCT023 04/01 Q1025 NOSIG=
0149583670999992024010922304+31198+121336FM-15+000399999V0203201N004019999999N006000199+00401+00001999999ADDGA1041+007011999GE19AGL   +99999+99999GF199999041999007011999999MA1102501999999REMMET058METAR ZSSS 092230Z 32004MPS 6000 SCT023 04/00 Q1025 NOSIG=
0166583670999992024010923004+31198+121336FM-15+000399999V0203201V00401009141CN004000199+00401+00001999999ADDGA1071+009141999GE19AGL   +99999+99999GF199999071999009141999999MA1102601999999MW1101REMMET069METAR ZSSS 092300Z 32004MPS 290V350 4000 BR BKN030 04/00 Q1026 NOSIG=
0159583670999992024010923304+31198+121336FM-15+000399999V0203301N00501009141CN004000199+00401+00001999999ADDGA1071+009141999GE19AGL   +99999+99999GF199999071999009141999999MA1102601999999MW1101REMMET062METAR ZSSS 092330Z 33005MPS 4000 BR BKN030 04/M00 Q1026 NOSIG=
0166583670999992024011000004+31198+121336FM-15+000399999V0203201V00501009141CN004000199+00401+00001999999ADDGA1071+009141999GE19AGL   +99999+99999GF199999071999009141999999MA1102601999999MW1101REMMET069METAR ZSSS 100000Z 32005MPS 280V350 4000 BR BKN030 04/00 Q1026 NOSIG=
0166583670999992024011000304+31198+121336FM-15+000399999V0203201V005019999999N004000199+00401+00001999999ADDGA1041+009141999GE19AGL   +99999+99999GF199999041999009141999999MA1102601999999MW1101REMMET069METAR ZSSS 100030Z 32005MPS 290V350 4000 BR SCT030 04/00 Q1026 NOSIG=
0158583670999992024011001004+31198+121336FM-15+000399999V0203301N00601004881CN004000199+00501+00001999999ADDGA1071+004881999GE19AGL   +99999+99999GF199999071999004881999999MA1102701999999MW1101REMMET061METAR ZSSS 100100Z 33006MPS 4000 BR BKN016 05/00 Q1027 NOSIG=
0167583670999992024011001304+31198+121336FM-15+000399999V0203201V00501004881CN004000199+00401+00001999999ADDGA1071+004881999GE19AGL   +99999+99999GF199999071999004881999999MA1102701999999MW1101REMMET070METAR ZSSS 100130Z 32005MPS 290V350 4000 BR BKN016 04/M00 Q1027 NOSIG=
0166583670999992024011002004+31198+121336FM-15+000399999V0203201V00501004881CN004000199+00501+00001999999ADDGA1071+004881999GE19AGL   +99999+99999GF199999071999004881999999MA1102801999999MW1101REMMET069METAR ZSSS 100200Z 32005MPS 290V360 4000 BR BKN016 05/00 Q1028 NOSIG=
0167583670999992024011002304+31198+121336FM-15+000399999V0203101V00501004881CN004000199+00601+00001999999ADDGA1071+004881999GE19AGL   +99999+99999GF199999071999004881999999MA1102701999999MW1051REMMET070METAR ZSSS 100230Z 31005MPS 280V350 4000 HZ BKN016 06/M00 Q1027 NOSIG=
0167583670999992024011003004+31198+121336FM-15+000399999V0203301V00601006101CN004000199+00601+00001999999ADDGA1071+006101999GE19AGL   +99999+99999GF199999071999006101999999MA1102701999999MW1051REMMET070METAR ZSSS 100300Z 33006MPS 300V360 4000 HZ BKN020 06/M00 Q1027 NOSIG=
0167583670999992024011003304+31198+121336FM-15+000399999V0203101V00601006101CN004000199+00601+00001999999ADDGA1071+006101999GE19AGL   +99999+99999GF199999071999006101999999MA1102701999999MW1051REMMET070METAR ZSSS 100330Z 31006MPS 280V340 4000 HZ BKN020 06/M00 Q1027 NOSIG=
0167583670999992024011004004+31198+121336FM-15+000399999V0203101V00601007011CN004000199+00701+00001999999ADDGA1071+007011999GE19AGL   +99999+99999GF199999071999007011999999MA1102601999999MW1051REMMET070METAR ZSSS 100400Z 31006MPS 280V340 4000 HZ BKN023 07/M00 Q1026 NOSIG=
0149583670999992024011004304+31198+121336FM-15+000399999V0203301N00701007011CN006000199+00801+00001999999ADDGA1071+007011999GE19AGL   +99999+99999GF199999071999007011999999MA1102601999999REMMET058METAR ZSSS 100430Z 33007MPS 6000 BKN023 08/00 Q1026 NOSIG=
0158583670999992024011005004+31198+121336FM-15+000399999V0203201V00701009141CN006000199+00801-00101999999ADDGA1071+009141999GE19AGL   +99999+99999GF199999071999009141999999MA1102601999999REMMET067METAR ZSSS 100500Z 32007MPS 290V350 6000 BKN030 08/M01 Q1026 NOSIG=
0150583670999992024011005304+31198+121336FM-15+000399999V0203301N00601009141CN007000199+00801-00201999999ADDGA1071+009141999GE19AGL   +99999+99999GF199999071999009141999999MA1102601999999REMMET059METAR ZSSS 100530Z 33006MPS 7000 BKN030 08/M02 Q1026 NOSIG=
0158583670999992024011006004+31198+121336FM-15+000399999V0203201V00601012191CN008000199+00801-00201999999ADDGA1071+012191999GE19AGL   +99999+99999GF199999071999012191999999MA1102601999999REMMET067METAR ZSSS 100600Z 32006MPS 290V350 8000 BKN040 08/M02 Q1026 NOSIG=
0150583670999992024011006304+31198+121336FM-15+000399999V0203301N00601012191CN007000199+00701-00201999999ADDGA1071+012191999GE19AGL   +99999+99999GF199999071999012191999999MA1102601999999REMMET059METAR ZSSS 100630Z 33006MPS 7000 BKN040 07/M02 Q1026 NOSIG=
0158583670999992024011007004+31198+121336FM-15+000399999V0203401V00601012191CN008000199+00701-00301999999ADDGA1071+012191999GE19AGL   +99999+99999GF199999071999012191999999MA1102601999999REMMET067METAR ZSSS 100700Z 34006MPS 300V360 8000 BKN040 07/M03 Q1026 NOSIG=
0169583670999992024011007304+31198+121336FM-15+000399999V0203201V006019999999N008000199+00701-00301999999ADDGA1041+012191999GE19AGL   +99999+99999GF199999041999012191999999MA1102601999999OC101101REMMET070METAR ZSSS 100730Z 32006G11MPS 290V350 8000 SCT040 07/M03 Q1026 NOSIG=
0158583670999992024011008004+31198+121336FM-15+000399999V0203401V006019999999N008000199+00701-00301999999ADDGA1041+012191999GE19AGL   +99999+99999GF199999041999012191999999MA1102601999999REMMET067METAR ZSSS 100800Z 34006MPS 300V360 8000 SCT040 07/M03 Q1026 NOSIG=
0158583670999992024011008304+31198+121336FM-15+000399999V0203401V006019999999N008000199+00701-00301999999ADDGA1041+012191999GE19AGL   +99999+99999GF199999041999012191999999MA1102601999999REMMET067METAR ZSSS 100830Z 34006MPS 310V010 8000 SCT040 07/M03 Q1026 NOSIG=
0150583670999992024011009004+31198+121336FM-15+000399999V0203301N006019999999N008000199+00601-00301999999ADDGA1041+012191999GE19AGL   +99999+99999GF199999041999012191999999MA1102601999999REMMET059METAR ZSSS 100900Z 33006MPS 8000 SCT040 06/M03 Q1026 NOSIG=
0150583670999992024011009304+31198+121336FM-15+000399999V0203601N005019999999N008000199+00501-00201999999ADDGA1041+012191999GE19AGL   +99999+99999GF199999041999012191999999MA1102701999999REMMET059METAR ZSSS 100930Z 36005MPS 8000 SCT040 05/M02 Q1027 NOSIG=
0080583670999992024011010004+31198+121336FM-15+000399999V0203601N005019999999Y009900599+00501-00301999999ADDMA1102701999999REMMET053METAR ZSSS 101000Z 36005MPS CAVOK 05/M03 Q1027 NOSIG=
0080583670999992024011010304+31198+121336FM-15+000399999V0203601N005019999999Y009900599+00501-00301999999ADDMA1102701999999REMMET053METAR ZSSS 101030Z 36005MPS CAVOK 05/M03 Q1027 NOSIG=
0080583670999992024011011004+31198+121336FM-15+000399999V0203601N004019999999Y009900599+00401-00301999999ADDMA1102701999999REMMET053METAR ZSSS 101100Z 36004MPS CAVOK 04/M03 Q1027 NOSIG=
0088583670999992024011011304+31198+121336FM-15+000399999V0203601V003019999999Y009900599+00401-00301999999ADDMA1102701999999REMMET061METAR ZSSS 101130Z 36003MPS 310V020 CAVOK 04/M03 Q1027 NOSIG=
0080583670999992024011012004+31198+121336FM-15+000399999V0203601N003019999999Y009900599+00401-00301999999ADDMA1102701999999REMMET053METAR ZSSS 101200Z 36003MPS CAVOK 04/M03 Q1027 NOSIG=
0080583670999992024011012304+31198+121336FM-15+000399999V0203501N003019999999Y009900599+00401-00301999999ADDMA1102701999999REMMET053METAR ZSSS 101230Z 35003MPS CAVOK 04/M03 Q1027 NOSIG=
0080583670999992024011013004+31198+121336FM-15+000399999V0203501N003019999999Y009900599+00301-00301999999ADDMA1102701999999REMMET053METAR ZSSS 101300Z 35003MPS CAVOK 03/M03 Q1027 NOSIG=
0088583670999992024011013304+31198+121336FM-15+000399999V0203301V003019999999Y009900599+00401-00301999999ADDMA1102701999999REMMET061METAR ZSSS 101330Z 33003MPS 300V360 CAVOK 04/M03 Q1027 NOSIG=
0080583670999992024011014004+31198+121336FM-15+000399999V0203401N003019999999Y009900599+00301-00301999999ADDMA1102701999999REMMET053METAR ZSSS 101400Z 34003MPS CAVOK 03/M03 Q1027 NOSIG=
0080583670999992024011014304+31198+121336FM-15+000399999V0203601N003019999999Y009900599+00301-00301999999ADDMA1102701999999REMMET053METAR ZSSS 101430Z 36003MPS CAVOK 03/M03 Q1027 NOSIG=
0080583670999992024011015004+31198+121336FM-15+000399999V0200101N003019999999Y009900599+00201-00301999999ADDMA1102601999999REMMET053METAR ZSSS 101500Z 01003MPS CAVOK 02/M03 Q1026 NOSIG=
0080583670999992024011015304+31198+121336FM-15+000399999V0203601N002019999999Y009900599+00201-00301999999ADDMA1102601999999REMMET053METAR ZSSS 101530Z 36002MPS CAVOK 02/M03 Q1026 NOSIG=
0080583670999992024011016004+31198+121336FM-15+000399999V0200101N002019999999Y009900599+00201-00301999999ADDMA1102601999999REMMET053METAR ZSSS 101600Z 01002MPS CAVOK 02/M03 Q1026 NOSIG=
0080583670999992024011016304+31198+121336FM-15+000399999V0200101N002019999999Y009900599+00201-00301999999ADDMA1102601999999REMMET053METAR ZSSS 101630Z 01002MPS CAVOK 02/M03 Q1026 NOSIG=
0080583670999992024011017004+31198+121336FM-15+000399999V0209999V001019999999Y009900599+00101-00401999999ADDMA1102601999999REMMET053METAR ZSSS 101700Z VRB01MPS CAVOK 01/M04 Q1026 NOSIG=
0080583670999992024011017304+31198+121336FM-15+000399999V0201701N001019999999Y009900599+00101-00301999999ADDMA1102601999999REMMET053METAR ZSSS 101730Z 17001MPS CAVOK 01/M03 Q1026 NOSIG=
0080583670999992024011018004+31198+121336FM-15+000399999V0201801N001019999999Y009900599+00101-00301999999ADDMA1102501999999REMMET053METAR ZSSS 101800Z 18001MPS CAVOK 01/M03 Q1025 NOSIG=
0080583670999992024011018304+31198+121336FM-15+000399999V0202001N001019999999Y009900599+00101-00201999999ADDMA1102501999999REMMET053METAR ZSSS 101830Z 20001MPS CAVOK 01/M02 Q1025 NOSIG=
0109583670999992024011019004+31198+121336FM-15+000399999V0202201N001012200019N008000199+00001-00201999999ADDGF100991999999999999999999MA1102501999999REMMET056METAR ZSSS 101900Z 22001MPS 8000 NSC 00/M02 Q1025 NOSIG=
0109583670999992024011019304+31198+121336FM-15+000399999V0209999V001012200019N008000199+00001-00201999999ADDGF100991999999999999999999MA1102501999999REMMET056METAR ZSSS 101930Z VRB01MPS 8000 NSC 00/M02 Q1025 NOSIG=
0109583670999992024011020004+31198+121336FM-15+000399999V0209999V001012200019N007000199+00001-00201999999ADDGF100991999999999999999999MA1102501999999REMMET056METAR ZSSS 102000Z VRB01MPS 7000 NSC 00/M02 Q1025 NOSIG=
0110583670999992024011020304+31198+121336FM-15+000399999V0201801N001012200019N007000199+00001-00201999999ADDGF100991999999999999999999MA1102501999999REMMET057METAR ZSSS 102030Z 18001MPS 7000 NSC M00/M02 Q1025 NOSIG=
0109583670999992024011021004+31198+121336FM-15+000399999V0201901N001012200019N007000199+00001-00101999999ADDGF100991999999999999999999MA1102501999999REMMET056METAR ZSSS 102100Z 19001MPS 7000 NSC 00/M01 Q1025 NOSIG=
0109583670999992024011021304+31198+121336FM-15+000399999V0202401N001012200019N007000199+00001-00201999999ADDGF100991999999999999999999MA1102501999999REMMET056METAR ZSSS 102130Z 24001MPS 7000 NSC 00/M02 Q1025 NOSIG=
0110583670999992024011022004+31198+121336FM-15+000399999V0202001N002012200019N007000199+00001-00201999999ADDGF100991999999999999999999MA1102501999999REMMET057METAR ZSSS 102200Z 20002MPS 7000 NSC M00/M02 Q1025 NOSIG=
0110583670999992024011022304+31198+121336FM-15+000399999V0202101N002012200019N007000199+00001-00201999999ADDGF100991999999999999999999MA1102501999999REMMET057METAR ZSSS 102230Z 21002MPS 7000 NSC M00/M02 Q1025 NOSIG=
0109583670999992024011023004+31198+121336FM-15+000399999V0202001N001012200019N007000199+00001-00201999999ADDGF100991999999999999999999MA1102501999999REMMET056METAR ZSSS 102300Z 20001MPS 7000 NSC 00/M02 Q1025 NOSIG=
0109583670999992024011023304+31198+121336FM-15+000399999V0202201N002012200019N007000199+00001-00201999999ADDGF100991999999999999999999MA1102501999999REMMET056METAR ZSSS 102330Z 22002MPS 7000 NSC 00/M02 Q1025 NOSIG=
0117583670999992024011100004+31198+121336FM-15+000399999V0202101V003012200019N006000199+00201-00101999999ADDGF100991999999999999999999MA1102501999999REMMET064METAR ZSSS 110000Z 21003MPS 160V250 6000 NSC 02/M01 Q1025 NOSIG=
0117583670999992024011100304+31198+121336FM-15+000399999V0202001V003012200019N006000199+00301-00201999999ADDGF100991999999999999999999MA1102501999999REMMET064METAR ZSSS 110030Z 20003MPS 150V240 6000 NSC 03/M02 Q1025 NOSIG=
0109583670999992024011101004+31198+121336FM-15+000399999V0202101N002012200019N006000199+00401-00101999999ADDGF100991999999999999999999MA1102501999999REMMET056METAR ZSSS 110100Z 21002MPS 6000 NSC 04/M01 Q1025 NOSIG=
0117583670999992024011101304+31198+121336FM-15+000399999V0202101V003012200019N006000199+00501-00101999999ADDGF100991999999999999999999MA1102501999999REMMET064METAR ZSSS 110130Z 21003MPS 140V230 6000 NSC 05/M01 Q1025 NOSIG=
0117583670999992024011102004+31198+121336FM-15+000399999V0202101V004012200019N006000199+00601-00201999999ADDGF100991999999999999999999MA1102501999999REMMET064METAR ZSSS 110200Z 21004MPS 190V260 6000 NSC 06/M02 Q1025 NOSIG=
0117583670999992024011102304+31198+121336FM-15+000399999V0202301V003012200019N006000199+00701-00201999999ADDGF100991999999999999999999MA1102501999999REMMET064METAR ZSSS 110230Z 23003MPS 150V270 6000 NSC 07/M02 Q1025 NOSIG=
0109583670999992024011103004+31198+121336FM-15+000399999V0202301N004012200019N006000199+00701-00101999999ADDGF100991999999999999999999MA1102401999999REMMET056METAR ZSSS 110300Z 23004MPS 6000 NSC 07/M01 Q1024 NOSIG=
0117583670999992024011103304+31198+121336FM-15+000399999V0202301V003012200019N006000199+00801-00101999999ADDGF100991999999999999999999MA1102301999999REMMET064METAR ZSSS 110330Z 23003MPS 190V270 6000 NSC 08/M01 Q1023 NOSIG=
0117583670999992024011104004+31198+121336FM-15+000399999V0202001V004012200019N006000199+00901-00101999999ADDGF100991999999999999999999MA1102301999999REMMET064METAR ZSSS 110400Z 20004MPS 160V230 6000 NSC 09/M01 Q1023 NOSIG=
0117583670999992024011104304+31198+121336FM-15+000399999V0202101V003012200019N006000199+00901-00201999999ADDGF100991999999999999999999MA1102201999999REMMET064METAR ZSSS 110430Z 21003MPS 170V270 6000 NSC 09/M02 Q1022 NOSIG=
0109583670999992024011105004+31198+121336FM-15+000399999V0202301N004012200019N006000199+01001-00301999999ADDGF100991999999999999999999MA1102101999999REMMET056METAR ZSSS 110500Z 23004MPS 6000 NSC 10/M03 Q1021 NOSIG=
0117583670999992024011105304+31198+121336FM-15+000399999V0202201V004012200019N006000199+01101-00301999999ADDGF100991999999999999999999MA1102101999999REMMET064METAR ZSSS 110530Z 22004MPS 180V260 6000 NSC 11/M03 Q1021 NOSIG=
0117583670999992024011106004+31198+121336FM-15+000399999V0202501V003012200019N006000199+01201-00301999999ADDGF100991999999999999999999MA1102101999999REMMET064METAR ZSSS 110600Z 25003MPS 200V350 6000 NSC 12/M03 Q1021 NOSIG=
0117583670999992024011106304+31198+121336FM-15+000399999V0202701V003012200019N006000199+01201-00401999999ADDGF100991999999999999999999MA1102101999999REMMET064METAR ZSSS 110630Z 27003MPS 200V320 6000 NSC 12/M04 Q1021 NOSIG=
0117583670999992024011107004+31198+121336FM-15+000399999V0202501V003012200019N007000199+01201-00501999999ADDGF100991999999999999999999MA1102001999999REMMET064METAR ZSSS 110700Z 25003MPS 210V310 7000 NSC 12/M05 Q1020 NOSIG=
0117583670999992024011107304+31198+121336FM-15+000399999V0202401V003012200019N007000199+01201-00501999999ADDGF100991999999999999999999MA1102001999999REMMET064METAR ZSSS 110730Z 24003MPS 190V290 7000 NSC 12/M05 Q1020 NOSIG=
0117583670999992024011108004+31198+121336FM-15+000399999V0202301V003012200019N007000199+01201-00401999999ADDGF100991999999999999999999MA1102001999999REMMET064METAR ZSSS 110800Z 23003MPS 190V270 7000 NSC 12/M04 Q1020 NOSIG=
0117583670999992024011108304+31198+121336FM-15+000399999V0202201V003012200019N007000199+01101-00401999999ADDGF100991999999999999999999MA1102001999999REMMET064METAR ZSSS 110830Z 22003MPS 170V250 7000 NSC 11/M04 Q1020 NOSIG=
0117583670999992024011109004+31198+121336FM-15+000399999V0202101V003012200019N007000199+01001-00401999999ADDGF100991999999999999999999MA1102001999999REMMET064METAR ZSSS 110900Z 21003MPS 120V240 7000 NSC 10/M04 Q1020 NOSIG=
0117583670999992024011109304+31198+121336FM-15+000399999V0202001V002012200019N007000199+00901-00401999999ADDGF100991999999999999999999MA1102001999999REMMET064METAR ZSSS 110930Z 20002MPS 180V240 7000 NSC 09/M04 Q1020 NOSIG=
0117583670999992024011110004+31198+121336FM-15+000399999V0202001V002012200019N008000199+00801-00301999999ADDGF100991999999999999999999MA1102001999999REMMET064METAR ZSSS 111000Z 20002MPS 170V230 8000 NSC 08/M03 Q1020 NOSIG=
0109583670999992024011110304+31198+121336FM-15+000399999V0201901N004012200019N006000199+00701+00001999999ADDGF100991999999999999999999MA1102101999999REMMET056METAR ZSSS 111030Z 19004MPS 6000 NSC 07/M00 Q1021 NOSIG=
0108583670999992024011111004+31198+121336FM-15+000399999V0201801N004012200019N006000199+00701+00101999999ADDGF100991999999999999999999MA1102001999999REMMET055METAR ZSSS 111100Z 18004MPS 6000 NSC 07/01 Q1020 NOSIG=
0117583670999992024011111304+31198+121336FM-15+000399999V0201801N003012200019N005000199+00601+00101999999ADDGF100991999999999999999999MA1102001999999MW1051REMMET058METAR ZSSS 111130Z 18003MPS 5000 HZ NSC 06/01 Q1020 NOSIG=
0117583670999992024011112004+31198+121336FM-15+000399999V0201801N003012200019N005000199+00601+00001999999ADDGF100991999999999999999999MA1102001999999MW1051REMMET058METAR ZSSS 111200Z 18003MPS 5000 HZ NSC 06/00 Q1020 NOSIG=
0109583670999992024011112304+31198+121336FM-15+000399999V0201801N003012200019N006000199+00501+00001999999ADDGF100991999999999999999999MA1102001999999REMMET056METAR ZSSS 111230Z 18003MPS 6000 NSC 05/M00 Q1020 NOSIG=
0117583670999992024011113004+31198+121336FM-15+000399999V0201801N001012200019N005000199+00601+00001999999ADDGF100991999999999999999999MA1102001999999MW1051REMMET058METAR ZSSS 111300Z 18001MPS 5000 HZ NSC 06/00 Q1020 NOSIG=
0117583670999992024011113304+31198+121336FM-15+000399999V0201801N002012200019N005000199+00601+00001999999ADDGF100991999999999999999999MA1102001999999MW1051REMMET058METAR ZSSS 111330Z 18002MPS 5000 HZ NSC 06/00 Q1020 NOSIG=
0117583670999992024011114004+31198+121336FM-15+000399999V0201901N002012200019N005000199+00501+00001999999ADDGF100991999999999999999999MA1102001999999MW1051REMMET058METAR ZSSS 111400Z 19002MPS 5000 HZ NSC 05/00 Q1020 NOSIG=
0118583670999992024011114304+31198+121336FM-15+000399999V0201901N003012200019N005000199+00501+00001999999ADDGF100991999999999999999999MA1102001999999MW1051REMMET059METAR ZSSS 111430Z 19003MPS 5000 HZ NSC 05/M00 Q1020 NOSIG=
0118583670999992024011115004+31198+121336FM-15+000399999V0201901N001012200019N005000199+00401+00001999999ADDGF100991999999999999999999MA1102001999999MW1051REMMET059METAR ZSSS 111500Z 19001MPS 5000 HZ NSC 04/M00 Q1020 NOSIG=
0118583670999992024011115304+31198+121336FM-15+000399999V0201601N001012200019N005000199+00501+00001999999ADDGF100991999999999999999999MA1102001999999MW1051REMMET059METAR ZSSS 111530Z 16001MPS 5000 HZ NSC 05/M00 Q1020 NOSIG=
0118583670999992024011116004+31198+121336FM-15+000399999V0201701N002012200019N005000199+00401-00101999999ADDGF100991999999999999999999MA1102001999999MW1051REMMET059METAR ZSSS 111600Z 17002MPS 5000 HZ NSC 04/M01 Q1020 NOSIG=
0117583670999992024011116304+31198+121336FM-15+000399999V0201701N002012200019N005000199+00401+00101999999ADDGF100991999999999999999999MA1102001999999MW1101REMMET058METAR ZSSS 111630Z 17002MPS 5000 BR NSC 04/01 Q1020 NOSIG=
0117583670999992024011117004+31198+121336FM-15+000399999V0201601N001012200019N005000199+00501+00101999999ADDGF100991999999999999999999MA1102001999999MW1101REMMET058METAR ZSSS 111700Z 16001MPS 5000 BR NSC 05/01 Q1020 NOSIG=
0117583670999992024011117304+31198+121336FM-15+000399999V0201701N002012200019N005000199+00401+00101999999ADDGF100991999999999999999999MA1102001999999MW1101REMMET058METAR ZSSS 111730Z 17002MPS 5000 BR NSC 04/01 Q1020 NOSIG=
0117583670999992024011118004+31198+121336FM-15+000399999V0209999V001012200019N005000199+00501+00201999999ADDGF100991999999999999999999MA1102001999999MW1101REMMET058METAR ZSSS 111800Z VRB01MPS 5000 BR NSC 05/02 Q1020 NOSIG=
0117583670999992024011118304+31198+121336FM-15+000399999V0201801N001012200019N005000199+00501+00201999999ADDGF100991999999999999999999MA1102001999999MW1101REMMET058METAR ZSSS 111830Z 18001MPS 5000 BR NSC 05/02 Q1020 NOSIG=
0117583670999992024011119004+31198+121336FM-15+000399999V0202101N001012200019N005000199+00501+00201999999ADDGF100991999999999999999999MA1102001999999MW1101REMMET058METAR ZSSS 111900Z 21001MPS 5000 BR NSC 05/02 Q1020 NOSIG=
0117583670999992024011119304+31198+121336FM-15+000399999V0201801N001012200019N005000199+00301+00101999999ADDGF100991999999999999999999MA1102001999999MW1101REMMET058METAR ZSSS 111930Z 18001MPS 5000 BR NSC 03/01 Q1020 NOSIG=
0117583670999992024011120004+31198+121336FM-15+000399999V0201801N001012200019N005000199+00401+00201999999ADDGF100991999999999999999999MA1102001999999MW1101REMMET058METAR ZSSS 112000Z 18001MPS 5000 BR NSC 04/02 Q1020 NOSIG=
0117583670999992024011120304+31198+121336FM-15+000399999V0201801N001012200019N005000199+00301+00101999999ADDGF100991999999999999999999MA1102001999999MW1101REMMET058METAR ZSSS 112030Z 18001MPS 5000 BR NSC 03/01 Q1020 NOSIG=
0117583670999992024011121004+31198+121336FM-15+000399999V0201701N001012200019N005000199+00201+00101999999ADDGF100991999999999999999999MA1102001999999MW1101REMMET058METAR ZSSS 112100Z 17001MPS 5000 BR NSC 02/01 Q1020 NOSIG=
0117583670999992024011121304+31198+121336FM-15+000399999V0201801N001012200019N005000199+00201+00101999999ADDGF100991999999999999999999MA1102001999999MW1101REMMET058METAR ZSSS 112130Z 18001MPS 5000 BR NSC 02/01 Q1020 NOSIG=
0117583670999992024011122004+31198+121336FM-15+000399999V0202001N001012200019N005000199+00201+00101999999ADDGF100991999999999999999999MA1102001999999MW1101REMMET058METAR ZSSS 112200Z 20001MPS 5000 BR NSC 02/01 Q1020 NOSIG=
0117583670999992024011122304+31198+121336FM-15+000399999V0201801N001012200019N005000199+00201+00101999999ADDGF100991999999999999999999MA1102001999999MW1101REMMET058METAR ZSSS 112230Z 18001MPS 5000 BR NSC 02/01 Q1020 NOSIG=
0117583670999992024011123004+31198+121336FM-15+000399999V0201801N001012200019N004000199+00201+00101999999ADDGF100991999999999999999999MA1102001999999MW1101REMMET058METAR ZSSS 112300Z 18001MPS 4000 BR NSC 02/01 Q1020 NOSIG=
0117583670999992024011123304+31198+121336FM-15+000399999V0201801N001012200019N004000199+00301+00201999999ADDGF100991999999999999999999MA1102001999999MW1101REMMET058METAR ZSSS 112330Z 18001MPS 4000 BR NSC 03/02 Q1020 NOSIG=
0117583670999992024011200004+31198+121336FM-15+000399999V0201801N001012200019N004000199+00501+00301999999ADDGF100991999999999999999999MA1102101999999MW1101REMMET058METAR ZSSS 120000Z 18001MPS 4000 BR NSC 05/03 Q1021 NOSIG=
0117583670999992024011200304+31198+121336FM-15+000399999V0209999V001012200019N004500199+00701+00301999999ADDGF100991999999999999999999MA1102101999999MW1101REMMET058METAR ZSSS 120030Z VRB01MPS 4500 BR NSC 07/03 Q1021 NOSIG=
0125583670999992024011201004+31198+121336FM-15+000399999V0202101V002012200019N004500199+00901+00201999999ADDGF100991999999999999999999MA1102101999999MW1051REMMET066METAR ZSSS 120100Z 21002MPS 170V230 4500 HZ NSC 09/02 Q1021 NOSIG=
0116583670999992024011201304+31198+121336FM-15+000399999V0202201V002012200019N006000199+01001+00201999999ADDGF100991999999999999999999MA1102101999999REMMET063METAR ZSSS 120130Z 22002MPS 190V250 6000 NSC 10/02 Q1021 NOSIG=
0116583670999992024011202004+31198+121336FM-15+000399999V0202201V003012200019N006000199+01101+00101999999ADDGF100991999999999999999999MA1102101999999REMMET063METAR ZSSS 120200Z 22003MPS 130V240 6000 NSC 11/01 Q1021 NOSIG=
0108583670999992024011202304+31198+121336FM-15+000399999V0209999V003012200019N008000199+01201+00201999999ADDGF100991999999999999999999MA1102101999999REMMET055METAR ZSSS 120230Z VRB03MPS 8000 NSC 12/02 Q1021 NOSIG=
0108583670999992024011203004+31198+121336FM-15+000399999V0209999V003012200019N008000199+01401+00101999999ADDGF100991999999999999999999MA1102101999999REMMET055METAR ZSSS 120300Z VRB03MPS 8000 NSC 14/01 Q1021 NOSIG=
0116583670999992024011203304+31198+121336FM-15+000399999V0202401V002012200019N008000199+01501+00201999999ADDGF100991999999999999999999MA1102101999999REMMET063METAR ZSSS 120330Z 24002MPS 190V280 8000 NSC 15/02 Q1021 NOSIG=
0088583670999992024011204004+31198+121336FM-15+000399999V0202801V004019999999Y009900599+01601+00001999999ADDMA1102001999999REMMET061METAR ZSSS 120400Z 28004MPS 240V310 CAVOK 16/M00 Q1020 NOSIG=
0088583670999992024011204304+31198+121336FM-15+000399999V0202901V004019999999Y009900599+01701+00001999999ADDMA1102001999999REMMET061METAR ZSSS 120430Z 29004MPS 250V320 CAVOK 17/M00 Q1020 NOSIG=
0088583670999992024011205004+31198+121336FM-15+000399999V0202901V004019999999Y009900599+01701+00001999999ADDMA1101901999999REMMET061METAR ZSSS 120500Z 29004MPS 250V320 CAVOK 17/M00 Q1019 NOSIG=
0088583670999992024011205304+31198+121336FM-15+000399999V0202501V004019999999Y009900599+01801-00101999999ADDMA1101901999999REMMET061METAR ZSSS 120530Z 25004MPS 220V320 CAVOK 18/M01 Q1019 NOSIG=
0087583670999992024011206004+31198+121336FM-15+000399999V0203001V004019999999Y009900599+01801+00001999999ADDMA1101901999999REMMET060METAR ZSSS 120600Z 30004MPS 270V340 CAVOK 18/00 Q1019 NOSIG=
0087583670999992024011206304+31198+121336FM-15+000399999V0203001V003019999999Y009900599+01801+00001999999ADDMA1101901999999REMMET060METAR ZSSS 120630Z 30003MPS 240V340 CAVOK 18/00 Q1019 NOSIG=
0087583670999992024011207004+31198+121336FM-15+000399999V0203001V003019999999Y009900599+01801+00001999999ADDMA1101901999999REMMET060METAR ZSSS 120700Z 30003MPS 260V340 CAVOK 18/00 Q1019 NOSIG=
0087583670999992024011207304+31198+121336FM-15+000399999V0203001V003019999999Y009900599+01701+00101999999ADDMA1101901999999REMMET060METAR ZSSS 120730Z 30003MPS 250V350 CAVOK 17/01 Q1019 NOSIG=
0087583670999992024011208004+31198+121336FM-15+000399999V0202901V002019999999Y009900599+01701+00101999999ADDMA1101901999999REMMET060METAR ZSSS 120800Z 29002MPS 260V350 CAVOK 17/01 Q1019 NOSIG=
0087583670999992024011208304+31198+121336FM-15+000399999V0203201V003019999999Y009900599+01601+00101999999ADDMA1102001999999REMMET060METAR ZSSS 120830Z 32003MPS 270V350 CAVOK 16/01 Q1020 NOSIG=
0087583670999992024011209004+31198+121336FM-15+000399999V0203401V003019999999Y009900599+01501+00101999999ADDMA1102001999999REMMET060METAR ZSSS 120900Z 34003MPS 290V360 CAVOK 15/01 Q1020 NOSIG=
0087583670999992024011209304+31198+121336FM-15+000399999V0203401V002019999999Y009900599+01401+00101999999ADDMA1102001999999REMMET060METAR ZSSS 120930Z 34002MPS 300V010 CAVOK 14/01 Q1020 NOSIG=
0079583670999992024011210004+31198+121336FM-15+000399999V0209999V001019999999Y009900599+01401+00101999999ADDMA1102001999999REMMET052METAR ZSSS 121000Z VRB01MPS CAVOK 14/01 Q1020 NOSIG=
0079583670999992024011210304+31198+121336FM-15+000399999V0209999C000019999999Y009900599+01301+00101999999ADDMA1102101999999REMMET052METAR ZSSS 121030Z 00000MPS CAVOK 13/01 Q1021 NOSIG=
0079583670999992024011211004+31198+121336FM-15+000399999V0209999V001019999999Y009900599+01201+00201999999ADDMA1102101999999REMMET052METAR ZSSS 121100Z VRB01MPS CAVOK 12/02 Q1021 NOSIG=
0079583670999992024011211304+31198+121336FM-15+000399999V0209999V001019999999Y009900599+01201+00201999999ADDMA1102101999999REMMET052METAR ZSSS 121130Z VRB01MPS CAVOK 12/02 Q1021 NOSIG=
0079583670999992024011212004+31198+121336FM-15+000399999V0209999C000019999999Y009900599+01101+00201999999ADDMA1102101999999REMMET052METAR ZSSS 121200Z 00000MPS CAVOK 11/02 Q1021 NOSIG=
0079583670999992024011212304+31198+121336FM-15+000399999V0201001N001019999999Y009900599+01101+00201999999ADDMA1102101999999REMMET052METAR ZSSS 121230Z 10001MPS CAVOK 11/02 Q1021 NOSIG=
0079583670999992024011213004+31198+121336FM-15+000399999V0200701N001019999999Y009900599+01001+00201999999ADDMA1102101999999REMMET052METAR ZSSS 121300Z 07001MPS CAVOK 10/02 Q1021 NOSIG=
0079583670999992024011213304+31198+121336FM-15+000399999V0209999V001019999999Y009900599+01101+00201999999ADDMA1102101999999REMMET052METAR ZSSS 121330Z VRB01MPS CAVOK 11/02 Q1021 NOSIG=
0079583670999992024011214004+31198+121336FM-15+000399999V0209999V001019999999Y009900599+01001+00201999999ADDMA1102101999999REMMET052METAR ZSSS 121400Z VRB01MPS CAVOK 10/02 Q1021 NOSIG=
0079583670999992024011214304+31198+121336FM-15+000399999V0209999V001019999999Y009900599+01001+00201999999ADDMA1102101999999REMMET052METAR ZSSS 121430Z VRB01MPS CAVOK 10/02 Q1021 NOSIG=
0079583670999992024011215004+31198+121336FM-15+000399999V0209999C000019999999Y009900599+00901+00201999999ADDMA1102101999999REMMET052METAR ZSSS 121500Z 00000MPS CAVOK 09/02 Q1021 NOSIG=
0079583670999992024011215304+31198+121336FM-15+000399999V0209999C000019999999Y009900599+01001+00301999999ADDMA1102101999999REMMET052METAR ZSSS 121530Z 00000MPS CAVOK 10/03 Q1021 NOSIG=
0079583670999992024011216004+31198+121336FM-15+000399999V0209999V001019999999Y009900599+00801+00201999999ADDMA1102101999999REMMET052METAR ZSSS 121600Z VRB01MPS CAVOK 08/02 Q1021 NOSIG=
0108583670999992024011216304+31198+121336FM-15+000399999V0209999V001012200019N008000199+00701+00201999999ADDGF100991999999999999999999MA1102101999999REMMET055METAR ZSSS 121630Z VRB01MPS 8000 NSC 07/02 Q1021 NOSIG=
0108583670999992024011217004+31198+121336FM-15+000399999V0201701N001012200019N008000199+00601+00301999999ADDGF100991999999999999999999MA1102201999999REMMET055METAR ZSSS 121700Z 17001MPS 8000 NSC 06/03 Q1022 NOSIG=
0108583670999992024011217304+31198+121336FM-15+000399999V0201801N001012200019N008000199+00601+00301999999ADDGF100991999999999999999999MA1102201999999REMMET055METAR ZSSS 121730Z 18001MPS 8000 NSC 06/03 Q1022 NOSIG=
0108583670999992024011218004+31198+121336FM-15+000399999V0201901N002012200019N008000199+00501+00201999999ADDGF100991999999999999999999MA1102201999999REMMET055METAR ZSSS 121800Z 19002MPS 8000 NSC 05/02 Q1022 NOSIG=
0108583670999992024011218304+31198+121336FM-15+000399999V0209999C000012200019N008000199+00601+00301999999ADDGF100991999999999999999999MA1102201999999REMMET055METAR ZSSS 121830Z 00000MPS 8000 NSC 06/03 Q1022 NOSIG=
0108583670999992024011219004+31198+121336FM-15+000399999V0203601N001012200019N008000199+00501+00201999999ADDGF100991999999999999999999MA1102201999999REMMET055METAR ZSSS 121900Z 36001MPS 8000 NSC 05/02 Q1022 NOSIG=
0108583670999992024011219304+31198+121336FM-15+000399999V0200201N001012200019N008000199+00501+00201999999ADDGF100991999999999999999999MA1102201999999REMMET055METAR ZSSS 121930Z 02001MPS 8000 NSC 05/02 Q1022 NOSIG=
0108583670999992024011220004+31198+121336FM-15+000399999V0203601N001012200019N008000199+00501+00201999999ADDGF100991999999999999999999MA1102201999999REMMET055METAR ZSSS 122000Z 36001MPS 8000 NSC 05/02 Q1022 NOSIG=
0108583670999992024011220304+31198+121336FM-15+000399999V0203601N001012200019N008000199+00501+00201999999ADDGF100991999999999999999999MA1102201999999REMMET055METAR ZSSS 122030Z 36001MPS 8000 NSC 05/02 Q1022 NOSIG=
0108583670999992024011221004+31198+121336FM-15+000399999V0203601N002012200019N008000199+00401+00201999999ADDGF100991999999999999999999MA1102301999999REMMET055METAR ZSSS 122100Z 36002MPS 8000 NSC 04/02 Q1023 NOSIG=
0108583670999992024011221304+31198+121336FM-15+000399999V0200101N001012200019N007000199+00401+00201999999ADDGF100991999999999999999999MA1102301999999REMMET055METAR ZSSS 122130Z 01001MPS 7000 NSC 04/02 Q1023 NOSIG=
0108583670999992024011222004+31198+121336FM-15+000399999V0200201N001012200019N007000199+00401+00301999999ADDGF100991999999999999999999MA1102301999999REMMET055METAR ZSSS 122200Z 02001MPS 7000 NSC 04/03 Q1023 NOSIG=
0108583670999992024011222304+31198+121336FM-15+000399999V0200101N002012200019N007000199+00401+00201999999ADDGF100991999999999999999999MA1102401999999REMMET055METAR ZSSS 122230Z 01002MPS 7000 NSC 04/02 Q1024 NOSIG=
0117583670999992024011223004+31198+121336FM-15+000399999V0200101N002012200019N005000199+00501+00301999999ADDGF100991999999999999999999MA1102401999999MW1101REMMET058METAR ZSSS 122300Z 01002MPS 5000 BR NSC 05/03 Q1024 NOSIG=
0117583670999992024011223304+31198+121336FM-15+000399999V0209999C000012200019N005000199+00601+00301999999ADDGF100991999999999999999999MA1102401999999MW1101REMMET058METAR ZSSS 122330Z 00000MPS 5000 BR NSC 06/03 Q1024 NOSIG=
0117583670999992024011300004+31198+121336FM-15+000399999V0209999C000012200019N005000199+00601+00301999999ADDGF100991999999999999999999MA1102401999999MW1101REMMET058METAR ZSSS 130000Z 00000MPS 5000 BR NSC 06/03 Q1024 NOSIG=
0117583670999992024011300304+31198+121336FM-15+000399999V0209999V001012200019N005000199+00901+00501999999ADDGF100991999999999999999999MA1102501999999MW1101REMMET058METAR ZSSS 130030Z VRB01MPS 5000 BR NSC 09/05 Q1025 NOSIG=
0117583670999992024011301004+31198+121336FM-15+000399999V0209999V001012200019N005000199+01101+00501999999ADDGF100991999999999999999999MA1102501999999MW1051REMMET058METAR ZSSS 130100Z VRB01MPS 5000 HZ NSC 11/05 Q1025 NOSIG=
0117583670999992024011301304+31198+121336FM-15+000399999V0209999V001012200019N005000199+01301+00501999999ADDGF100991999999999999999999MA1102501999999MW1051REMMET058METAR ZSSS 130130Z VRB01MPS 5000 HZ NSC 13/05 Q1025 NOSIG=
0117583670999992024011302004+31198+121336FM-15+000399999V0209999V001012200019N005000199+01401+00401999999ADDGF100991999999999999999999MA1102501999999MW1051REMMET058METAR ZSSS 130200Z VRB01MPS 5000 HZ NSC 14/04 Q1025 NOSIG=
0125583670999992024011302304+31198+121336FM-15+000399999V0201201V002012200019N005000199+01501+00401999999ADDGF100991999999999999999999MA1102501999999MW1051REMMET066METAR ZSSS 130230Z 12002MPS 080V150 5000 HZ NSC 15/04 Q1025 NOSIG=
0117583670999992024011303004+31198+121336FM-15+000399999V0209999V002012200019N005000199+01601+00401999999ADDGF100991999999999999999999MA1102501999999MW1051REMMET058METAR ZSSS 130300Z VRB02MPS 5000 HZ NSC 16/04 Q1025 NOSIG=
0125583670999992024011303304+31198+121336FM-15+000399999V0201301V002012200019N005000199+01601+00301999999ADDGF100991999999999999999999MA1102501999999MW1051REMMET066METAR ZSSS 130330Z 13002MPS 100V180 5000 HZ NSC 16/03 Q1025 NOSIG=
0125583670999992024011304004+31198+121336FM-15+000399999V0201401V003012200019N005000199+01701+00401999999ADDGF100991999999999999999999MA1102401999999MW1051REMMET066METAR ZSSS 130400Z 14003MPS 110V170 5000 HZ NSC 17/04 Q1024 NOSIG=
0125583670999992024011304304+31198+121336FM-15+000399999V0201301V002012200019N005000199+01701+00301999999ADDGF100991999999999999999999MA1102401999999MW1051REMMET066METAR ZSSS 130430Z 13002MPS 080V170 5000 HZ NSC 17/03 Q1024 NOSIG=
0125583670999992024011305004+31198+121336FM-15+000399999V0201201V003012200019N005000199+01701+00301999999ADDGF100991999999999999999999MA1102301999999MW1051REMMET066METAR ZSSS 130500Z 12003MPS 090V160 5000 HZ NSC 17/03 Q1023 NOSIG=
0125583670999992024011305304+31198+121336FM-15+000399999V0201101V002012200019N005000199+01801+00401999999ADDGF100991999999999999999999MA1102301999999MW1051REMMET066METAR ZSSS 130530Z 11002MPS 060V160 5000 HZ NSC 18/04 Q1023 NOSIG=
0125583670999992024011306004+31198+121336FM-15+000399999V0201301V002012200019N005000199+01801+00301999999ADDGF100991999999999999999999MA1102301999999MW1051REMMET066METAR ZSSS 130600Z 13002MPS 100V180 5000 HZ NSC 18/03 Q1023 NOSIG=
0117583670999992024011306304+31198+121336FM-15+000399999V0209999V001012200019N005000199+01801+00301999999ADDGF100991999999999999999999MA1102301999999MW1051REMMET058METAR ZSSS 130630Z VRB01MPS 5000 HZ NSC 18/03 Q1023 NOSIG=
0125583670999992024011307004+31198+121336FM-15+000399999V0201501V002012200019N005000199+01801+00301999999ADDGF100991999999999999999999MA1102301999999MW1051REMMET066METAR ZSSS 130700Z 15002MPS 070V190 5000 HZ NSC 18/03 Q1023 NOSIG=
0125583670999992024011307304+31198+121336FM-15+000399999V0201301V003012200019N005000199+01701+00301999999ADDGF100991999999999999999999MA1102301999999MW1051REMMET066METAR ZSSS 130730Z 13003MPS 110V180 5000 HZ NSC 17/03 Q1023 NOSIG=
0117583670999992024011308004+31198+121336FM-15+000399999V0201101N004012200019N005000199+01701+00401999999ADDGF100991999999999999999999MA1102301999999MW1051REMMET058METAR ZSSS 130800Z 11004MPS 5000 HZ NSC 17/04 Q1023 NOSIG=
0117583670999992024011308304+31198+121336FM-15+000399999V0201401N005012200019N005000199+01501+00501999999ADDGF100991999999999999999999MA1102301999999MW1051REMMET058METAR ZSSS 130830Z 14005MPS 5000 HZ NSC 15/05 Q1023 NOSIG=
0117583670999992024011309004+31198+121336FM-15+000399999V0201201N004012200019N005000199+01401+00601999999ADDGF100991999999999999999999MA1102301999999MW1051REMMET058METAR ZSSS 130900Z 12004MPS 5000 HZ NSC 14/06 Q1023 NOSIG=
0117583670999992024011309304+31198+121336FM-15+000399999V0201201N003012200019N005000199+01401+00601999999ADDGF100991999999999999999999MA1102301999999MW1051REMMET058METAR ZSSS 130930Z 12003MPS 5000 HZ NSC 14/06 Q1023 NOSIG=
0117583670999992024011310004+31198+121336FM-15+000399999V0201301N003012200019N005000199+01301+00601999999ADDGF100991999999999999999999MA1102401999999MW1051REMMET058METAR ZSSS 131000Z 13003MPS 5000 HZ NSC 13/06 Q1024 NOSIG=
0117583670999992024011310304+31198+121336FM-15+000399999V0201201N004012200019N005000199+01301+00601999999ADDGF100991999999999999999999MA1102401999999MW1051REMMET058METAR ZSSS 131030Z 12004MPS 5000 HZ NSC 13/06 Q1024 NOSIG=
0117583670999992024011311004+31198+121336FM-15+000399999V0201301N003012200019N005000199+01201+00601999999ADDGF100991999999999999999999MA1102401999999MW1051REMMET058METAR ZSSS 131100Z 13003MPS 5000 HZ NSC 12/06 Q1024 NOSIG=
0117583670999992024011311304+31198+121336FM-15+000399999V0201401N005012200019N005000199+01201+00701999999ADDGF100991999999999999999999MA1102401999999MW1051REMMET058METAR ZSSS 131130Z 14005MPS 5000 HZ NSC 12/07 Q1024 NOSIG=
0117583670999992024011312004+31198+121336FM-15+000399999V0201401N005012200019N005000199+01101+00701999999ADDGF100991999999999999999999MA1102401999999MW1051REMMET058METAR ZSSS 131200Z 14005MPS 5000 HZ NSC 11/07 Q1024 NOSIG=
0117583670999992024011312304+31198+121336FM-15+000399999V0201401N004012200019N005000199+01101+00701999999ADDGF100991999999999999999999MA1102401999999MW1051REMMET058METAR ZSSS 131230Z 14004MPS 5000 HZ NSC 11/07 Q1024 NOSIG=
0117583670999992024011313004+31198+121336FM-15+000399999V0201401N004012200019N005000199+01101+00701999999ADDGF100991999999999999999999MA1102401999999MW1051REMMET058METAR ZSSS 131300Z 14004MPS 5000 HZ NSC 11/07 Q1024 NOSIG=
0117583670999992024011313304+31198+121336FM-15+000399999V0201501N004012200019N005000199+01101+00701999999ADDGF100991999999999999999999MA1102401999999MW1101REMMET058METAR ZSSS 131330Z 15004MPS 5000 BR NSC 11/07 Q1024 NOSIG=
0117583670999992024011314004+31198+121336FM-15+000399999V0201501N004012200019N005000199+01001+00801999999ADDGF100991999999999999999999MA1102401999999MW1101REMMET058METAR ZSSS 131400Z 15004MPS 5000 BR NSC 10/08 Q1024 NOSIG=
0117583670999992024011314304+31198+121336FM-15+000399999V0201501N005012200019N005000199+01101+00801999999ADDGF100991999999999999999999MA1102401999999MW1101REMMET058METAR ZSSS 131430Z 15005MPS 5000 BR NSC 11/08 Q1024 NOSIG=
0117583670999992024011315004+31198+121336FM-15+000399999V0201501N005012200019N005000199+01101+00801999999ADDGF100991999999999999999999MA1102401999999MW1101REMMET058METAR ZSSS 131500Z 15005MPS 5000 BR NSC 11/08 Q1024 NOSIG=
0117583670999992024011315304+31198+121336FM-15+000399999V0201501N005012200019N005000199+01001+00701999999ADDGF100991999999999999999999MA1102401999999MW1101REMMET058METAR ZSSS 131530Z 15005MPS 5000 BR NSC 10/07 Q1024 NOSIG=
0117583670999992024011316004+31198+121336FM-15+000399999V0201501N004012200019N005000199+01001+00701999999ADDGF100991999999999999999999MA1102301999999MW1101REMMET058METAR ZSSS 131600Z 15004MPS 5000 BR NSC 10/07 Q1023 NOSIG=
0117583670999992024011316304+31198+121336FM-15+000399999V0201501N004012200019N005000199+01001+00701999999ADDGF100991999999999999999999MA1102301999999MW1101REMMET058METAR ZSSS 131630Z 15004MPS 5000 BR NSC 10/07 Q1023 NOSIG=
0117583670999992024011317004+31198+121336FM-15+000399999V0201501N004012200019N005000199+01001+00701999999ADDGF100991999999999999999999MA1102301999999MW1101REMMET058METAR ZSSS 131700Z 15004MPS 5000 BR NSC 10/07 Q1023 NOSIG=
0117583670999992024011317304+31198+121336FM-15+000399999V0201601N004012200019N005000199+00901+00701999999ADDGF100991999999999999999999MA1102301999999MW1101REMMET058METAR ZSSS 131730Z 16004MPS 5000 BR NSC 09/07 Q1023 NOSIG=
0117583670999992024011318004+31198+121336FM-15+000399999V0201601N003012200019N005000199+00901+00601999999ADDGF100991999999999999999999MA1102201999999MW1101REMMET058METAR ZSSS 131800Z 16003MPS 5000 BR NSC 09/06 Q1022 NOSIG=
0117583670999992024011318304+31198+121336FM-15+000399999V0201501N003012200019N005000199+00801+00601999999ADDGF100991999999999999999999MA1102201999999MW1101REMMET058METAR ZSSS 131830Z 15003MPS 5000 BR NSC 08/06 Q1022 NOSIG=
0117583670999992024011319004+31198+121336FM-15+000399999V0201501N004012200019N005000199+00901+00601999999ADDGF100991999999999999999999MA1102201999999MW1101REMMET058METAR ZSSS 131900Z 15004MPS 5000 BR NSC 09/06 Q1022 NOSIG=
0108583670999992024011319304+31198+121336FM-15+000399999V0201601N003012200019N006000199+00901+00601999999ADDGF100991999999999999999999MA1102201999999REMMET055METAR ZSSS 131930Z 16003MPS 6000 NSC 09/06 Q1022 NOSIG=
0108583670999992024011320004+31198+121336FM-15+000399999V0201701N003012200019N006000199+00901+00501999999ADDGF100991999999999999999999MA1102201999999REMMET055METAR ZSSS 132000Z 17003MPS 6000 NSC 09/05 Q1022 NOSIG=
0108583670999992024011320304+31198+121336FM-15+000399999V0201601N002012200019N007000199+00801+00501999999ADDGF100991999999999999999999MA1102201999999REMMET055METAR ZSSS 132030Z 16002MPS 7000 NSC 08/05 Q1022 NOSIG=
0108583670999992024011321004+31198+121336FM-15+000399999V0201601N002012200019N007000199+00701+00401999999ADDGF100991999999999999999999MA1102201999999REMMET055METAR ZSSS 132100Z 16002MPS 7000 NSC 07/04 Q1022 NOSIG=
0108583670999992024011321304+31198+121336FM-15+000399999V0201601N002012200019N008000199+00801+00401999999ADDGF100991999999999999999999MA1102201999999REMMET055METAR ZSSS 132130Z 16002MPS 8000 NSC 08/04 Q1022 NOSIG=
0108583670999992024011322004+31198+121336FM-15+000399999V0201601N002012200019N008000199+00801+00401999999ADDGF100991999999999999999999MA1102201999999REMMET055METAR ZSSS 132200Z 16002MPS 8000 NSC 08/04 Q1022 NOSIG=
0108583670999992024011322304+31198+121336FM-15+000399999V0201801N002012200019N008000199+00701+00401999999ADDGF100991999999999999999999MA1102201999999REMMET055METAR ZSSS 132230Z 18002MPS 8000 NSC 07/04 Q1022 NOSIG=
0079583670999992024011323004+31198+121336FM-15+000399999V0202001N003019999999Y009900599+00701+00301999999ADDMA1102201999999REMMET052METAR ZSSS 132300Z 20003MPS CAVOK 07/03 Q1022 NOSIG=
0079583670999992024011323304+31198+121336FM-15+000399999V0201701N003019999999Y009900599+00801+00401999999ADDMA1102201999999REMMET052METAR ZSSS 132330Z 17003MPS CAVOK 08/04 Q1022 NOSIG=
0079583670999992024011400004+31198+121336FM-15+000399999V0201801N003019999999Y009900599+01001+00401999999ADDMA1102301999999REMMET052METAR ZSSS 140000Z 18003MPS CAVOK 10/04 Q1023 NOSIG=
0079583670999992024011400304+31198+121336FM-15+000399999V0201801N005019999999Y009900599+01101+00301999999ADDMA1102301999999REMMET052METAR ZSSS 140030Z 18005MPS CAVOK 11/03 Q1023 NOSIG=
0087583670999992024011401004+31198+121336FM-15+000399999V0201901V003019999999Y009900599+01301+00201999999ADDMA1102301999999REMMET060METAR ZSSS 140100Z 19003MPS 160V220 CAVOK 13/02 Q1023 NOSIG=
0079583670999992024011401304+31198+121336FM-15+000399999V0202001N004019999999Y009900599+01401+00101999999ADDMA1102301999999REMMET052METAR ZSSS 140130Z 20004MPS CAVOK 14/01 Q1023 NOSIG=
0079583670999992024011402004+31198+121336FM-15+000399999V0202001N004019999999Y009900599+01601+00101999999ADDMA1102301999999REMMET052METAR ZSSS 140200Z 20004MPS CAVOK 16/01 Q1023 NOSIG=
0079583670999992024011402304+31198+121336FM-15+000399999V0202101N004019999999Y009900599+01601+00101999999ADDMA1102301999999REMMET052METAR ZSSS 140230Z 21004MPS CAVOK 16/01 Q1023 NOSIG=
0079583670999992024011403004+31198+121336FM-15+000399999V0202101N004019999999Y009900599+01701+00101999999ADDMA1102201999999REMMET052METAR ZSSS 140300Z 21004MPS CAVOK 17/01 Q1022 NOSIG=
0079583670999992024011403304+31198+121336FM-15+000399999V0202101N004019999999Y009900599+01901+00101999999ADDMA1102201999999REMMET052METAR ZSSS 140330Z 21004MPS CAVOK 19/01 Q1022 NOSIG=
0087583670999992024011404004+31198+121336FM-15+000399999V0202201V004019999999Y009900599+01901+00101999999ADDMA1102101999999REMMET060METAR ZSSS 140400Z 22004MPS 110V250 CAVOK 19/01 Q1021 NOSIG=
0087583670999992024011404304+31198+121336FM-15+000399999V0202001V003019999999Y009900599+02001+00201999999ADDMA1102101999999REMMET060METAR ZSSS 140430Z 20003MPS 160V220 CAVOK 20/02 Q1021 NOSIG=
0103583670999992024011405004+31198+121336FM-15+000399999V0202601V003019999999Y009900599+02101+00101999999ADDMA1102001999999REMMET076METAR ZSSS 140500Z 26003MPS 230V300 CAVOK 21/01 Q1020 BECMG TL0640 32005MPS=
0079583670999992024011405304+31198+121336FM-15+000399999V0209999V003019999999Y009900599+02101+00101999999ADDMA1102001999999REMMET052METAR ZSSS 140530Z VRB03MPS CAVOK 21/01 Q1020 NOSIG=
0106583670999992024011406004+31198+121336FM-15+000399999V0203001N004019999999Y009900599+02201+00101999999ADDMA1102001999999OC101001REMMET071METAR ZSSS 140600Z 30004G10MPS CAVOK 22/01 Q1020 BECMG TL0730 36009MPS=
0087583670999992024011406304+31198+121336FM-15+000399999V0203001V005019999999Y009900599+02101+00201999999ADDMA1102001999999REMMET060METAR ZSSS 140630Z 30005MPS 270V340 CAVOK 21/02 Q1020 NOSIG=
0087583670999992024011407004+31198+121336FM-15+000399999V0203101V004019999999Y009900599+02101+00201999999ADDMA1102001999999REMMET060METAR ZSSS 140700Z 31004MPS 270V350 CAVOK 21/02 Q1020 NOSIG=
0079583670999992024011407304+31198+121336FM-15+000399999V0203201N005019999999Y009900599+02101+00301999999ADDMA1102001999999REMMET052METAR ZSSS 140730Z 32005MPS CAVOK 21/03 Q1020 NOSIG=
0079583670999992024011408004+31198+121336FM-15+000399999V0203501N006019999999Y009900599+02001+00401999999ADDMA1102101999999REMMET052METAR ZSSS 140800Z 35006MPS CAVOK 20/04 Q1021 NOSIG=
0079583670999992024011408304+31198+121336FM-15+000399999V0200101N007019999999Y009900599+01901+00401999999ADDMA1102101999999REMMET052METAR ZSSS 140830Z 01007MPS CAVOK 19/04 Q1021 NOSIG=
0140583670999992024011409004+31198+121336FM-15+000399999V0200101V008012200019N005000199+01601+00501999999ADDGF100991999999999999999999MA1102201999999MW1051REMMET081METAR ZSSS 140900Z 01008MPS 330V030 5000 HZ NSC 16/05 Q1022 BECMG TL1050 2000 HZ=
0158583670999992024011409304+31198+121336FM-15+000399999V0200201N00801007921CN005000199+01301+00501999999ADDGA1071+007921999GE19AGL   +99999+99999GF199999071999007921999999MA1102301999999MW1051REMMET061METAR ZSSS 140930Z 02008MPS 5000 HZ BKN026 13/05 Q1023 NOSIG=
0170583670999992024011410004+31198+121336FM-15+000399999V0200101N00801007921CN005000199+01201+00601999999ADDGA1071+007921999GE19AGL   +99999+99999GF199999071999007921999999MA1102401999999MW1051REMMET073METAR ZSSS 141000Z 01008MPS 5000 HZ BKN026 12/06 Q1024 BECMG TL1150 2000=
0158583670999992024011410304+31198+121336FM-15+000399999V0200201N00901007921CN005000199+01001+00601999999ADDGA1071+007921999GE19AGL   +99999+99999GF199999071999007921999999MA1102501999999MW1051REMMET061METAR ZSSS 141030Z 02009MPS 5000 HZ BKN026 10/06 Q1025 NOSIG=
0172583670999992024011411004+31198+121336FM-15+000399999V0203601N00801004881CN005000199+01001+00601999999ADDGA1071+004881999GE19AGL   +99999+99999GF199999071999004881999999MA1102501999999MW1101REMMET075METAR ZSSS 141100Z 36008MPS 5000 BR BKN016 10/06 Q1025 BECMG TL1250 BKN009=
0170583670999992024011411304+31198+121336FM-15+000399999V0200101N00901003961CN004500199+00901+00601999999ADDGA1071+003961999GE19AGL   +99999+99999GF199999071999003961999999MA1102601999999MW1101MW2801REMMET067METAR ZSSS 141130Z 01009MPS 4500 -SHRA BR BKN013 09/06 Q1026 NOSIG=
0184583670999992024011412004+31198+121336FM-15+000399999V0203601N00901003051CN004000199+00901+00601999999ADDGA1071+003051999GE19AGL   +99999+99999GF199999071999003051999999MA1102701999999MW1101MW2801REMMET081METAR ZSSS 141200Z 36009MPS 4000 -SHRA BR BKN010 09/06 Q1027 BECMG TL1230 BKN009=
0161583670999992024011412304+31198+121336FM-15+000399999V0200101N00901002741CN007000199+00801+00601999999ADDGA1071+002741999GE19AGL   +99999+99999GF199999071999002741999999MA1102701999999MW1801REMMET064METAR ZSSS 141230Z 01009MPS 7000 -SHRA BKN009 08/06 Q1027 NOSIG=
0163583670999992024011413004+31198+121336FM-15+000399999V0200101N00801002741CN007000199+00801+00601999999ADDGA1071+002741999GE19AGL   +99999+99999GF199999071999002741999999MA1102701999999REMMET072METAR ZSSS 141300Z 01008MPS 7000 BKN009 08/06 Q1027 BECMG TL1430 BKN011=
0149583670999992024011413304+31198+121336FM-15+000399999V0200101N00801002741CN008000199+00801+00601999999ADDGA1071+002741999GE19AGL   +99999+99999GF199999071999002741999999MA1102801999999REMMET058METAR ZSSS 141330Z 01008MPS 8000 BKN009 08/06 Q1028 NOSIG=
0163583670999992024011414004+31198+121336FM-15+000399999V0200201N00801003351CN009999199+00801+00501999999ADDGA1071+003351999GE19AGL   +99999+99999GF199999071999003351999999MA1102801999999REMMET072METAR ZSSS 141400Z 02008MPS 9999 BKN011 08/05 Q1028 BECMG TL1530 BKN015=
0149583670999992024011414304+31198+121336FM-15+000399999V0200101N00801003961CN009999199+00801+00501999999ADDGA1071+003961999GE19AGL   +99999+99999GF199999071999003961999999MA1102901999999REMMET058METAR ZSSS 141430Z 01008MPS 9999 BKN013 08/05 Q1029 NOSIG=
0163583670999992024011415004+31198+121336FM-15+000399999V0200101N00801003961CN009999199+00801+00501999999ADDGA1071+003961999GE19AGL   +99999+99999GF199999071999003961999999MA1102901999999REMMET072METAR ZSSS 141500Z 01008MPS 9999 BKN013 08/05 Q1029 BECMG TL1630 BKN015=
0149583670999992024011415304+31198+121336FM-15+000399999V0203601N00801003961CN009999199+00701+00401999999ADDGA1071+003961999GE19AGL   +99999+99999GF199999071999003961999999MA1102901999999REMMET058METAR ZSSS 141530Z 36008MPS 9999 BKN013 07/04 Q1029 NOSIG=
0163583670999992024011416004+31198+121336FM-15+000399999V0200101N00901003961CN009999199+00701+00401999999ADDGA1071+003961999GE19AGL   +99999+99999GF199999071999003961999999MA1102901999999REMMET072METAR ZSSS 141600Z 01009MPS 9999 BKN013 07/04 Q1029 BECMG TL1700 BKN015=
0149583670999992024011416304+31198+121336FM-15+000399999V0200101N00801003961CN009999199+00701+00301999999ADDGA1071+003961999GE19AGL   +99999+99999GF199999071999003961999999MA1102901999999REMMET058METAR ZSSS 141630Z 01008MPS 9999 BKN013 07/03 Q1029 NOSIG=
0163583670999992024011417004+31198+121336FM-15+000399999V0200101N00801003961CN009999199+00601+00301999999ADDGA1071+003961999GE19AGL   +99999+99999GF199999071999003961999999MA1103001999999REMMET072METAR ZSSS 141700Z 01008MPS 9999 BKN013 06/03 Q1030 BECMG TL1730 BKN015=
0149583670999992024011417304+31198+121336FM-15+000399999V0200201N00701004571CN009999199+00601+00201999999ADDGA1071+004571999GE19AGL   +99999+99999GF199999071999004571999999MA1103001999999REMMET058METAR ZSSS 141730Z 02007MPS 9999 BKN015 06/02 Q1030 NOSIG=
0149583670999992024011418004+31198+121336FM-15+000399999V0200101N00801004571CN009999199+00601+00201999999ADDGA1071+004571999GE19AGL   +99999+99999GF199999071999004571999999MA1103001999999REMMET058METAR ZSSS 141800Z 01008MPS 9999 BKN015 06/02 Q1030 NOSIG=
0149583670999992024011418304+31198+121336FM-15+000399999V0200101N00701004571CN009999199+00601+00101999999ADDGA1071+004571999GE19AGL   +99999+99999GF199999071999004571999999MA1103001999999REMMET058METAR ZSSS 141830Z 01007MPS 9999 BKN015 06/01 Q1030 NOSIG=
0149583670999992024011419004+31198+121336FM-15+000399999V0203601N00701004571CN009999199+00601+00101999999ADDGA1071+004571999GE19AGL   +99999+99999GF199999071999004571999999MA1103101999999REMMET058METAR ZSSS 141900Z 36007MPS 9999 BKN015 06/01 Q1031 NOSIG=
0149583670999992024011419304+31198+121336FM-15+000399999V0200101N00701007011CN009999199+00501+00001999999ADDGA1071+007011999GE19AGL   +99999+99999GF199999071999007011999999MA1103101999999REMMET058METAR ZSSS 141930Z 01007MPS 9999 BKN023 05/00 Q1031 NOSIG=
0150583670999992024011420004+31198+121336FM-15+000399999V0203601N00701007011CN009999199+00501-00101999999ADDGA1071+007011999GE19AGL   +99999+99999GF199999071999007011999999MA1103101999999REMMET059METAR ZSSS 142000Z 36007MPS 9999 BKN023 05/M01 Q1031 NOSIG=
0150583670999992024011420304+31198+121336FM-15+000399999V0203601N00801007011CN009999199+00501-00101999999ADDGA1071+007011999GE19AGL   +99999+99999GF199999071999007011999999MA1103101999999REMMET059METAR ZSSS 142030Z 36008MPS 9999 BKN023 05/M01 Q1031 NOSIG=
0150583670999992024011421004+31198+121336FM-15+000399999V0200101N00601007011CN009999199+00501-00101999999ADDGA1071+007011999GE19AGL   +99999+99999GF199999071999007011999999MA1103201999999REMMET059METAR ZSSS 142100Z 01006MPS 9999 BKN023 05/M01 Q1032 NOSIG=
0150583670999992024011421304+31198+121336FM-15+000399999V0203601N00701007011CN009999199+00501-00101999999ADDGA1071+007011999GE19AGL   +99999+99999GF199999071999007011999999MA1103201999999REMMET059METAR ZSSS 142130Z 36007MPS 9999 BKN023 05/M01 Q1032 NOSIG=
0150583670999992024011422004+31198+121336FM-15+000399999V0200201N00601007011CN009999199+00501-00201999999ADDGA1071+007011999GE19AGL   +99999+99999GF199999071999007011999999MA1103201999999REMMET059METAR ZSSS 142200Z 02006MPS 9999 BKN023 05/M02 Q1032 NOSIG=
0150583670999992024011422304+31198+121336FM-15+000399999V0200201N00501007011CN009999199+00501-00201999999ADDGA1071+007011999GE19AGL   +99999+99999GF199999071999007011999999MA1103301999999REMMET059METAR ZSSS 142230Z 02005MPS 9999 BKN023 05/M02 Q1033 NOSIG=
0150583670999992024011423004+31198+121336FM-15+000399999V0203601N00601007921CN009999199+00401-00201999999ADDGA1071+007921999GE19AGL   +99999+99999GF199999071999007921999999MA1103301999999REMMET059METAR ZSSS 142300Z 36006MPS 9999 BKN026 04/M02 Q1033 NOSIG=
0150583670999992024011423304+31198+121336FM-15+000399999V0203601N00601009141CN009999199+00401-00301999999ADDGA1071+009141999GE19AGL   +99999+99999GF199999071999009141999999MA1103301999999REMMET059METAR ZSSS 142330Z 36006MPS 9999 BKN030 04/M03 Q1033 NOSIG=
0150583670999992024011500004+31198+121336FM-15+000399999V0203601N00701009141CN009999199+00401-00301999999ADDGA1071+009141999GE19AGL   +99999+99999GF199999071999009141999999MA1103301999999REMMET059METAR ZSSS 150000Z 36007MPS 9999 BKN030 04/M03 Q1033 NOSIG=
0150583670999992024011500304+31198+121336FM-15+000399999V0200101N007019999999N009999199+00501-00301999999ADDGA1041+009141999GE19AGL   +99999+99999GF199999041999009141999999MA1103401999999REMMET059METAR ZSSS 150030Z 01007MPS 9999 SCT030 05/M03 Q1034 NOSIG=
0150583670999992024011501004+31198+121336FM-15+000399999V0200101N007019999999N009999199+00501-00301999999ADDGA1041+009141999GE19AGL   +99999+99999GF199999041999009141999999MA1103401999999REMMET059METAR ZSSS 150100Z 01007MPS 9999 SCT030 05/M03 Q1034 NOSIG=
0150583670999992024011501304+31198+121336FM-15+000399999V0200201N006019999999N009999199+00501-00301999999ADDGA1021+010061999GE19AGL   +99999+99999GF199999021999010061999999MA1103401999999REMMET059METAR ZSSS 150130Z 02006MPS 9999 FEW033 05/M03 Q1034 NOSIG=
0158583670999992024011502004+31198+121336FM-15+000399999V0200101V006019999999N009999199+00601-00301999999ADDGA1021+010061999GE19AGL   +99999+99999GF199999021999010061999999MA1103401999999REMMET067METAR ZSSS 150200Z 01006MPS 340V040 9999 FEW033 06/M03 Q1034 NOSIG=
0158583670999992024011502304+31198+121336FM-15+000399999V0200201V007019999999N009999199+00601-00301999999ADDGA1021+010061999GE19AGL   +99999+99999GF199999021999010061999999MA1103401999999REMMET067METAR ZSSS 150230Z 02007MPS 350V050 9999 FEW033 06/M03 Q1034 NOSIG=
0080583670999992024011503004+31198+121336FM-15+000399999V0200101N006019999999Y009900599+00601-00301999999ADDMA1103301999999REMMET053METAR ZSSS 150300Z 01006MPS CAVOK 06/M03 Q1033 NOSIG=
0088583670999992024011503304+31198+121336FM-15+000399999V0200301V005019999999Y009900599+00601-00201999999ADDMA1103301999999REMMET061METAR ZSSS 150330Z 03005MPS 350V070 CAVOK 06/M02 Q1033 NOSIG=
0080583670999992024011504004+31198+121336FM-15+000399999V0203501N007019999999Y009900599+00701-00301999999ADDMA1103201999999REMMET053METAR ZSSS 150400Z 35007MPS CAVOK 07/M03 Q1032 NOSIG=
0158583670999992024011504304+31198+121336FM-15+000399999V0203501V004019999999N009999199+00701-00201999999ADDGA1021+010061999GE19AGL   +99999+99999GF199999021999010061999999MA1103201999999REMMET067METAR ZSSS 150430Z 35004MPS 320V040 9999 FEW033 07/M02 Q1032 NOSIG=
0158583670999992024011505004+31198+121336FM-15+000399999V0200201V003019999999N009999199+00701-00301999999ADDGA1021+010061999GE19AGL   +99999+99999GF199999021999010061999999MA1103201999999REMMET067METAR ZSSS 150500Z 02003MPS 320V060 9999 FEW033 07/M03 Q1032 NOSIG=
0158583670999992024011505304+31198+121336FM-15+000399999V0203501V004019999999N009999199+00801-00201999999ADDGA1021+010061999GE19AGL   +99999+99999GF199999021999010061999999MA1103201999999REMMET067METAR ZSSS 150530Z 35004MPS 280V050 9999 FEW033 08/M02 Q1032 NOSIG=
0158583670999992024011506004+31198+121336FM-15+000399999V0203601V004019999999N009999199+00801-00301999999ADDGA1021+010061999GE19AGL   +99999+99999GF199999021999010061999999MA1103101999999REMMET067METAR ZSSS 150600Z 36004MPS 330V070 9999 FEW033 08/M03 Q1031 NOSIG=
0158583670999992024011506304+31198+121336FM-15+000399999V0203501V004019999999N009999199+00801-00301999999ADDGA1021+010061999GE19AGL   +99999+99999GF199999021999010061999999MA1103101999999REMMET067METAR ZSSS 150630Z 35004MPS 320V020 9999 FEW033 08/M03 Q1031 NOSIG=
0088583670999992024011507004+31198+121336FM-15+000399999V0200101V003019999999Y009900599+00801-00301999999ADDMA1103101999999REMMET061METAR ZSSS 150700Z 01003MPS 310V050 CAVOK 08/M03 Q1031 NOSIG=
0088583670999992024011507304+31198+121336FM-15+000399999V0203601V004019999999Y009900599+00801-00301999999ADDMA1103101999999REMMET061METAR ZSSS 150730Z 36004MPS 330V030 CAVOK 08/M03 Q1031 NOSIG=
0088583670999992024011508004+31198+121336FM-15+000399999V0200301V004019999999Y009900599+00701-00301999999ADDMA1103101999999REMMET061METAR ZSSS 150800Z 03004MPS 350V060 CAVOK 07/M03 Q1031 NOSIG=
0088583670999992024011508304+31198+121336FM-15+000399999V0200201V005019999999Y009900599+00701-00201999999ADDMA1103101999999REMMET061METAR ZSSS 150830Z 02005MPS 350V060 CAVOK 07/M02 Q1031 NOSIG=
0088583670999992024011509004+31198+121336FM-15+000399999V0200501V004019999999Y009900599+00601-00201999999ADDMA1103201999999REMMET061METAR ZSSS 150900Z 05004MPS 020V130 CAVOK 06/M02 Q1032 NOSIG=
0080583670999992024011509304+31198+121336FM-15+000399999V0200301N004019999999Y009900599+00601-00301999999ADDMA1103201999999REMMET053METAR ZSSS 150930Z 03004MPS CAVOK 06/M03 Q1032 NOSIG=
0080583670999992024011510004+31198+121336FM-15+000399999V0200201N004019999999Y009900599+00501-00301999999ADDMA1103201999999REMMET053METAR ZSSS 151000Z 02004MPS CAVOK 05/M03 Q1032 NOSIG=
0088583670999992024011510304+31198+121336FM-15+000399999V0200201V003019999999Y009900599+00501-00301999999ADDMA1103201999999REMMET061METAR ZSSS 151030Z 02003MPS 360V080 CAVOK 05/M03 Q1032 NOSIG=
0080583670999992024011511004+31198+121336FM-15+000399999V0200201N004019999999Y009900599+00501-00301999999ADDMA1103201999999REMMET053METAR ZSSS 151100Z 02004MPS CAVOK 05/M03 Q1032 NOSIG=
0080583670999992024011511304+31198+121336FM-15+000399999V0200401N004019999999Y009900599+00501-00201999999ADDMA1103201999999REMMET053METAR ZSSS 151130Z 04004MPS CAVOK 05/M02 Q1032 NOSIG=
0080583670999992024011512004+31198+121336FM-15+000399999V0200401N004019999999Y009900599+00501-00201999999ADDMA1103201999999REMMET053METAR ZSSS 151200Z 04004MPS CAVOK 05/M02 Q1032 NOSIG=
0080583670999992024011512304+31198+121336FM-15+000399999V0200401N004019999999Y009900599+00401-00201999999ADDMA1103201999999REMMET053METAR ZSSS 151230Z 04004MPS CAVOK 04/M02 Q1032 NOSIG=
0080583670999992024011513004+31198+121336FM-15+000399999V0200301N005019999999Y009900599+00401-00201999999ADDMA1103301999999REMMET053METAR ZSSS 151300Z 03005MPS CAVOK 04/M02 Q1033 NOSIG=
0080583670999992024011513304+31198+121336FM-15+000399999V0200401N004019999999Y009900599+00401-00301999999ADDMA1103301999999REMMET053METAR ZSSS 151330Z 04004MPS CAVOK 04/M03 Q1033 NOSIG=
0080583670999992024011514004+31198+121336FM-15+000399999V0200401N004019999999Y009900599+00401-00201999999ADDMA1103301999999REMMET053METAR ZSSS 151400Z 04004MPS CAVOK 04/M02 Q1033 NOSIG=
0080583670999992024011514304+31198+121336FM-15+000399999V0200501N003019999999Y009900599+00401-00201999999ADDMA1103301999999REMMET053METAR ZSSS 151430Z 05003MPS CAVOK 04/M02 Q1033 NOSIG=
0080583670999992024011515004+31198+121336FM-15+000399999V0200601N003019999999Y009900599+00401-00201999999ADDMA1103201999999REMMET053METAR ZSSS 151500Z 06003MPS CAVOK 04/M02 Q1032 NOSIG=
0080583670999992024011515304+31198+121336FM-15+000399999V0200701N002019999999Y009900599+00401-00201999999ADDMA1103201999999REMMET053METAR ZSSS 151530Z 07002MPS CAVOK 04/M02 Q1032 NOSIG=
0088583670999992024011516004+31198+121336FM-15+000399999V0200701V002019999999Y009900599+00401-00201999999ADDMA1103201999999REMMET061METAR ZSSS 151600Z 07002MPS 040V100 CAVOK 04/M02 Q1032 NOSIG=
0080583670999992024011516304+31198+121336FM-15+000399999V0209999V001019999999Y009900599+00201-00301999999ADDMA1103101999999REMMET053METAR ZSSS 151630Z VRB01MPS CAVOK 02/M03 Q1031 NOSIG=
0080583670999992024011517004+31198+121336FM-15+000399999V0209999V001019999999Y009900599+00301-00201999999ADDMA1103101999999REMMET053METAR ZSSS 151700Z VRB01MPS CAVOK 03/M02 Q1031 NOSIG=
0080583670999992024011517304+31198+121336FM-15+000399999V0203501N002019999999Y009900599+00201-00201999999ADDMA1103101999999REMMET053METAR ZSSS 151730Z 35002MPS CAVOK 02/M02 Q1031 NOSIG=
0080583670999992024011518004+31198+121336FM-15+000399999V0203601N001019999999Y009900599+00301-00201999999ADDMA1103101999999REMMET053METAR ZSSS 151800Z 36001MPS CAVOK 03/M02 Q1031 NOSIG=
0080583670999992024011518304+31198+121336FM-15+000399999V0203501N002019999999Y009900599+00301-00201999999ADDMA1103101999999REMMET053METAR ZSSS 151830Z 35002MPS CAVOK 03/M02 Q1031 NOSIG=
0080583670999992024011519004+31198+121336FM-15+000399999V0209999V001019999999Y009900599+00201-00201999999ADDMA1103101999999REMMET053METAR ZSSS 151900Z VRB01MPS CAVOK 02/M02 Q1031 NOSIG=
0150583670999992024011519304+31198+121336FM-15+000399999V0200101N001019999999N009999199+00201-00201999999ADDGA1021+010061999GE19AGL   +99999+99999GF199999021999010061999999MA1103101999999REMMET059METAR ZSSS 151930Z 01001MPS 9999 FEW033 02/M02 Q1031 NOSIG=
0150583670999992024011520004+31198+121336FM-15+000399999V0203501N002019999999N009999199+00201-00201999999ADDGA1041+009141999GE19AGL   +99999+99999GF199999041999009141999999MA1103101999999REMMET059METAR ZSSS 152000Z 35002MPS 9999 SCT030 02/M02 Q1031 NOSIG=
0150583670999992024011520304+31198+121336FM-15+000399999V0203601N002019999999N009999199+00201-00201999999ADDGA1041+009141999GE19AGL   +99999+99999GF199999041999009141999999MA1103101999999REMMET059METAR ZSSS 152030Z 36002MPS 9999 SCT030 02/M02 Q1031 NOSIG=
0150583670999992024011521004+31198+121336FM-15+000399999V0203501N002019999999N009999199+00201-00201999999ADDGA1041+009141999GE19AGL   +99999+99999GF199999041999009141999999MA1103101999999REMMET059METAR ZSSS 152100Z 35002MPS 9999 SCT030 02/M02 Q1031 NOSIG=
0150583670999992024011521304+31198+121336FM-15+000399999V0200101N002019999999N009999199+00101-00201999999ADDGA1041+009141999GE19AGL   +99999+99999GF199999041999009141999999MA1103101999999REMMET059METAR ZSSS 152130Z 01002MPS 9999 SCT030 01/M02 Q1031 NOSIG=
0150583670999992024011522004+31198+121336FM-15+000399999V0203601N002019999999N009999199+00201-00101999999ADDGA1021+009141999GE19AGL   +99999+99999GF199999021999009141999999MA1103101999999REMMET059METAR ZSSS 152200Z 36002MPS 9999 FEW030 02/M01 Q1031 NOSIG=
0150583670999992024011522304+31198+121336FM-15+000399999V0203501N001019999999N009999199+00101-00201999999ADDGA1021+009141999GE19AGL   +99999+99999GF199999021999009141999999MA1103101999999REMMET059METAR ZSSS 152230Z 35001MPS 9999 FEW030 01/M02 Q1031 NOSIG=
0150583670999992024011523004+31198+121336FM-15+000399999V0203501N002019999999N009999199+00101-00201999999ADDGA1041+009141999GE19AGL   +99999+99999GF199999041999009141999999MA1103101999999REMMET059METAR ZSSS 152300Z 35002MPS 9999 SCT030 01/M02 Q1031 NOSIG=
0150583670999992024011523304+31198+121336FM-15+000399999V0200201N00201009141CN009999199+00301-00101999999ADDGA1071+009141999GE19AGL   +99999+99999GF199999071999009141999999MA1103101999999REMMET059METAR ZSSS 152330Z 02002MPS 9999 BKN030 03/M01 Q1031 NOSIG=
0149583670999992024011600004+31198+121336FM-15+000399999V0200101N00101009141CN009999199+00401+00101999999ADDGA1071+009141999GE19AGL   +99999+99999GF199999071999009141999999MA1103201999999REMMET058METAR ZSSS 160000Z 01001MPS 9999 BKN030 04/01 Q1032 NOSIG=
0149583670999992024011600304+31198+121336FM-15+000399999V0209999C00001009141CN009999199+00601+00101999999ADDGA1071+009141999GE19AGL   +99999+99999GF199999071999009141999999MA1103201999999REMMET058METAR ZSSS 160030Z 00000MPS 9999 BKN030 06/01 Q1032 NOSIG=
0149583670999992024011601004+31198+121336FM-15+000399999V0209999V00101009141CN009999199+00701+00101999999ADDGA1071+009141999GE19AGL   +99999+99999GF199999071999009141999999MA1103201999999REMMET058METAR ZSSS 160100Z VRB01MPS 9999 BKN030 07/01 Q1032 NOSIG=
0157583670999992024011601304+31198+121336FM-15+000399999V0201201V00401010061CN009999199+00901+00101999999ADDGA1071+010061999GE19AGL   +99999+99999GF199999071999010061999999MA1103201999999REMMET066METAR ZSSS 160130Z 12004MPS 090V150 9999 BKN033 09/01 Q1032 NOSIG=
0157583670999992024011602004+31198+121336FM-15+000399999V0201301V00501010061CN009999199+00901+00201999999ADDGA1071+010061999GE19AGL   +99999+99999GF199999071999010061999999MA1103201999999REMMET066METAR ZSSS 160200Z 13005MPS 090V160 9999 BKN033 09/02 Q1032 NOSIG=
0157583670999992024011602304+31198+121336FM-15+000399999V0201401V00501010061CN009999199+01001+00101999999ADDGA1071+010061999GE19AGL   +99999+99999GF199999071999010061999999MA1103201999999REMMET066METAR ZSSS 160230Z 14005MPS 100V160 9999 BKN033 10/01 Q1032 NOSIG=
0157583670999992024011603004+31198+121336FM-15+000399999V0201201V00401010061CN009999199+00901+00101999999ADDGA1071+010061999GE19AGL   +99999+99999GF199999071999010061999999MA1103201999999REMMET066METAR ZSSS 160300Z 12004MPS 090V150 9999 BKN033 09/01 Q1032 NOSIG=
0157583670999992024011603304+31198+121336FM-15+000399999V0201201V00401010061CN009999199+01001+00201999999ADDGA1071+010061999GE19AGL   +99999+99999GF199999071999010061999999MA1103101999999REMMET066METAR ZSSS 160330Z 12004MPS 080V150 9999 BKN033 10/02 Q1031 NOSIG=
0157583670999992024011604004+31198+121336FM-15+000399999V0201301V00501010061CN009999199+01001+00101999999ADDGA1071+010061999GE19AGL   +99999+99999GF199999071999010061999999MA1103001999999REMMET066METAR ZSSS 160400Z 13005MPS 090V150 9999 BKN033 10/01 Q1030 NOSIG=
0157583670999992024011604304+31198+121336FM-15+000399999V0201101V00401010061CN009999199+01101+00101999999ADDGA1071+010061999GE19AGL   +99999+99999GF199999071999010061999999MA1103001999999REMMET066METAR ZSSS 160430Z 11004MPS 060V130 9999 BKN033 11/01 Q1030 NOSIG=
0157583670999992024011605004+31198+121336FM-15+000399999V0201201V00401010061CN009999199+01101+00201999999ADDGA1071+010061999GE19AGL   +99999+99999GF199999071999010061999999MA1103001999999REMMET066METAR ZSSS 160500Z 12004MPS 070V180 9999 BKN033 11/02 Q1030 NOSIG=
0157583670999992024011605304+31198+121336FM-15+000399999V0201101V00401010061CN009999199+01101+00201999999ADDGA1071+010061999GE19AGL   +99999+99999GF199999071999010061999999MA1102901999999REMMET066METAR ZSSS 160530Z 11004MPS 070V160 9999 BKN033 11/02 Q1029 NOSIG=
0157583670999992024011606004+31198+121336FM-15+000399999V0201501V005019999999N009999199+01201+00201999999ADDGA1041+010061999GE19AGL   +99999+99999GF199999041999010061999999MA1102901999999REMMET066METAR ZSSS 160600Z 15005MPS 080V180 9999 SCT033 12/02 Q1029 NOSIG=
0149583670999992024011606304+31198+121336FM-15+000399999V0201401N006019999999N009999199+01101+00201999999ADDGA1021+010061999GE19AGL   +99999+99999GF199999021999010061999999MA1102901999999REMMET058METAR ZSSS 160630Z 14006MPS 9999 FEW033 11/02 Q1029 NOSIG=
0087583670999992024011607004+31198+121336FM-15+000399999V0201301V005019999999Y009900599+01201+00201999999ADDMA1102801999999REMMET060METAR ZSSS 160700Z 13005MPS 090V170 CAVOK 12/02 Q1028 NOSIG=
0087583670999992024011607304+31198+121336FM-15+000399999V0201401V005019999999Y009900599+01201+00201999999ADDMA1102801999999REMMET060METAR ZSSS 160730Z 14005MPS 100V170 CAVOK 12/02 Q1028 NOSIG=
0149583670999992024011608004+31198+121336FM-15+000399999V0201401N006019999999N009999199+01101+00201999999ADDGA1021+010061999GE19AGL   +99999+99999GF199999021999010061999999MA1102801999999REMMET058METAR ZSSS 160800Z 14006MPS 9999 FEW033 11/02 Q1028 NOSIG=
0087583670999992024011608304+31198+121336FM-15+000399999V0201301V005019999999Y009900599+01101+00201999999ADDMA1102801999999REMMET060METAR ZSSS 160830Z 13005MPS 090V160 CAVOK 11/02 Q1028 NOSIG=
0149583670999992024011609004+31198+121336FM-15+000399999V0201301N004019999999N009999199+01001+00201999999ADDGA1021+010061999GE19AGL   +99999+99999GF199999021999010061999999MA1102901999999REMMET058METAR ZSSS 160900Z 13004MPS 9999 FEW033 10/02 Q1029 NOSIG=
0149583670999992024011609304+31198+121336FM-15+000399999V0201301N005019999999N009999199+01001+00201999999ADDGA1021+010061999GE19AGL   +99999+99999GF199999021999010061999999MA1102901999999REMMET058METAR ZSSS 160930Z 13005MPS 9999 FEW033 10/02 Q1029 NOSIG=
0079583670999992024011610004+31198+121336FM-15+000399999V0201301N005019999999Y009900599+01001+00201999999ADDMA1102801999999REMMET052METAR ZSSS 161000Z 13005MPS CAVOK 10/02 Q1028 NOSIG=
0079583670999992024011610304+31198+121336FM-15+000399999V0201301N004019999999Y009900599+01001+00201999999ADDMA1102901999999REMMET052METAR ZSSS 161030Z 13004MPS CAVOK 10/02 Q1029 NOSIG=
0087583670999992024011611004+31198+121336FM-15+000399999V0201301V004019999999Y009900599+01001+00301999999ADDMA1102901999999REMMET060METAR ZSSS 161100Z 13004MPS 100V160 CAVOK 10/03 Q1029 NOSIG=
0079583670999992024011611304+31198+121336FM-15+000399999V0201401N004019999999Y009900599+00901+00301999999ADDMA1102901999999REMMET052METAR ZSSS 161130Z 14004MPS CAVOK 09/03 Q1029 NOSIG=
0079583670999992024011612004+31198+121336FM-15+000399999V0201401N004019999999Y009900599+00901+00301999999ADDMA1102901999999REMMET052METAR ZSSS 161200Z 14004MPS CAVOK 09/03 Q1029 NOSIG=
0079583670999992024011612304+31198+121336FM-15+000399999V0201301N004019999999Y009900599+00901+00301999999ADDMA1102901999999REMMET052METAR ZSSS 161230Z 13004MPS CAVOK 09/03 Q1029 NOSIG=
0087583670999992024011613004+31198+121336FM-15+000399999V0201401V004019999999Y009900599+00901+00301999999ADDMA1102801999999REMMET060METAR ZSSS 161300Z 14004MPS 110V170 CAVOK 09/03 Q1028 NOSIG=
0079583670999992024011613304+31198+121336FM-15+000399999V0201401N004019999999Y009900599+00901+00301999999ADDMA1102801999999REMMET052METAR ZSSS 161330Z 14004MPS CAVOK 09/03 Q1028 NOSIG=
0079583670999992024011614004+31198+121336FM-15+000399999V0201501N004019999999Y009900599+00901+00401999999ADDMA1102801999999REMMET052METAR ZSSS 161400Z 15004MPS CAVOK 09/04 Q1028 NOSIG=
0079583670999992024011614304+31198+121336FM-15+000399999V0201401N004019999999Y009900599+00901+00401999999ADDMA1102801999999REMMET052METAR ZSSS 161430Z 14004MPS CAVOK 09/04 Q1028 NOSIG=
0079583670999992024011615004+31198+121336FM-15+000399999V0201501N003019999999Y009900599+00801+00401999999ADDMA1102801999999REMMET052METAR ZSSS 161500Z 15003MPS CAVOK 08/04 Q1028 NOSIG=
0079583670999992024011615304+31198+121336FM-15+000399999V0201401N004019999999Y009900599+00801+00401999999ADDMA1102701999999REMMET052METAR ZSSS 161530Z 14004MPS CAVOK 08/04 Q1027 NOSIG=
0079583670999992024011616004+31198+121336FM-15+000399999V0201501N004019999999Y009900599+00901+00401999999ADDMA1102701999999REMMET052METAR ZSSS 161600Z 15004MPS CAVOK 09/04 Q1027 NOSIG=
0079583670999992024011616304+31198+121336FM-15+000399999V0201401N004019999999Y009900599+00801+00401999999ADDMA1102601999999REMMET052METAR ZSSS 161630Z 14004MPS CAVOK 08/04 Q1026 NOSIG=
0079583670999992024011617004+31198+121336FM-15+000399999V0201401N004019999999Y009900599+00801+00401999999ADDMA1102601999999REMMET052METAR ZSSS 161700Z 14004MPS CAVOK 08/04 Q1026 NOSIG=
0079583670999992024011617304+31198+121336FM-15+000399999V0201501N004019999999Y009900599+00801+00401999999ADDMA1102601999999REMMET052METAR ZSSS 161730Z 15004MPS CAVOK 08/04 Q1026 NOSIG=
0079583670999992024011618004+31198+121336FM-15+000399999V0201501N005019999999Y009900599+00901+00401999999ADDMA1102601999999REMMET052METAR ZSSS 161800Z 15005MPS CAVOK 09/04 Q1026 NOSIG=
0079583670999992024011618304+31198+121336FM-15+000399999V0201501N005019999999Y009900599+00901+00401999999ADDMA1102601999999REMMET052METAR ZSSS 161830Z 15005MPS CAVOK 09/04 Q1026 NOSIG=
0079583670999992024011619004+31198+121336FM-15+000399999V0201601N002019999999Y009900599+00801+00401999999ADDMA1102601999999REMMET052METAR ZSSS 161900Z 16002MPS CAVOK 08/04 Q1026 NOSIG=
0079583670999992024011619304+31198+121336FM-15+000399999V0201501N004019999999Y009900599+00801+00401999999ADDMA1102501999999REMMET052METAR ZSSS 161930Z 15004MPS CAVOK 08/04 Q1025 NOSIG=
0079583670999992024011620004+31198+121336FM-15+000399999V0201501N004019999999Y009900599+00801+00401999999ADDMA1102501999999REMMET052METAR ZSSS 162000Z 15004MPS CAVOK 08/04 Q1025 NOSIG=
0079583670999992024011620304+31198+121336FM-15+000399999V0201501N004019999999Y009900599+00801+00501999999ADDMA1102401999999REMMET052METAR ZSSS 162030Z 15004MPS CAVOK 08/05 Q1024 NOSIG=
0079583670999992024011621004+31198+121336FM-15+000399999V0201501N005019999999Y009900599+00801+00501999999ADDMA1102401999999REMMET052METAR ZSSS 162100Z 15005MPS CAVOK 08/05 Q1024 NOSIG=
0079583670999992024011621304+31198+121336FM-15+000399999V0201601N004019999999Y009900599+00801+00501999999ADDMA1102401999999REMMET052METAR ZSSS 162130Z 16004MPS CAVOK 08/05 Q1024 NOSIG=
0079583670999992024011622004+31198+121336FM-15+000399999V0201501N003019999999Y009900599+00801+00501999999ADDMA1102401999999REMMET052METAR ZSSS 162200Z 15003MPS CAVOK 08/05 Q1024 NOSIG=
0079583670999992024011622304+31198+121336FM-15+000399999V0201601N004019999999Y009900599+00801+00501999999ADDMA1102401999999REMMET052METAR ZSSS 162230Z 16004MPS CAVOK 08/05 Q1024 NOSIG=
0079583670999992024011623004+31198+121336FM-15+000399999V0201601N003019999999Y009900599+00801+00501999999ADDMA1102401999999REMMET052METAR ZSSS 162300Z 16003MPS CAVOK 08/05 Q1024 NOSIG=
0079583670999992024011623304+31198+121336FM-15+000399999V0201501N003019999999Y009900599+00901+00601999999ADDMA1102401999999REMMET052METAR ZSSS 162330Z 15003MPS CAVOK 09/06 Q1024 NOSIG=
0079583670999992024011700004+31198+121336FM-15+000399999V0201701N002019999999Y009900599+01001+00601999999ADDMA1102401999999REMMET052METAR ZSSS 170000Z 17002MPS CAVOK 10/06 Q1024 NOSIG=
0079583670999992024011700304+31198+121336FM-15+000399999V0201801N004019999999Y009900599+01101+00601999999ADDMA1102401999999REMMET052METAR ZSSS 170030Z 18004MPS CAVOK 11/06 Q1024 NOSIG=
0079583670999992024011701004+31198+121336FM-15+000399999V0201801N004019999999Y009900599+01301+00601999999ADDMA1102401999999REMMET052METAR ZSSS 170100Z 18004MPS CAVOK 13/06 Q1024 NOSIG=
0079583670999992024011701304+31198+121336FM-15+000399999V0201801N005019999999Y009900599+01401+00601999999ADDMA1102501999999REMMET052METAR ZSSS 170130Z 18005MPS CAVOK 14/06 Q1025 NOSIG=
0079583670999992024011702004+31198+121336FM-15+000399999V0201701N006019999999Y009900599+01501+00701999999ADDMA1102401999999REMMET052METAR ZSSS 170200Z 17006MPS CAVOK 15/07 Q1024 NOSIG=
0079583670999992024011702304+31198+121336FM-15+000399999V0201801N007019999999Y009900599+01601+00701999999ADDMA1102401999999REMMET052METAR ZSSS 170230Z 18007MPS CAVOK 16/07 Q1024 NOSIG=
0087583670999992024011703004+31198+121336FM-15+000399999V0201701V006019999999Y009900599+01701+00601999999ADDMA1102301999999REMMET060METAR ZSSS 170300Z 17006MPS 140V200 CAVOK 17/06 Q1023 NOSIG=
0079583670999992024011703304+31198+121336FM-15+000399999V0201701N007019999999Y009900599+01701+00601999999ADDMA1102301999999REMMET052METAR ZSSS 170330Z 17007MPS CAVOK 17/06 Q1023 NOSIG=
0087583670999992024011704004+31198+121336FM-15+000399999V0201801V005019999999Y009900599+01801+00601999999ADDMA1102201999999REMMET060METAR ZSSS 170400Z 18005MPS 150V230 CAVOK 18/06 Q1022 NOSIG=
0087583670999992024011704304+31198+121336FM-15+000399999V0201701V006019999999Y009900599+01801+00501999999ADDMA1102201999999REMMET060METAR ZSSS 170430Z 17006MPS 140V200 CAVOK 18/05 Q1022 NOSIG=
0079583670999992024011705004+31198+121336FM-15+000399999V0201901N005019999999Y009900599+01901+00601999999ADDMA1102101999999REMMET052METAR ZSSS 170500Z 19005MPS CAVOK 19/06 Q1021 NOSIG=
0087583670999992024011705304+31198+121336FM-15+000399999V0202101V005019999999Y009900599+02001+00601999999ADDMA1102001999999REMMET060METAR ZSSS 170530Z 21005MPS 170V240 CAVOK 20/06 Q1020 NOSIG=
0079583670999992024011706004+31198+121336FM-15+000399999V0201901N005019999999Y009900599+01901+00601999999ADDMA1102001999999REMMET052METAR ZSSS 170600Z 19005MPS CAVOK 19/06 Q1020 NOSIG=
0079583670999992024011706304+31198+121336FM-15+000399999V0202101N004019999999Y009900599+01901+00501999999ADDMA1102001999999REMMET052METAR ZSSS 170630Z 21004MPS CAVOK 19/05 Q1020 NOSIG=
0087583670999992024011707004+31198+121336FM-15+000399999V0201901V004019999999Y009900599+01901+00401999999ADDMA1102001999999REMMET060METAR ZSSS 170700Z 19004MPS 160V220 CAVOK 19/04 Q1020 NOSIG=
0087583670999992024011707304+31198+121336FM-15+000399999V0201901V004019999999Y009900599+01901+00501999999ADDMA1102001999999REMMET060METAR ZSSS 170730Z 19004MPS 160V240 CAVOK 19/05 Q1020 NOSIG=
0079583670999992024011708004+31198+121336FM-15+000399999V0201801N004019999999Y009900599+01901+00501999999ADDMA1102001999999REMMET052METAR ZSSS 170800Z 18004MPS CAVOK 19/05 Q1020 NOSIG=
0087583670999992024011708304+31198+121336FM-15+000399999V0202001V004019999999Y009900599+01801+00501999999ADDMA1102001999999REMMET060METAR ZSSS 170830Z 20004MPS 160V220 CAVOK 18/05 Q1020 NOSIG=
0087583670999992024011709004+31198+121336FM-15+000399999V0202001V003019999999Y009900599+01701+00401999999ADDMA1102001999999REMMET060METAR ZSSS 170900Z 20003MPS 160V230 CAVOK 17/04 Q1020 NOSIG=
0087583670999992024011709304+31198+121336FM-15+000399999V0202001V003019999999Y009900599+01601+00401999999ADDMA1102001999999REMMET060METAR ZSSS 170930Z 20003MPS 140V230 CAVOK 16/04 Q1020 NOSIG=
0087583670999992024011710004+31198+121336FM-15+000399999V0202001V003019999999Y009900599+01701+00401999999ADDMA1102101999999REMMET060METAR ZSSS 171000Z 20003MPS 180V260 CAVOK 17/04 Q1021 NOSIG=
0079583670999992024011710304+31198+121336FM-15+000399999V0202001N002019999999Y009900599+01501+00501999999ADDMA1102101999999REMMET052METAR ZSSS 171030Z 20002MPS CAVOK 15/05 Q1021 NOSIG=
0079583670999992024011711004+31198+121336FM-15+000399999V0209999V001019999999Y009900599+01401+00401999999ADDMA1102101999999REMMET052METAR ZSSS 171100Z VRB01MPS CAVOK 14/04 Q1021 NOSIG=
0079583670999992024011711304+31198+121336FM-15+000399999V0209999V001019999999Y009900599+01301+00501999999ADDMA1102101999999REMMET052METAR ZSSS 171130Z VRB01MPS CAVOK 13/05 Q1021 NOSIG=
0079583670999992024011712004+31198+121336FM-15+000399999V0209999V001019999999Y009900599+01501+00601999999ADDMA1102201999999REMMET052METAR ZSSS 171200Z VRB01MPS CAVOK 15/06 Q1022 NOSIG=
0079583670999992024011712304+31198+121336FM-15+000399999V0209999V001019999999Y009900599+01301+00501999999ADDMA1102201999999REMMET052METAR ZSSS 171230Z VRB01MPS CAVOK 13/05 Q1022 NOSIG=
0087583670999992024011713004+31198+121336FM-15+000399999V0200201V002019999999Y009900599+01201+00501999999ADDMA1102101999999REMMET060METAR ZSSS 171300Z 02002MPS 360V060 CAVOK 12/05 Q1021 NOSIG=
0079583670999992024011713304+31198+121336FM-15+000399999V0209999V001019999999Y009900599+01301+00501999999ADDMA1102101999999REMMET052METAR ZSSS 171330Z VRB01MPS CAVOK 13/05 Q1021 NOSIG=
0079583670999992024011714004+31198+121336FM-15+000399999V0203401N004019999999Y009900599+01401+00601999999ADDMA1102201999999REMMET052METAR ZSSS 171400Z 34004MPS CAVOK 14/06 Q1022 NOSIG=
0079583670999992024011714304+31198+121336FM-15+000399999V0200101N004019999999Y009900599+01101+00601999999ADDMA1102201999999REMMET052METAR ZSSS 171430Z 01004MPS CAVOK 11/06 Q1022 NOSIG=
0079583670999992024011715004+31198+121336FM-15+000399999V0200101N004019999999Y009900599+01001+00601999999ADDMA1102201999999REMMET052METAR ZSSS 171500Z 01004MPS CAVOK 10/06 Q1022 NOSIG=
0079583670999992024011715304+31198+121336FM-15+000399999V0200401N005019999999Y009900599+01101+00601999999ADDMA1102101999999REMMET052METAR ZSSS 171530Z 04005MPS CAVOK 11/06 Q1021 NOSIG=
0079583670999992024011716004+31198+121336FM-15+000399999V0200101N005019999999Y009900599+01101+00601999999ADDMA1102201999999REMMET052METAR ZSSS 171600Z 01005MPS CAVOK 11/06 Q1022 NOSIG=
0079583670999992024011716304+31198+121336FM-15+000399999V0200101N005019999999Y009900599+01101+00601999999ADDMA1102201999999REMMET052METAR ZSSS 171630Z 01005MPS CAVOK 11/06 Q1022 NOSIG=
0079583670999992024011717004+31198+121336FM-15+000399999V0200101N004019999999Y009900599+01001+00601999999ADDMA1102201999999REMMET052METAR ZSSS 171700Z 01004MPS CAVOK 10/06 Q1022 NOSIG=
0079583670999992024011717304+31198+121336FM-15+000399999V0200201N004019999999Y009900599+01001+00601999999ADDMA1102101999999REMMET052METAR ZSSS 171730Z 02004MPS CAVOK 10/06 Q1021 NOSIG=
0079583670999992024011718004+31198+121336FM-15+000399999V0200101N005019999999Y009900599+01001+00601999999ADDMA1102201999999REMMET052METAR ZSSS 171800Z 01005MPS CAVOK 10/06 Q1022 NOSIG=
0079583670999992024011718304+31198+121336FM-15+000399999V0203601N005019999999Y009900599+00901+00601999999ADDMA1102201999999REMMET052METAR ZSSS 171830Z 36005MPS CAVOK 09/06 Q1022 NOSIG=
0079583670999992024011719004+31198+121336FM-15+000399999V0200201N005019999999Y009900599+00901+00601999999ADDMA1102201999999REMMET052METAR ZSSS 171900Z 02005MPS CAVOK 09/06 Q1022 NOSIG=
0149583670999992024011719304+31198+121336FM-15+000399999V0200101N005019999999N007000199+00901+00601999999ADDGA1021+003961999GE19AGL   +99999+99999GF199999021999003961999999MA1102201999999REMMET058METAR ZSSS 171930Z 01005MPS 7000 FEW013 09/06 Q1022 NOSIG=
0163583670999992024011720004+31198+121336FM-15+000399999V0200301N00401004571CN007000199+00901+00601999999ADDGA1071+004571999GE19AGL   +99999+99999GF199999071999004571999999MA1102101999999REMMET072METAR ZSSS 172000Z 03004MPS 7000 BKN015 09/06 Q1021 BECMG TL2030 BKN013=
0149583670999992024011720304+31198+121336FM-15+000399999V0200101N00301003661CN007000199+00901+00601999999ADDGA1071+003661999GE19AGL   +99999+99999GF199999071999003661999999MA1102201999999REMMET058METAR ZSSS 172030Z 01003MPS 7000 BKN012 09/06 Q1022 NOSIG=
0149583670999992024011721004+31198+121336FM-15+000399999V0200101N00401003661CN007000199+00901+00601999999ADDGA1071+003661999GE19AGL   +99999+99999GF199999071999003661999999MA1102201999999REMMET058METAR ZSSS 172100Z 01004MPS 7000 BKN012 09/06 Q1022 NOSIG=
0149583670999992024011721304+31198+121336FM-15+000399999V0200101N00401003661CN007000199+00901+00701999999ADDGA1071+003661999GE19AGL   +99999+99999GF199999071999003661999999MA1102301999999REMMET058METAR ZSSS 172130Z 01004MPS 7000 BKN012 09/07 Q1023 NOSIG=
0149583670999992024011722004+31198+121336FM-15+000399999V0203601N00401003661CN007000199+00901+00601999999ADDGA1071+003661999GE19AGL   +99999+99999GF199999071999003661999999MA1102301999999REMMET058METAR ZSSS 172200Z 36004MPS 7000 BKN012 09/06 Q1023 NOSIG=
0149583670999992024011722304+31198+121336FM-15+000399999V0203601N00401003661CN007000199+00901+00601999999ADDGA1071+003661999GE19AGL   +99999+99999GF199999071999003661999999MA1102301999999REMMET058METAR ZSSS 172230Z 36004MPS 7000 BKN012 09/06 Q1023 NOSIG=
0158583670999992024011723004+31198+121336FM-15+000399999V0203601N00401003661CN005000199+00901+00601999999ADDGA1071+003661999GE19AGL   +99999+99999GF199999071999003661999999MA1102301999999MW1101REMMET061METAR ZSSS 172300Z 36004MPS 5000 BR BKN012 09/06 Q1023 NOSIG=
0158583670999992024011723304+31198+121336FM-15+000399999V0200101N00401003351CN005000199+00901+00601999999ADDGA1071+003351999GE19AGL   +99999+99999GF199999071999003351999999MA1102301999999MW1101REMMET061METAR ZSSS 172330Z 01004MPS 5000 BR BKN011 09/06 Q1023 NOSIG=
0172583670999992024011800004+31198+121336FM-15+000399999V0203601N00401003351CN005000199+00901+00601999999ADDGA1071+003351999GE19AGL   +99999+99999GF199999071999003351999999MA1102301999999MW1101REMMET075METAR ZSSS 180000Z 36004MPS 5000 BR BKN011 09/06 Q1023 BECMG TL0150 BKN009=
0158583670999992024011800304+31198+121336FM-15+000399999V0200201N00401003351CN005000199+00901+00701999999ADDGA1071+003351999GE19AGL   +99999+99999GF199999071999003351999999MA1102301999999MW1101REMMET061METAR ZSSS 180030Z 02004MPS 5000 BR BKN011 09/07 Q1023 NOSIG=
0172583670999992024011801004+31198+121336FM-15+000399999V0200301N00401003051CN004000199+00901+00701999999ADDGA1071+003051999GE19AGL   +99999+99999GF199999071999003051999999MA1102301999999MW1101REMMET075METAR ZSSS 180100Z 03004MPS 4000 BR BKN010 09/07 Q1023 BECMG TL0150 BKN009=
0166583670999992024011801304+31198+121336FM-15+000399999V0200201V00301002741CN004000199+00901+00601999999ADDGA1071+002741999GE19AGL   +99999+99999GF199999071999002741999999MA1102401999999MW1101REMMET069METAR ZSSS 180130Z 02003MPS 340V080 4000 BR BKN009 09/06 Q1024 NOSIG=
0172583670999992024011802004+31198+121336FM-15+000399999V0203401N00401002741CN005000199+00901+00601999999ADDGA1071+002741999GE19AGL   +99999+99999GF199999071999002741999999MA1102501999999MW1101REMMET075METAR ZSSS 180200Z 34004MPS 5000 BR BKN009 09/06 Q1025 BECMG TL0250 BKN011=
0149583670999992024011802304+31198+121336FM-15+000399999V0203401N00401002741CN007000199+00901+00601999999ADDGA1071+002741999GE19AGL   +99999+99999GF199999071999002741999999MA1102501999999REMMET058METAR ZSSS 180230Z 34004MPS 7000 BKN009 09/06 Q1025 NOSIG=
0163583670999992024011803004+31198+121336FM-15+000399999V0203601N00301003351CN007000199+00901+00601999999ADDGA1071+003351999GE19AGL   +99999+99999GF199999071999003351999999MA1102401999999REMMET072METAR ZSSS 180300Z 36003MPS 7000 BKN011 09/06 Q1024 BECMG TL0430 BKN015=
0157583670999992024011803304+31198+121336FM-15+000399999V0200101V00301003961CN007000199+00901+00601999999ADDGA1071+003961999GE19AGL   +99999+99999GF199999071999003961999999MA1102401999999REMMET066METAR ZSSS 180330Z 01003MPS 340V040 7000 BKN013 09/06 Q1024 NOSIG=
0163583670999992024011804004+31198+121336FM-15+000399999V0203601N00401003961CN007000199+00901+00601999999ADDGA1071+003961999GE19AGL   +99999+99999GF199999071999003961999999MA1102301999999REMMET072METAR ZSSS 180400Z 36004MPS 7000 BKN013 09/06 Q1023 BECMG TL0530 BKN015=
0159583670999992024011804304+31198+121336FM-15+000399999V0200101N00401003961CN007000199+00901+00601999999ADDGA1071+003961999GE19AGL   +99999+99999GF199999071999003961999999MA1102201999999MW1611REMMET062METAR ZSSS 180430Z 01004MPS 7000 -RA BKN013 09/06 Q1022 NOSIG=
0167583670999992024011805004+31198+121336FM-15+000399999V0200101V00401003961CN007000199+00901+00701999999ADDGA1071+003961999GE19AGL   +99999+99999GF199999071999003961999999MA1102201999999MW1611REMMET070METAR ZSSS 180500Z 01004MPS 350V050 7000 -RA BKN013 09/07 Q1022 NOSIG=
0159583670999992024011805304+31198+121336FM-15+000399999V0203501N00401003961CN007000199+00901+00701999999ADDGA1071+003961999GE19AGL   +99999+99999GF199999071999003961999999MA1102201999999MW1611REMMET062METAR ZSSS 180530Z 35004MPS 7000 -RA BKN013 09/07 Q1022 NOSIG=
0159583670999992024011806004+31198+121336FM-15+000399999V0203601N00401003961CN007000199+00901+00701999999ADDGA1071+003961999GE19AGL   +99999+99999GF199999071999003961999999MA1102201999999MW1611REMMET062METAR ZSSS 180600Z 36004MPS 7000 -RA BKN013 09/07 Q1022 NOSIG=
0159583670999992024011806304+31198+121336FM-15+000399999V0203401N00401003351CN007000199+00901+00701999999ADDGA1071+003351999GE19AGL   +99999+99999GF199999071999003351999999MA1102201999999MW1611REMMET062METAR ZSSS 180630Z 34004MPS 7000 -RA BKN011 09/07 Q1022 NOSIG=
0159583670999992024011807004+31198+121336FM-15+000399999V0203601N00301003351CN007000199+00901+00701999999ADDGA1071+003351999GE19AGL   +99999+99999GF199999071999003351999999MA1102201999999MW1611REMMET062METAR ZSSS 180700Z 36003MPS 7000 -RA BKN011 09/07 Q1022 NOSIG=
0159583670999992024011807304+31198+121336FM-15+000399999V0200101N00401003351CN007000199+00901+00701999999ADDGA1071+003351999GE19AGL   +99999+99999GF199999071999003351999999MA1102201999999MW1611REMMET062METAR ZSSS 180730Z 01004MPS 7000 -RA BKN011 09/07 Q1022 NOSIG=
0173583670999992024011808004+31198+121336FM-15+000399999V0200201N00401003961CN007000199+00901+00701999999ADDGA1071+003961999GE19AGL   +99999+99999GF199999071999003961999999MA1102201999999MW1611REMMET076METAR ZSSS 180800Z 02004MPS 7000 -RA BKN013 09/07 Q1022 BECMG TL0850 BKN015=
0159583670999992024011808304+31198+121336FM-15+000399999V0203601N00501003351CN007000199+00901+00701999999ADDGA1071+003351999GE19AGL   +99999+99999GF199999071999003351999999MA1102301999999MW1611REMMET062METAR ZSSS 180830Z 36005MPS 7000 -RA BKN011 09/07 Q1023 NOSIG=
0159583670999992024011809004+31198+121336FM-15+000399999V0203601N00301003351CN007000199+00901+00701999999ADDGA1071+003351999GE19AGL   +99999+99999GF199999071999003351999999MA1102301999999MW1611REMMET062METAR ZSSS 180900Z 36003MPS 7000 -RA BKN011 09/07 Q1023 NOSIG=
0159583670999992024011809304+31198+121336FM-15+000399999V0203601N00401003051CN007000199+00801+00701999999ADDGA1071+003051999GE19AGL   +99999+99999GF199999071999003051999999MA1102301999999MW1611REMMET062METAR ZSSS 180930Z 36004MPS 7000 -RA BKN010 08/07 Q1023 NOSIG=
0173583670999992024011810004+31198+121336FM-15+000399999V0203601N00401003051CN009999199+00901+00701999999ADDGA1071+003051999GE19AGL   +99999+99999GF199999071999003051999999MA1102301999999MW1611REMMET076METAR ZSSS 181000Z 36004MPS 9999 -RA BKN010 09/07 Q1023 BECMG TL1050 BKN009=
0159583670999992024011810304+31198+121336FM-15+000399999V0203601N00401003051CN009999199+00801+00701999999ADDGA1071+003051999GE19AGL   +99999+99999GF199999071999003051999999MA1102301999999MW1611REMMET062METAR ZSSS 181030Z 36004MPS 9999 -RA BKN010 08/07 Q1023 NOSIG=
0173583670999992024011811004+31198+121336FM-15+000399999V0200101N00301002741CN009999199+00801+00701999999ADDGA1071+002741999GE19AGL   +99999+99999GF199999071999002741999999MA1102401999999MW1611REMMET076METAR ZSSS 181100Z 01003MPS 9999 -RA BKN009 08/07 Q1024 BECMG TL1230 BKN010=
0159583670999992024011811304+31198+121336FM-15+000399999V0200101N00301002741CN009999199+00901+00701999999ADDGA1071+002741999GE19AGL   +99999+99999GF199999071999002741999999MA1102401999999MW1611REMMET062METAR ZSSS 181130Z 01003MPS 9999 -RA BKN009 09/07 Q1024 NOSIG=
0167583670999992024011812004+31198+121336FM-15+000399999V0200101V00201002741CN009999199+00901+00701999999ADDGA1071+002741999GE19AGL   +99999+99999GF199999071999002741999999MA1102401999999MW1611REMMET070METAR ZSSS 181200Z 01002MPS 340V060 9999 -RA BKN009 09/07 Q1024 NOSIG=
0159583670999992024011812304+31198+121336FM-15+000399999V0200201N00201002741CN009999199+00901+00701999999ADDGA1071+002741999GE19AGL   +99999+99999GF199999071999002741999999MA1102401999999MW1611REMMET062METAR ZSSS 181230Z 02002MPS 9999 -RA BKN009 09/07 Q1024 NOSIG=
0159583670999992024011813004+31198+121336FM-15+000399999V0203601N00301002741CN009999199+00901+00801999999ADDGA1071+002741999GE19AGL   +99999+99999GF199999071999002741999999MA1102401999999MW1611REMMET062METAR ZSSS 181300Z 36003MPS 9999 -RA BKN009 09/08 Q1024 NOSIG=
0149583670999992024011813304+31198+121336FM-15+000399999V0200101N00301002441CN009999199+00901+00801999999ADDGA1071+002441999GE19AGL   +99999+99999GF199999071999002441999999MA1102401999999REMMET058METAR ZSSS 181330Z 01003MPS 9999 BKN008 09/08 Q1024 NOSIG=
0181583670999992024011814004+31198+121336FM-15+000399999V0200101V00301001831CN009999199+00901+00801999999ADDGA1071+001831999GE19AGL   +99999+99999GF199999071999001831999999MA1102401999999MW1611REMMET084METAR ZSSS 181400Z 01003MPS 340V040 9999 -RA BKN006 09/08 Q1024 BECMG TL1540 BKN004=
0159583670999992024011814304+31198+121336FM-15+000399999V0200401N00301001831CN008000199+00901+00801999999ADDGA1071+001831999GE19AGL   +99999+99999GF199999071999001831999999MA1102401999999MW1611REMMET062METAR ZSSS 181430Z 04003MPS 8000 -RA BKN006 09/08 Q1024 NOSIG=
0159583670999992024011815004+31198+121336FM-15+000399999V0200301N00301002131CN008000199+00901+00801999999ADDGA1071+002131999GE19AGL   +99999+99999GF199999071999002131999999MA1102401999999MW1611REMMET062METAR ZSSS 181500Z 03003MPS 8000 -RA BKN007 09/08 Q1024 NOSIG=
0159583670999992024011815304+31198+121336FM-15+000399999V0200401N00401002131CN009999199+00901+00801999999ADDGA1071+002131999GE19AGL   +99999+99999GF199999071999002131999999MA1102401999999MW1611REMMET062METAR ZSSS 181530Z 04004MPS 9999 -RA BKN007 09/08 Q1024 NOSIG=
0159583670999992024011816004+31198+121336FM-15+000399999V0200401N00401002131CN009999199+00901+00801999999ADDGA1071+002131999GE19AGL   +99999+99999GF199999071999002131999999MA1102401999999MW1611REMMET062METAR ZSSS 181600Z 04004MPS 9999 -RA BKN007 09/08 Q1024 NOSIG=
0149583670999992024011816304+31198+121336FM-15+000399999V0200401N00401002131CN009999199+00901+00801999999ADDGA1071+002131999GE19AGL   +99999+99999GF199999071999002131999999MA1102401999999REMMET058METAR ZSSS 181630Z 04004MPS 9999 BKN007 09/08 Q1024 NOSIG=
0159583670999992024011817004+31198+121336FM-15+000399999V0200301N00501002131CN008000199+00901+00801999999ADDGA1071+002131999GE19AGL   +99999+99999GF199999071999002131999999MA1102401999999MW1611REMMET062METAR ZSSS 181700Z 03005MPS 8000 -RA BKN007 09/08 Q1024 NOSIG=
0159583670999992024011817304+31198+121336FM-15+000399999V0200501N00401002131CN008000199+00901+00801999999ADDGA1071+002131999GE19AGL   +99999+99999GF199999071999002131999999MA1102401999999MW1611REMMET062METAR ZSSS 181730Z 05004MPS 8000 -RA BKN007 09/08 Q1024 NOSIG=
0149583670999992024011818004+31198+121336FM-15+000399999V0200401N00401002131CN008000199+00901+00701999999ADDGA1071+002131999GE19AGL   +99999+99999GF199999071999002131999999MA1102401999999REMMET058METAR ZSSS 181800Z 04004MPS 8000 BKN007 09/07 Q1024 NOSIG=
0149583670999992024011818304+31198+121336FM-15+000399999V0200401N00501001831CN008000199+00801+00701999999ADDGA1071+001831999GE19AGL   +99999+99999GF199999071999001831999999MA1102401999999REMMET058METAR ZSSS 181830Z 04005MPS 8000 BKN006 08/07 Q1024 NOSIG=
0159583670999992024011819004+31198+121336FM-15+000399999V0200401N00401001831CN008000199+00801+00701999999ADDGA1071+001831999GE19AGL   +99999+99999GF199999071999001831999999MA1102301999999MW1611REMMET062METAR ZSSS 181900Z 04004MPS 8000 -RA BKN006 08/07 Q1023 NOSIG=
0159583670999992024011819304+31198+121336FM-15+000399999V0200501N00401002131CN008000199+00801+00701999999ADDGA1071+002131999GE19AGL   +99999+99999GF199999071999002131999999MA1102301999999MW1611REMMET062METAR ZSSS 181930Z 05004MPS 8000 -RA BKN007 08/07 Q1023 NOSIG=
0159583670999992024011820004+31198+121336FM-15+000399999V0200401N00401002131CN008000199+00801+00701999999ADDGA1071+002131999GE19AGL   +99999+99999GF199999071999002131999999MA1102301999999MW1611REMMET062METAR ZSSS 182000Z 04004MPS 8000 -RA BKN007 08/07 Q1023 NOSIG=
0159583670999992024011820304+31198+121336FM-15+000399999V0200401N00401002131CN008000199+00801+00701999999ADDGA1071+002131999GE19AGL   +99999+99999GF199999071999002131999999MA1102301999999MW1611REMMET062METAR ZSSS 182030Z 04004MPS 8000 -RA BKN007 08/07 Q1023 NOSIG=
0159583670999992024011821004+31198+121336FM-15+000399999V0200301N00401002131CN008000199+00801+00701999999ADDGA1071+002131999GE19AGL   +99999+99999GF199999071999002131999999MA1102301999999MW1611REMMET062METAR ZSSS 182100Z 03004MPS 8000 -RA BKN007 08/07 Q1023 NOSIG=
0159583670999992024011821304+31198+121336FM-15+000399999V0200501N00401002131CN008000199+00801+00701999999ADDGA1071+002131999GE19AGL   +99999+99999GF199999071999002131999999MA1102401999999MW1611REMMET062METAR ZSSS 182130Z 05004MPS 8000 -RA BKN007 08/07 Q1024 NOSIG=
0173583670999992024011822004+31198+121336FM-15+000399999V0200501N00501002741CN008000199+00801+00701999999ADDGA1071+002741999GE19AGL   +99999+99999GF199999071999002741999999MA1102401999999MW1611REMMET076METAR ZSSS 182200Z 05005MPS 8000 -RA BKN009 08/07 Q1024 BECMG TL2350 BKN010=
0159583670999992024011822304+31198+121336FM-15+000399999V0200501N00501002741CN008000199+00801+00701999999ADDGA1071+002741999GE19AGL   +99999+99999GF199999071999002741999999MA1102401999999MW1611REMMET062METAR ZSSS 182230Z 05005MPS 8000 -RA BKN009 08/07 Q1024 NOSIG=
0173583670999992024011823004+31198+121336FM-15+000399999V0200401N00401002741CN008000199+00801+00701999999ADDGA1071+002741999GE19AGL   +99999+99999GF199999071999002741999999MA1102401999999MW1611REMMET076METAR ZSSS 182300Z 04004MPS 8000 -RA BKN009 08/07 Q1024 BECMG TL0050 BKN010=
0159583670999992024011823304+31198+121336FM-15+000399999V0200501N00401002741CN008000199+00801+00701999999ADDGA1071+002741999GE19AGL   +99999+99999GF199999071999002741999999MA1102401999999MW1611REMMET062METAR ZSSS 182330Z 05004MPS 8000 -RA BKN009 08/07 Q1024 NOSIG=
0173583670999992024011900004+31198+121336FM-15+000399999V0200501N00501002741CN008000199+00801+00701999999ADDGA1071+002741999GE19AGL   +99999+99999GF199999071999002741999999MA1102401999999MW1611REMMET076METAR ZSSS 190000Z 05005MPS 8000 -RA BKN009 08/07 Q1024 BECMG TL0150 BKN010=
0149583670999992024011900304+31198+121336FM-15+000399999V0200501N00401003051CN008000199+00901+00701999999ADDGA1071+003051999GE19AGL   +99999+99999GF199999071999003051999999MA1102401999999REMMET058METAR ZSSS 190030Z 05004MPS 8000 BKN010 09/07 Q1024 NOSIG=
0149583670999992024011901004+31198+121336FM-15+000399999V0200301N00501003051CN008000199+00901+00701999999ADDGA1071+003051999GE19AGL   +99999+99999GF199999071999003051999999MA1102501999999REMMET058METAR ZSSS 190100Z 03005MPS 8000 BKN010 09/07 Q1025 NOSIG=
0149583670999992024011901304+31198+121336FM-15+000399999V0200501N00501003051CN008000199+00901+00701999999ADDGA1071+003051999GE19AGL   +99999+99999GF199999071999003051999999MA1102401999999REMMET058METAR ZSSS 190130Z 05005MPS 8000 BKN010 09/07 Q1024 NOSIG=
0149583670999992024011902004+31198+121336FM-15+000399999V0200601N00401003051CN007000199+00901+00701999999ADDGA1071+003051999GE19AGL   +99999+99999GF199999071999003051999999MA1102401999999REMMET058METAR ZSSS 190200Z 06004MPS 7000 BKN010 09/07 Q1024 NOSIG=
0157583670999992024011902304+31198+121336FM-15+000399999V0200501V00301003051CN007000199+00901+00701999999ADDGA1071+003051999GE19AGL   +99999+99999GF199999071999003051999999MA1102401999999REMMET066METAR ZSSS 190230Z 05003MPS 010V090 7000 BKN010 09/07 Q1024 NOSIG=
0149583670999992024011903004+31198+121336FM-15+000399999V0200401N00401003351CN006000199+00901+00701999999ADDGA1071+003351999GE19AGL   +99999+99999GF199999071999003351999999MA1102401999999REMMET058METAR ZSSS 190300Z 04004MPS 6000 BKN011 09/07 Q1024 NOSIG=
0149583670999992024011903304+31198+121336FM-15+000399999V0200301N00501003351CN007000199+00901+00701999999ADDGA1071+003351999GE19AGL   +99999+99999GF199999071999003351999999MA1102301999999REMMET058METAR ZSSS 190330Z 03005MPS 7000 BKN011 09/07 Q1023 NOSIG=
0157583670999992024011904004+31198+121336FM-15+000399999V0200501V00401003351CN007000199+00901+00701999999ADDGA1071+003351999GE19AGL   +99999+99999GF199999071999003351999999MA1102301999999REMMET066METAR ZSSS 190400Z 05004MPS 020V090 7000 BKN011 09/07 Q1023 NOSIG=
0149583670999992024011904304+31198+121336FM-15+000399999V0200501N00501003351CN007000199+00901+00701999999ADDGA1071+003351999GE19AGL   +99999+99999GF199999071999003351999999MA1102301999999REMMET058METAR ZSSS 190430Z 05005MPS 7000 BKN011 09/07 Q1023 NOSIG=
0149583670999992024011905004+31198+121336FM-15+000399999V0200301N00501003351CN006000199+00901+00701999999ADDGA1071+003351999GE19AGL   +99999+99999GF199999071999003351999999MA1102201999999REMMET058METAR ZSSS 190500Z 03005MPS 6000 BKN011 09/07 Q1022 NOSIG=
0149583670999992024011905304+31198+121336FM-15+000399999V0200401N00501003351CN006000199+00901+00701999999ADDGA1071+003351999GE19AGL   +99999+99999GF199999071999003351999999MA1102101999999REMMET058METAR ZSSS 190530Z 04005MPS 6000 BKN011 09/07 Q1021 NOSIG=
0149583670999992024011906004+31198+121336FM-15+000399999V0200501N00501003351CN007000199+00901+00701999999ADDGA1071+003351999GE19AGL   +99999+99999GF199999071999003351999999MA1102101999999REMMET058METAR ZSSS 190600Z 05005MPS 7000 BKN011 09/07 Q1021 NOSIG=
0157583670999992024011906304+31198+121336FM-15+000399999V0200401V00501003351CN007000199+00901+00701999999ADDGA1071+003351999GE19AGL   +99999+99999GF199999071999003351999999MA1102101999999REMMET066METAR ZSSS 190630Z 04005MPS 020V080 7000 BKN011 09/07 Q1021 NOSIG=
0149583670999992024011907004+31198+121336FM-15+000399999V0200401N00501003351CN007000199+00901+00701999999ADDGA1071+003351999GE19AGL   +99999+99999GF199999071999003351999999MA1102101999999REMMET058METAR ZSSS 190700Z 04005MPS 7000 BKN011 09/07 Q1021 NOSIG=
0149583670999992024011907304+31198+121336FM-15+000399999V0200401N00501003351CN007000199+00901+00701999999ADDGA1071+003351999GE19AGL   +99999+99999GF199999071999003351999999MA1102101999999REMMET058METAR ZSSS 190730Z 04005MPS 7000 BKN011 09/07 Q1021 NOSIG=
0167583670999992024011908004+31198+121336FM-15+000399999V0200501V00501003351CN006000199+00901+00701999999ADDGA1071+003351999GE19AGL   +99999+99999GF199999071999003351999999MA1102101999999MW1611REMMET070METAR ZSSS 190800Z 05005MPS 030V090 6000 -RA BKN011 09/07 Q1021 NOSIG=
0159583670999992024011908304+31198+121336FM-15+000399999V0200301N00601003351CN007000199+00901+00701999999ADDGA1071+003351999GE19AGL   +99999+99999GF199999071999003351999999MA1102101999999MW1611REMMET062METAR ZSSS 190830Z 03006MPS 7000 -RA BKN011 09/07 Q1021 NOSIG=
0149583670999992024011909004+31198+121336FM-15+000399999V0200301N00501003351CN006000199+00901+00601999999ADDGA1071+003351999GE19AGL   +99999+99999GF199999071999003351999999MA1102201999999REMMET058METAR ZSSS 190900Z 03005MPS 6000 BKN011 09/06 Q1022 NOSIG=
0149583670999992024011909304+31198+121336FM-15+000399999V0200201N00501003351CN007000199+00801+00601999999ADDGA1071+003351999GE19AGL   +99999+99999GF199999071999003351999999MA1102201999999REMMET058METAR ZSSS 190930Z 02005MPS 7000 BKN011 08/06 Q1022 NOSIG=
0149583670999992024011910004+31198+121336FM-15+000399999V0200301N00401003351CN008000199+00801+00601999999ADDGA1071+003351999GE19AGL   +99999+99999GF199999071999003351999999MA1102201999999REMMET058METAR ZSSS 191000Z 03004MPS 8000 BKN011 08/06 Q1022 NOSIG=
0149583670999992024011910304+31198+121336FM-15+000399999V0200101N00501003351CN008000199+00801+00601999999ADDGA1071+003351999GE19AGL   +99999+99999GF199999071999003351999999MA1102301999999REMMET058METAR ZSSS 191030Z 01005MPS 8000 BKN011 08/06 Q1023 NOSIG=
0173583670999992024011911004+31198+121336FM-15+000399999V0203601N00601003351CN006000199+00701+00601999999ADDGA1071+003351999GE19AGL   +99999+99999GF199999071999003351999999MA1102301999999MW1611REMMET076METAR ZSSS 191100Z 36006MPS 6000 -RA BKN011 07/06 Q1023 BECMG TL1150 BKN009=
0159583670999992024011911304+31198+121336FM-15+000399999V0203601N00501002741CN006000199+00701+00601999999ADDGA1071+002741999GE19AGL   +99999+99999GF199999071999002741999999MA1102301999999MW1611REMMET062METAR ZSSS 191130Z 36005MPS 6000 -RA BKN009 07/06 Q1023 NOSIG=
0178583670999992024011912004+31198+121336FM-15+000399999V0203601N00501002131CN005000199+00701+00601999999ADDGA1071+002131999GE19AGL   +99999+99999GF199999071999002131999999MA1102301999999MW1101MW2631REMMET075METAR ZSSS 191200Z 36005MPS 5000 RA BR BKN007 07/06 Q1023 BECMG TL1250 -RA=
0164583670999992024011912304+31198+121336FM-15+000399999V0200201N00401002131CN007000199+00701+00601999999ADDGA1071+002131999GE19AGL   +99999+99999GF199999071999002131999999MA1102301999999MW1611REMMET067METAR ZSSS 191230Z 02004MPS 7000 -RA BKN007 07/06 Q1023 RERA NOSIG=
0167583670999992024011913004+31198+121336FM-15+000399999V0200201V00501002131CN007000199+00701+00601999999ADDGA1071+002131999GE19AGL   +99999+99999GF199999071999002131999999MA1102301999999MW1611REMMET070METAR ZSSS 191300Z 02005MPS 350V050 7000 -RA BKN007 07/06 Q1023 NOSIG=
0159583670999992024011913304+31198+121336FM-15+000399999V0203601N00501002131CN007000199+00701+00601999999ADDGA1071+002131999GE19AGL   +99999+99999GF199999071999002131999999MA1102301999999MW1611REMMET062METAR ZSSS 191330Z 36005MPS 7000 -RA BKN007 07/06 Q1023 NOSIG=
0159583670999992024011914004+31198+121336FM-15+000399999V0200101N00501002131CN008000199+00701+00601999999ADDGA1071+002131999GE19AGL   +99999+99999GF199999071999002131999999MA1102301999999MW1611REMMET062METAR ZSSS 191400Z 01005MPS 8000 -RA BKN007 07/06 Q1023 NOSIG=
0159583670999992024011914304+31198+121336FM-15+000399999V0203601N00501002131CN008000199+00701+00601999999ADDGA1071+002131999GE19AGL   +99999+99999GF199999071999002131999999MA1102301999999MW1611REMMET062METAR ZSSS 191430Z 36005MPS 8000 -RA BKN007 07/06 Q1023 NOSIG=
0169583670999992024011915004+31198+121336FM-15+000399999V0203401N00501002131CN007000199+00701+00601999999ADDGA1071+002131999GE19AGL   +99999+99999GF199999071999002131999999MA1102301999999MW1631REMMET072METAR ZSSS 191500Z 34005MPS 7000 RA BKN007 07/06 Q1023 BECMG TL1540 -RA=
0158583670999992024011915304+31198+121336FM-15+000399999V0203401N00401002131CN007000199+00701+00601999999ADDGA1071+002131999GE19AGL   +99999+99999GF199999071999002131999999MA1102301999999MW1631REMMET061METAR ZSSS 191530Z 34004MPS 7000 RA BKN007 07/06 Q1023 NOSIG=
0169583670999992024011916004+31198+121336FM-15+000399999V0203501N00401002131CN007000199+00701+00601999999ADDGA1071+002131999GE19AGL   +99999+99999GF199999071999002131999999MA1102301999999MW1631REMMET072METAR ZSSS 191600Z 35004MPS 7000 RA BKN007 07/06 Q1023 BECMG TL1650 -RA=
0164583670999992024011916304+31198+121336FM-15+000399999V0203601N00401002131CN007000199+00701+00601999999ADDGA1071+002131999GE19AGL   +99999+99999GF199999071999002131999999MA1102201999999MW1611REMMET067METAR ZSSS 191630Z 36004MPS 7000 -RA BKN007 07/06 Q1022 RERA NOSIG=
0159583670999992024011917004+31198+121336FM-15+000399999V0203601N00501002441CN009999199+00701+00601999999ADDGA1071+002441999GE19AGL   +99999+99999GF199999071999002441999999MA1102201999999MW1611REMMET062METAR ZSSS 191700Z 36005MPS 9999 -RA BKN008 07/06 Q1022 NOSIG=
0159583670999992024011917304+31198+121336FM-15+000399999V0203301N00401002441CN009999199+00701+00601999999ADDGA1071+002441999GE19AGL   +99999+99999GF199999071999002441999999MA1102201999999MW1611REMMET062METAR ZSSS 191730Z 33004MPS 9999 -RA BKN008 07/06 Q1022 NOSIG=
0159583670999992024011918004+31198+121336FM-15+000399999V0203401N00501002441CN009999199+00701+00601999999ADDGA1071+002441999GE19AGL   +99999+99999GF199999071999002441999999MA1102201999999MW1611REMMET062METAR ZSSS 191800Z 34005MPS 9999 -RA BKN008 07/06 Q1022 NOSIG=
0159583670999992024011918304+31198+121336FM-15+000399999V0203301N00401002441CN009999199+00701+00601999999ADDGA1071+002441999GE19AGL   +99999+99999GF199999071999002441999999MA1102201999999MW1611REMMET062METAR ZSSS 191830Z 33004MPS 9999 -RA BKN008 07/06 Q1022 NOSIG=
0159583670999992024011919004+31198+121336FM-15+000399999V0203301N00501002441CN009999199+00701+00601999999ADDGA1071+002441999GE19AGL   +99999+99999GF199999071999002441999999MA1102201999999MW1611REMMET062METAR ZSSS 191900Z 33005MPS 9999 -RA BKN008 07/06 Q1022 NOSIG=
0159583670999992024011919304+31198+121336FM-15+000399999V0203401N00401002131CN008000199+00701+00601999999ADDGA1071+002131999GE19AGL   +99999+99999GF199999071999002131999999MA1102201999999MW1611REMMET062METAR ZSSS 191930Z 34004MPS 8000 -RA BKN007 07/06 Q1022 NOSIG=
0169583670999992024011920004+31198+121336FM-15+000399999V0203101N00301001831CN007000199+00601+00601999999ADDGA1071+001831999GE19AGL   +99999+99999GF199999071999001831999999MA1102101999999MW1631REMMET072METAR ZSSS 192000Z 31003MPS 7000 RA BKN006 06/06 Q1021 BECMG TL2040 -RA=
0164583670999992024011920304+31198+121336FM-15+000399999V0203401N00601001831CN008000199+00601+00501999999ADDGA1071+001831999GE19AGL   +99999+99999GF199999071999001831999999MA1102101999999MW1611REMMET067METAR ZSSS 192030Z 34006MPS 8000 -RA BKN006 06/05 Q1021 RERA NOSIG=
0159583670999992024011921004+31198+121336FM-15+000399999V0203301N00501002441CN009999199+00601+00501999999ADDGA1071+002441999GE19AGL   +99999+99999GF199999071999002441999999MA1102201999999MW1611REMMET062METAR ZSSS 192100Z 33005MPS 9999 -RA BKN008 06/05 Q1022 NOSIG=
0159583670999992024011921304+31198+121336FM-15+000399999V0203201N00501002441CN008000199+00601+00501999999ADDGA1071+002441999GE19AGL   +99999+99999GF199999071999002441999999MA1102201999999MW1611REMMET062METAR ZSSS 192130Z 32005MPS 8000 -RA BKN008 06/05 Q1022 NOSIG=
0167583670999992024011922004+31198+121336FM-15+000399999V0203201V00501002131CN007000199+00601+00501999999ADDGA1071+002131999GE19AGL   +99999+99999GF199999071999002131999999MA1102201999999MW1611REMMET070METAR ZSSS 192200Z 32005MPS 270V350 7000 -RA BKN007 06/05 Q1022 NOSIG=
0159583670999992024011922304+31198+121336FM-15+000399999V0203101N00501002131CN007000199+00601+00501999999ADDGA1071+002131999GE19AGL   +99999+99999GF199999071999002131999999MA1102301999999MW1611REMMET062METAR ZSSS 192230Z 31005MPS 7000 -RA BKN007 06/05 Q1023 NOSIG=
0159583670999992024011923004+31198+121336FM-15+000399999V0203201N00501002131CN007000199+00601+00501999999ADDGA1071+002131999GE19AGL   +99999+99999GF199999071999002131999999MA1102201999999MW1611REMMET062METAR ZSSS 192300Z 32005MPS 7000 -RA BKN007 06/05 Q1022 NOSIG=
0159583670999992024011923304+31198+121336FM-15+000399999V0203201N00601002131CN008000199+00601+00501999999ADDGA1071+002131999GE19AGL   +99999+99999GF199999071999002131999999MA1102301999999MW1611REMMET062METAR ZSSS 192330Z 32006MPS 8000 -RA BKN007 06/05 Q1023 NOSIG=
0173583670999992024012000004+31198+121336FM-15+000399999V0203301N00501002741CN008000199+00601+00401999999ADDGA1071+002741999GE19AGL   +99999+99999GF199999071999002741999999MA1102301999999MW1611REMMET076METAR ZSSS 200000Z 33005MPS 8000 -RA BKN009 06/04 Q1023 BECMG TL0130 BKN010=
0149583670999992024012000304+31198+121336FM-15+000399999V0203201N00501002741CN008000199+00601+00401999999ADDGA1071+002741999GE19AGL   +99999+99999GF199999071999002741999999MA1102401999999REMMET058METAR ZSSS 200030Z 32005MPS 8000 BKN009 06/04 Q1024 NOSIG=
0163583670999992024012001004+31198+121336FM-15+000399999V0203301N00501002741CN008000199+00601+00401999999ADDGA1071+002741999GE19AGL   +99999+99999GF199999071999002741999999MA1102401999999REMMET072METAR ZSSS 200100Z 33005MPS 8000 BKN009 06/04 Q1024 BECMG TL0250 BKN010=
0149583670999992024012001304+31198+121336FM-15+000399999V0203401N00501002741CN006000199+00601+00401999999ADDGA1071+002741999GE19AGL   +99999+99999GF199999071999002741999999MA1102401999999REMMET058METAR ZSSS 200130Z 34005MPS 6000 BKN009 06/04 Q1024 NOSIG=
0163583670999992024012002004+31198+121336FM-15+000399999V0203101N00601002741CN006000199+00601+00401999999ADDGA1071+002741999GE19AGL   +99999+99999GF199999071999002741999999MA1102401999999REMMET072METAR ZSSS 200200Z 31006MPS 6000 BKN009 06/04 Q1024 BECMG TL0330 BKN011=
0157583670999992024012002304+31198+121336FM-15+000399999V0203201V00601002741CN006000199+00601+00401999999ADDGA1071+002741999GE19AGL   +99999+99999GF199999071999002741999999MA1102401999999REMMET066METAR ZSSS 200230Z 32006MPS 280V340 6000 BKN009 06/04 Q1024 NOSIG=
0163583670999992024012003004+31198+121336FM-15+000399999V0203201N00501002741CN006000199+00601+00401999999ADDGA1071+002741999GE19AGL   +99999+99999GF199999071999002741999999MA1102401999999REMMET072METAR ZSSS 200300Z 32005MPS 6000 BKN009 06/04 Q1024 BECMG TL0430 BKN011=
0149583670999992024012003304+31198+121336FM-15+000399999V0203101N00601002741CN006000199+00601+00401999999ADDGA1071+002741999GE19AGL   +99999+99999GF199999071999002741999999MA1102401999999REMMET058METAR ZSSS 200330Z 31006MPS 6000 BKN009 06/04 Q1024 NOSIG=
0173583670999992024012004004+31198+121336FM-15+000399999V0203101N00501002741CN006000199+00601+00401999999ADDGA1071+002741999GE19AGL   +99999+99999GF199999071999002741999999MA1102301999999MW1611REMMET076METAR ZSSS 200400Z 31005MPS 6000 -RA BKN009 06/04 Q1023 BECMG TL0500 BKN010=
0167583670999992024012004304+31198+121336FM-15+000399999V0203001V00601002741CN006000199+00501+00401999999ADDGA1071+002741999GE19AGL   +99999+99999GF199999071999002741999999MA1102301999999MW1611REMMET070METAR ZSSS 200430Z 30006MPS 270V330 6000 -RA BKN009 05/04 Q1023 NOSIG=
0181583670999992024012005004+31198+121336FM-15+000399999V0203101V00601002741CN006000199+00501+00301999999ADDGA1071+002741999GE19AGL   +99999+99999GF199999071999002741999999MA1102301999999MW1611REMMET084METAR ZSSS 200500Z 31006MPS 270V340 6000 -RA BKN009 05/03 Q1023 BECMG TL0630 BKN010=
0149583670999992024012005304+31198+121336FM-15+000399999V0203101N00701003051CN006000199+00501+00301999999ADDGA1071+003051999GE19AGL   +99999+99999GF199999071999003051999999MA1102301999999REMMET058METAR ZSSS 200530Z 31007MPS 6000 BKN010 05/03 Q1023 NOSIG=
0149583670999992024012006004+31198+121336FM-15+000399999V0203001N00701003051CN007000199+00601+00301999999ADDGA1071+003051999GE19AGL   +99999+99999GF199999071999003051999999MA1102301999999REMMET058METAR ZSSS 200600Z 30007MPS 7000 BKN010 06/03 Q1023 NOSIG=
0149583670999992024012006304+31198+121336FM-15+000399999V0203001N00701003051CN006000199+00501+00301999999ADDGA1071+003051999GE19AGL   +99999+99999GF199999071999003051999999MA1102301999999REMMET058METAR ZSSS 200630Z 30007MPS 6000 BKN010 05/03 Q1023 NOSIG=
0149583670999992024012007004+31198+121336FM-15+000399999V0203001N00601003051CN006000199+00501+00301999999ADDGA1071+003051999GE19AGL   +99999+99999GF199999071999003051999999MA1102301999999REMMET058METAR ZSSS 200700Z 30006MPS 6000 BKN010 05/03 Q1023 NOSIG=
0176583670999992024012007304+31198+121336FM-15+000399999V0203101V00601003051CN003500199+00501+00301999999ADDGA1071+003051999GE19AGL   +99999+99999GF199999071999003051999999MA1102301999999MW1101MW2611REMMET073METAR ZSSS 200730Z 31006MPS 280V340 3500 -RA BR BKN010 05/03 Q1023 NOSIG=
0182583670999992024012008004+31198+121336FM-15+000399999V0203001N00601003051CN003500199+00501+00301999999ADDGA1071+003051999GE19AGL   +99999+99999GF199999071999003051999999MA1102301999999MW1101MW2611REMMET079METAR ZSSS 200800Z 30006MPS 3500 -RA BR BKN010 05/03 Q1023 BECMG TL0830 BKN008=
0176583670999992024012008304+31198+121336FM-15+000399999V0203201V00501002131CN002500199+00501+00401999999ADDGA1071+002131999GE19AGL   +99999+99999GF199999071999002131999999MA1102401999999MW1101MW2611REMMET073METAR ZSSS 200830Z 32005MPS 290V350 2500 -RA BR BKN007 05/04 Q1024 NOSIG=
0195583670999992024012009004+31198+121336FM-15+000399999V0203201V00601002131CN002500199+00501+00301999999ADDGA1071+002131999GE19AGL   +99999+99999GF199999071999002131999999MA1102401999999MW1101MW2611REMMET092METAR ZSSS 200900Z 32006MPS 290V350 2500 -RA BR BKN007 05/03 Q1024 BECMG TL1040 3000 BKN011=
0168583670999992024012009304+31198+121336FM-15+000399999V0203201N00501002441CN003500199+00501+00301999999ADDGA1071+002441999GE19AGL   +99999+99999GF199999071999002441999999MA1102401999999MW1101MW2611REMMET065METAR ZSSS 200930Z 32005MPS 3500 -RA BR BKN008 05/03 Q1024 NOSIG=
0168583670999992024012010004+31198+121336FM-15+000399999V0203101N00501002441CN003500199+00501+00401999999ADDGA1071+002441999GE19AGL   +99999+99999GF199999071999002441999999MA1102401999999MW1101MW2611REMMET065METAR ZSSS 201000Z 31005MPS 3500 -RA BR BKN008 05/04 Q1024 NOSIG=
0166583670999992024012010304+31198+121336FM-15+000399999V0203201V00501002441CN005000199+00501+00401999999ADDGA1071+002441999GE19AGL   +99999+99999GF199999071999002441999999MA1102501999999MW1101REMMET069METAR ZSSS 201030Z 32005MPS 290V350 5000 BR BKN008 05/04 Q1025 NOSIG=
0180583670999992024012011004+31198+121336FM-15+000399999V0203201V00501002441CN005000199+00501+00401999999ADDGA1071+002441999GE19AGL   +99999+99999GF199999071999002441999999MA1102501999999MW1101REMMET083METAR ZSSS 201100Z 32005MPS 280V340 5000 BR BKN008 05/04 Q1025 BECMG TL1250 BKN011=
0158583670999992024012011304+31198+121336FM-15+000399999V0203301N00701002741CN005000199+00501+00301999999ADDGA1071+002741999GE19AGL   +99999+99999GF199999071999002741999999MA1102501999999MW1101REMMET061METAR ZSSS 201130Z 33007MPS 5000 BR BKN009 05/03 Q1025 NOSIG=
0163583670999992024012012004+31198+121336FM-15+000399999V0203301N00601002741CN006000199+00501+00301999999ADDGA1071+002741999GE19AGL   +99999+99999GF199999071999002741999999MA1102601999999REMMET072METAR ZSSS 201200Z 33006MPS 6000 BKN009 05/03 Q1026 BECMG TL1330 BKN011=
0149583670999992024012012304+31198+121336FM-15+000399999V0203201N00701003051CN006000199+00501+00301999999ADDGA1071+003051999GE19AGL   +99999+99999GF199999071999003051999999MA1102601999999REMMET058METAR ZSSS 201230Z 32007MPS 6000 BKN010 05/03 Q1026 NOSIG=
0163583670999992024012013004+31198+121336FM-15+000399999V0203301N00601003051CN008000199+00501+00301999999ADDGA1071+003051999GE19AGL   +99999+99999GF199999071999003051999999MA1102601999999REMMET072METAR ZSSS 201300Z 33006MPS 8000 BKN010 05/03 Q1026 BECMG TL1350 BKN009=
0157583670999992024012013304+31198+121336FM-15+000399999V0203301V00701002741CN008000199+00501+00301999999ADDGA1071+002741999GE19AGL   +99999+99999GF199999071999002741999999MA1102601999999REMMET066METAR ZSSS 201330Z 33007MPS 290V350 8000 BKN009 05/03 Q1026 NOSIG=
0163583670999992024012014004+31198+121336FM-15+000399999V0203301N00701002741CN006000199+00401+00301999999ADDGA1071+002741999GE19AGL   +99999+99999GF199999071999002741999999MA1102601999999REMMET072METAR ZSSS 201400Z 33007MPS 6000 BKN009 04/03 Q1026 BECMG TL1540 BKN010=
0157583670999992024012014304+31198+121336FM-15+000399999V0203301V00601002441CN006000199+00501+00301999999ADDGA1071+002441999GE19AGL   +99999+99999GF199999071999002441999999MA1102601999999REMMET066METAR ZSSS 201430Z 33006MPS 290V350 6000 BKN008 05/03 Q1026 NOSIG=
0157583670999992024012015004+31198+121336FM-15+000399999V0203301V00601002441CN006000199+00401+00301999999ADDGA1071+002441999GE19AGL   +99999+99999GF199999071999002441999999MA1102701999999REMMET066METAR ZSSS 201500Z 33006MPS 300V360 6000 BKN008 04/03 Q1027 NOSIG=
0149583670999992024012015304+31198+121336FM-15+000399999V0203301N00701002441CN006000199+00401+00301999999ADDGA1071+002441999GE19AGL   +99999+99999GF199999071999002441999999MA1102701999999REMMET058METAR ZSSS 201530Z 33007MPS 6000 BKN008 04/03 Q1027 NOSIG=
0149583670999992024012016004+31198+121336FM-15+000399999V0203301N00601002131CN006000199+00401+00301999999ADDGA1071+002131999GE19AGL   +99999+99999GF199999071999002131999999MA1102701999999REMMET058METAR ZSSS 201600Z 33006MPS 6000 BKN007 04/03 Q1027 NOSIG=
0149583670999992024012016304+31198+121336FM-15+000399999V0203301N00501002131CN006000199+00401+00301999999ADDGA1071+002131999GE19AGL   +99999+99999GF199999071999002131999999MA1102701999999REMMET058METAR ZSSS 201630Z 33005MPS 6000 BKN007 04/03 Q1027 NOSIG=
0149583670999992024012017004+31198+121336FM-15+000399999V0203201N00501002131CN006000199+00401+00301999999ADDGA1071+002131999GE19AGL   +99999+99999GF199999071999002131999999MA1102801999999REMMET058METAR ZSSS 201700Z 32005MPS 6000 BKN007 04/03 Q1028 NOSIG=
0157583670999992024012017304+31198+121336FM-15+000399999V0203201V00501002131CN006000199+00401+00301999999ADDGA1071+002131999GE19AGL   +99999+99999GF199999071999002131999999MA1102801999999REMMET066METAR ZSSS 201730Z 32005MPS 290V350 6000 BKN007 04/03 Q1028 NOSIG=
0149583670999992024012018004+31198+121336FM-15+000399999V0203301N00401002131CN006000199+00401+00301999999ADDGA1071+002131999GE19AGL   +99999+99999GF199999071999002131999999MA1102801999999REMMET058METAR ZSSS 201800Z 33004MPS 6000 BKN007 04/03 Q1028 NOSIG=
0158583670999992024012018304+31198+121336FM-15+000399999V0203301N00501002131CN004000199+00401+00301999999ADDGA1071+002131999GE19AGL   +99999+99999GF199999071999002131999999MA1102801999999MW1101REMMET061METAR ZSSS 201830Z 33005MPS 4000 BR BKN007 04/03 Q1028 NOSIG=
0168583670999992024012019004+31198+121336FM-15+000399999V0203201N00501001831CN003500199+00401+00301999999ADDGA1071+001831999GE19AGL   +99999+99999GF199999071999001831999999MA1102701999999MW1101MW2611REMMET065METAR ZSSS 201900Z 32005MPS 3500 -RA BR BKN006 04/03 Q1027 NOSIG=
0168583670999992024012019304+31198+121336FM-15+000399999V0203201N00401001521CN003000199+00401+00301999999ADDGA1071+001521999GE19AGL   +99999+99999GF199999071999001521999999MA1102701999999MW1101MW2611REMMET065METAR ZSSS 201930Z 32004MPS 3000 -RA BR BKN005 04/03 Q1027 NOSIG=
0188583670999992024012020004+31198+121336FM-15+000399999V0203101V00401001521CN003000199+00401+00301999999ADDGA1071+001521999GE19AGL   +99999+99999GF199999071999001521999999MA1102701999999MW1101MW2611REMMET085METAR ZSSS 202000Z 31004MPS 280V350 3000 -RA BR BKN005 04/03 Q1027 BECMG TL2130 2800=
0168583670999992024012020304+31198+121336FM-15+000399999V0203301N00501001521CN002700199+00401+00301999999ADDGA1071+001521999GE19AGL   +99999+99999GF199999071999001521999999MA1102701999999MW1101MW2611REMMET065METAR ZSSS 202030Z 33005MPS 2700 -RA BR BKN005 04/03 Q1027 NOSIG=
0188583670999992024012021004+31198+121336FM-15+000399999V0203301V00501001521CN002700199+00401+00301999999ADDGA1071+001521999GE19AGL   +99999+99999GF199999071999001521999999MA1102801999999MW1101MW2611REMMET085METAR ZSSS 202100Z 33005MPS 300V360 2700 -RA BR BKN005 04/03 Q1028 BECMG TL2130 3500=
0176583670999992024012021304+31198+121336FM-15+000399999V0203201V00501001521CN003000199+00401+00301999999ADDGA1071+001521999GE19AGL   +99999+99999GF199999071999001521999999MA1102801999999MW1101MW2611REMMET073METAR ZSSS 202130Z 32005MPS 290V350 3000 -RA BR BKN005 04/03 Q1028 NOSIG=
0168583670999992024012022004+31198+121336FM-15+000399999V0203201N00501001521CN003000199+00401+00301999999ADDGA1071+001521999GE19AGL   +99999+99999GF199999071999001521999999MA1102901999999MW1101MW2611REMMET065METAR ZSSS 202200Z 32005MPS 3000 -RA BR BKN005 04/03 Q1029 NOSIG=
0168583670999992024012022304+31198+121336FM-15+000399999V0203301N00501001521CN003500199+00401+00301999999ADDGA1071+001521999GE19AGL   +99999+99999GF199999071999001521999999MA1102901999999MW1101MW2611REMMET065METAR ZSSS 202230Z 33005MPS 3500 -RA BR BKN005 04/03 Q1029 NOSIG=
0168583670999992024012023004+31198+121336FM-15+000399999V0203301N00501001831CN003000199+00501+00401999999ADDGA1071+001831999GE19AGL   +99999+99999GF199999071999001831999999MA1102901999999MW1101MW2611REMMET065METAR ZSSS 202300Z 33005MPS 3000 -RA BR BKN006 05/04 Q1029 NOSIG=
0168583670999992024012023304+31198+121336FM-15+000399999V0203401N00501001831CN003000199+00501+00301999999ADDGA1071+001831999GE19AGL   +99999+99999GF199999071999001831999999MA1103001999999MW1101MW2611REMMET065METAR ZSSS 202330Z 34005MPS 3000 -RA BR BKN006 05/03 Q1030 NOSIG=
0176583670999992024012100004+31198+121336FM-15+000399999V0203201V00501002131CN003000199+00501+00401999999ADDGA1071+002131999GE19AGL   +99999+99999GF199999071999002131999999MA1103001999999MW1101MW2611REMMET073METAR ZSSS 210000Z 32005MPS 290V350 3000 -RA BR BKN007 05/04 Q1030 NOSIG=
0176583670999992024012100304+31198+121336FM-15+000399999V0203401V00401002131CN003000199+00501+00301999999ADDGA1071+002131999GE19AGL   +99999+99999GF199999071999002131999999MA1103001999999MW1101MW2611REMMET073METAR ZSSS 210030Z 34004MPS 300V360 3000 -RA BR BKN007 05/03 Q1030 NOSIG=
0180583670999992024012101004+31198+121336FM-15+000399999V0203301N00601002131CN003000199+00501+00301999999ADDGA1071+002131999GE19AGL   +99999+99999GF199999071999002131999999MA1103101999999MW1101MW2611REMMET077METAR ZSSS 210100Z 33006MPS 3000 -RA BR BKN007 05/03 Q1031 BECMG TL0130 2800=
0176583670999992024012101304+31198+121336FM-15+000399999V0203301V00501001831CN002500199+00501+00401999999ADDGA1071+001831999GE19AGL   +99999+99999GF199999071999001831999999MA1103101999999MW1101MW2611REMMET073METAR ZSSS 210130Z 33005MPS 300V360 2500 -RA BR BKN006 05/04 Q1031 NOSIG=
0180583670999992024012102004+31198+121336FM-15+000399999V0203301N00501001831CN002500199+00501+00401999999ADDGA1071+001831999GE19AGL   +99999+99999GF199999071999001831999999MA1103101999999MW1101MW2611REMMET077METAR ZSSS 210200Z 33005MPS 2500 -RA BR BKN006 05/04 Q1031 BECMG TL0330 3000=
0168583670999992024012102304+31198+121336FM-15+000399999V0203301N00501001831CN003000199+00501+00401999999ADDGA1071+001831999GE19AGL   +99999+99999GF199999071999001831999999MA1103101999999MW1101MW2611REMMET065METAR ZSSS 210230Z 33005MPS 3000 -RA BR BKN006 05/04 Q1031 NOSIG=
0168583670999992024012103004+31198+121336FM-15+000399999V0203401N00501002131CN004000199+00501+00301999999ADDGA1071+002131999GE19AGL   +99999+99999GF199999071999002131999999MA1103101999999MW1101MW2611REMMET065METAR ZSSS 210300Z 34005MPS 4000 -RA BR BKN007 05/03 Q1031 NOSIG=
0158583670999992024012103304+31198+121336FM-15+000399999V0203401N00601002441CN004000199+00501+00301999999ADDGA1071+002441999GE19AGL   +99999+99999GF199999071999002441999999MA1103101999999MW1101REMMET061METAR ZSSS 210330Z 34006MPS 4000 BR BKN008 05/03 Q1031 NOSIG=
0168583670999992024012104004+31198+121336FM-15+000399999V0203401N00601002441CN004000199+00501+00301999999ADDGA1071+002441999GE19AGL   +99999+99999GF199999071999002441999999MA1103001999999MW1101MW2611REMMET065METAR ZSSS 210400Z 34006MPS 4000 -RA BR BKN008 05/03 Q1030 NOSIG=
0168583670999992024012104304+31198+121336FM-15+000399999V0203401N00601002441CN004000199+00501+00301999999ADDGA1071+002441999GE19AGL   +99999+99999GF199999071999002441999999MA1103001999999MW1101MW2611REMMET065METAR ZSSS 210430Z 34006MPS 4000 -RA BR BKN008 05/03 Q1030 NOSIG=
0168583670999992024012105004+31198+121336FM-15+000399999V0203401N00701002441CN004000199+00401+00301999999ADDGA1071+002441999GE19AGL   +99999+99999GF199999071999002441999999MA1103001999999MW1101MW2611REMMET065METAR ZSSS 210500Z 34007MPS 4000 -RA BR BKN008 04/03 Q1030 NOSIG=
0168583670999992024012105304+31198+121336FM-15+000399999V0203401N00701002441CN004000199+00401+00301999999ADDGA1071+002441999GE19AGL   +99999+99999GF199999071999002441999999MA1103001999999MW1101MW2611REMMET065METAR ZSSS 210530Z 34007MPS 4000 -RA BR BKN008 04/03 Q1030 NOSIG=
0182583670999992024012106004+31198+121336FM-15+000399999V0203401N00701002741CN004000199+00401+00301999999ADDGA1071+002741999GE19AGL   +99999+99999GF199999071999002741999999MA1103001999999MW1101MW2611REMMET079METAR ZSSS 210600Z 34007MPS 4000 -RA BR BKN009 04/03 Q1030 BECMG TL0730 BKN010=
0168583670999992024012106304+31198+121336FM-15+000399999V0203501N00801002741CN004000199+00401+00301999999ADDGA1071+002741999GE19AGL   +99999+99999GF199999071999002741999999MA1103001999999MW1101MW2611REMMET065METAR ZSSS 210630Z 35008MPS 4000 -RA BR BKN009 04/03 Q1030 NOSIG=
0158583670999992024012107004+31198+121336FM-15+000399999V0203501N00901002741CN004000199+00401+00201999999ADDGA1071+002741999GE19AGL   +99999+99999GF199999071999002741999999MA1103001999999MW1101REMMET061METAR ZSSS 210700Z 35009MPS 4000 BR BKN009 04/02 Q1030 NOSIG=
0158583670999992024012107304+31198+121336FM-15+000399999V0203501N00901003051CN005000199+00401+00201999999ADDGA1071+003051999GE19AGL   +99999+99999GF199999071999003051999999MA1103101999999MW1101REMMET061METAR ZSSS 210730Z 35009MPS 5000 BR BKN010 04/02 Q1031 NOSIG=
0158583670999992024012108004+31198+121336FM-15+000399999V0203501N00701003351CN005000199+00401+00201999999ADDGA1071+003351999GE19AGL   +99999+99999GF199999071999003351999999MA1103101999999MW1101REMMET061METAR ZSSS 210800Z 35007MPS 5000 BR BKN011 04/02 Q1031 NOSIG=
0149583670999992024012108304+31198+121336FM-15+000399999V0203601N00701004571CN008000199+00401+00201999999ADDGA1071+004571999GE19AGL   +99999+99999GF199999071999004571999999MA1103101999999REMMET058METAR ZSSS 210830Z 36007MPS 8000 BKN015 04/02 Q1031 NOSIG=
0163583670999992024012109004+31198+121336FM-15+000399999V0203601N00801004571CN009999199+00401+00101999999ADDGA1071+004571999GE19AGL   +99999+99999GF199999071999004571999999MA1103101999999REMMET072METAR ZSSS 210900Z 36008MPS 9999 BKN015 04/01 Q1031 BECMG TL1030 BKN013=
0149583670999992024012109304+31198+121336FM-15+000399999V0203601N00801004881CN009999199+00401+00101999999ADDGA1071+004881999GE19AGL   +99999+99999GF199999071999004881999999MA1103201999999REMMET058METAR ZSSS 210930Z 36008MPS 9999 BKN016 04/01 Q1032 NOSIG=
0149583670999992024012110004+31198+121336FM-15+000399999V0203601N00901004881CN009999199+00401+00101999999ADDGA1071+004881999GE19AGL   +99999+99999GF199999071999004881999999MA1103201999999REMMET058METAR ZSSS 211000Z 36009MPS 9999 BKN016 04/01 Q1032 NOSIG=
0149583670999992024012110304+31198+121336FM-15+000399999V0203601N01001004881CN009999199+00401+00001999999ADDGA1071+004881999GE19AGL   +99999+99999GF199999071999004881999999MA1103201999999REMMET058METAR ZSSS 211030Z 36010MPS 9999 BKN016 04/00 Q1032 NOSIG=
0150583670999992024012111004+31198+121336FM-15+000399999V0203601N00901004881CN009999199+00301+00001999999ADDGA1071+004881999GE19AGL   +99999+99999GF199999071999004881999999MA1103301999999REMMET059METAR ZSSS 211100Z 36009MPS 9999 BKN016 03/M00 Q1033 NOSIG=
0150583670999992024012111304+31198+121336FM-15+000399999V0203601N00901004881CN009999199+00301-00101999999ADDGA1071+004881999GE19AGL   +99999+99999GF199999071999004881999999MA1103301999999REMMET059METAR ZSSS 211130Z 36009MPS 9999 BKN016 03/M01 Q1033 NOSIG=
0150583670999992024012112004+31198+121336FM-15+000399999V0203601N00901004881CN009999199+00301-00201999999ADDGA1071+004881999GE19AGL   +99999+99999GF199999071999004881999999MA1103401999999REMMET059METAR ZSSS 211200Z 36009MPS 9999 BKN016 03/M02 Q1034 NOSIG=
0150583670999992024012112304+31198+121336FM-15+000399999V0203601N00801009141CN009999199+00301-00201999999ADDGA1071+009141999GE19AGL   +99999+99999GF199999071999009141999999MA1103401999999REMMET059METAR ZSSS 211230Z 36008MPS 9999 BKN030 03/M02 Q1034 NOSIG=
0150583670999992024012113004+31198+121336FM-15+000399999V0203501N00701010061CN009999199+00301-00201999999ADDGA1081+010061999GE19AGL   +99999+99999GF199999081999010061999999MA1103501999999REMMET059METAR ZSSS 211300Z 35007MPS 9999 OVC033 03/M02 Q1035 NOSIG=
0150583670999992024012113304+31198+121336FM-15+000399999V0203501N00701010061CN009999199+00301-00201999999ADDGA1081+010061999GE19AGL   +99999+99999GF199999081999010061999999MA1103501999999REMMET059METAR ZSSS 211330Z 35007MPS 9999 OVC033 03/M02 Q1035 NOSIG=
0150583670999992024012114004+31198+121336FM-15+000399999V0203501N00701010061CN009999199+00301-00201999999ADDGA1071+010061999GE19AGL   +99999+99999GF199999071999010061999999MA1103501999999REMMET059METAR ZSSS 211400Z 35007MPS 9999 BKN033 03/M02 Q1035 NOSIG=
0150583670999992024012114304+31198+121336FM-15+000399999V0203601N00601010061CN009999199+00301-00301999999ADDGA1071+010061999GE19AGL   +99999+99999GF199999071999010061999999MA1103501999999REMMET059METAR ZSSS 211430Z 36006MPS 9999 BKN033 03/M03 Q1035 NOSIG=
0150583670999992024012115004+31198+121336FM-15+000399999V0203601N00801010061CN009999199+00301-00201999999ADDGA1071+010061999GE19AGL   +99999+99999GF199999071999010061999999MA1103501999999REMMET059METAR ZSSS 211500Z 36008MPS 9999 BKN033 03/M02 Q1035 NOSIG=
0150583670999992024012115304+31198+121336FM-15+000399999V0200101N00801010061CN009999199+00301-00301999999ADDGA1071+010061999GE19AGL   +99999+99999GF199999071999010061999999MA1103501999999REMMET059METAR ZSSS 211530Z 01008MPS 9999 BKN033 03/M03 Q1035 NOSIG=
0150583670999992024012116004+31198+121336FM-15+000399999V0203401N00701010061CN009999199+00301-00301999999ADDGA1071+010061999GE19AGL   +99999+99999GF199999071999010061999999MA1103501999999REMMET059METAR ZSSS 211600Z 34007MPS 9999 BKN033 03/M03 Q1035 NOSIG=
0150583670999992024012116304+31198+121336FM-15+000399999V0203401N00701010061CN009999199+00201-00201999999ADDGA1071+010061999GE19AGL   +99999+99999GF199999071999010061999999MA1103501999999REMMET059METAR ZSSS 211630Z 34007MPS 9999 BKN033 02/M02 Q1035 NOSIG=
0150583670999992024012117004+31198+121336FM-15+000399999V0203301N00601010061CN009999199+00201-00301999999ADDGA1071+010061999GE19AGL   +99999+99999GF199999071999010061999999MA1103501999999REMMET059METAR ZSSS 211700Z 33006MPS 9999 BKN033 02/M03 Q1035 NOSIG=
0150583670999992024012117304+31198+121336FM-15+000399999V0203501N00801007921CN009999199+00201-00201999999ADDGA1071+007921999GE19AGL   +99999+99999GF199999071999007921999999MA1103501999999REMMET059METAR ZSSS 211730Z 35008MPS 9999 BKN026 02/M02 Q1035 NOSIG=
0161583670999992024012118004+31198+121336FM-15+000399999V0203501N00801007921CN009999199+00201-00301999999ADDGA1071+007921999GE19AGL   +99999+99999GF199999071999007921999999MA1103501999999OC101301REMMET062METAR ZSSS 211800Z 35008G13MPS 9999 BKN026 02/M03 Q1035 NOSIG=
0150583670999992024012118304+31198+121336FM-15+000399999V0203401N00801007921CN009999199+00201-00301999999ADDGA1071+007921999GE19AGL   +99999+99999GF199999071999007921999999MA1103601999999REMMET059METAR ZSSS 211830Z 34008MPS 9999 BKN026 02/M03 Q1036 NOSIG=
0150583670999992024012119004+31198+121336FM-15+000399999V0203501N00801007921CN009999199+00101-00401999999ADDGA1071+007921999GE19AGL   +99999+99999GF199999071999007921999999MA1103601999999REMMET059METAR ZSSS 211900Z 35008MPS 9999 BKN026 01/M04 Q1036 NOSIG=
0150583670999992024012119304+31198+121336FM-15+000399999V0203601N00901007921CN009999199+00101-00501999999ADDGA1071+007921999GE19AGL   +99999+99999GF199999071999007921999999MA1103601999999REMMET059METAR ZSSS 211930Z 36009MPS 9999 BKN026 01/M05 Q1036 NOSIG=
0150583670999992024012120004+31198+121336FM-15+000399999V0203501N00701007921CN009999199+00101-00501999999ADDGA1071+007921999GE19AGL   +99999+99999GF199999071999007921999999MA1103601999999REMMET059METAR ZSSS 212000Z 35007MPS 9999 BKN026 01/M05 Q1036 NOSIG=
0150583670999992024012120304+31198+121336FM-15+000399999V0203601N00801007921CN009999199+00101-00501999999ADDGA1071+007921999GE19AGL   +99999+99999GF199999071999007921999999MA1103601999999REMMET059METAR ZSSS 212030Z 36008MPS 9999 BKN026 01/M05 Q1036 NOSIG=
0150583670999992024012121004+31198+121336FM-15+000399999V0203401N00801007921CN009999199+00101-00501999999ADDGA1071+007921999GE19AGL   +99999+99999GF199999071999007921999999MA1103601999999REMMET059METAR ZSSS 212100Z 34008MPS 9999 BKN026 01/M05 Q1036 NOSIG=
0150583670999992024012121304+31198+121336FM-15+000399999V0203601N00801010061CN009999199+00001-00601999999ADDGA1071+010061999GE19AGL   +99999+99999GF199999071999010061999999MA1103601999999REMMET059METAR ZSSS 212130Z 36008MPS 9999 BKN033 00/M06 Q1036 NOSIG=
0150583670999992024012122004+31198+121336FM-15+000399999V0203501N01001010061CN009999199+00001-00601999999ADDGA1071+010061999GE19AGL   +99999+99999GF199999071999010061999999MA1103701999999REMMET059METAR ZSSS 212200Z 35010MPS 9999 BKN033 00/M06 Q1037 NOSIG=
0151583670999992024012122304+31198+121336FM-15+000399999V0203501N01001010061CN009999199+00001-00701999999ADDGA1071+010061999GE19AGL   +99999+99999GF199999071999010061999999MA1103701999999REMMET060METAR ZSSS 212230Z 35010MPS 9999 BKN033 M00/M07 Q1037 NOSIG=
0151583670999992024012123004+31198+121336FM-15+000399999V0203401N00901010061CN009999199-00101-00701999999ADDGA1071+010061999GE19AGL   +99999+99999GF199999071999010061999999MA1103701999999REMMET060METAR ZSSS 212300Z 34009MPS 9999 BKN033 M01/M07 Q1037 NOSIG=
0151583670999992024012123304+31198+121336FM-15+000399999V0203401N008019999999N009999199-00101-00701999999ADDGA1021+010061999GE19AGL   +99999+99999GF199999021999010061999999MA1103801999999REMMET060METAR ZSSS 212330Z 34008MPS 9999 FEW033 M01/M07 Q1038 NOSIG=
0151583670999992024012200004+31198+121336FM-15+000399999V0203501N008019999999N009999199+00001-00701999999ADDGA1021+010061999GE19AGL   +99999+99999GF199999021999010061999999MA1103801999999REMMET060METAR ZSSS 220000Z 35008MPS 9999 FEW033 M00/M07 Q1038 NOSIG=
0151583670999992024012200304+31198+121336FM-15+000399999V0203501N009019999999N009999199-00101-00701999999ADDGA1021+010061999GE19AGL   +99999+99999GF199999021999010061999999MA1103801999999REMMET060METAR ZSSS 220030Z 35009MPS 9999 FEW033 M01/M07 Q1038 NOSIG=
0151583670999992024012201004+31198+121336FM-15+000399999V0203501N009019999999N009999199+00001-00801999999ADDGA1021+010061999GE19AGL   +99999+99999GF199999021999010061999999MA1103801999999REMMET060METAR ZSSS 220100Z 35009MPS 9999 FEW033 M00/M08 Q1038 NOSIG=
0151583670999992024012201304+31198+121336FM-15+000399999V0203401N007019999999N009999199+00001-00901999999ADDGA1021+010061999GE19AGL   +99999+99999GF199999021999010061999999MA1103901999999REMMET060METAR ZSSS 220130Z 34007MPS 9999 FEW033 M00/M09 Q1039 NOSIG=
0150583670999992024012202004+31198+121336FM-15+000399999V0203501N008019999999N009999199+00001-00901999999ADDGA1021+010061999GE19AGL   +99999+99999GF199999021999010061999999MA1103901999999REMMET059METAR ZSSS 220200Z 35008MPS 9999 FEW033 00/M09 Q1039 NOSIG=
0158583670999992024012202304+31198+121336FM-15+000399999V0203501V006019999999N009999199+00001-00901999999ADDGA1021+010061999GE19AGL   +99999+99999GF199999021999010061999999MA1103801999999REMMET067METAR ZSSS 220230Z 35006MPS 310V010 9999 FEW033 00/M09 Q1038 NOSIG=
0158583670999992024012203004+31198+121336FM-15+000399999V0203401V006019999999N009999199+00001-00901999999ADDGA1021+010061999GE19AGL   +99999+99999GF199999021999010061999999MA1103801999999REMMET067METAR ZSSS 220300Z 34006MPS 300V010 9999 FEW033 00/M09 Q1038 NOSIG=
0150583670999992024012203304+31198+121336FM-15+000399999V0203501N008019999999N009999199+00101-01101999999ADDGA1021+012191999GE19AGL   +99999+99999GF199999021999012191999999MA1103801999999REMMET059METAR ZSSS 220330Z 35008MPS 9999 FEW040 01/M11 Q1038 NOSIG=
0150583670999992024012204004+31198+121336FM-15+000399999V0203501N007019999999N009999199+00201-01001999999ADDGA1021+012191999GE19AGL   +99999+99999GF199999021999012191999999MA1103701999999REMMET059METAR ZSSS 220400Z 35007MPS 9999 FEW040 02/M10 Q1037 NOSIG=
0158583670999992024012204304+31198+121336FM-15+000399999V0203401V007019999999N009999199+00101-00901999999ADDGA1021+012191999GE19AGL   +99999+99999GF199999021999012191999999MA1103701999999REMMET067METAR ZSSS 220430Z 34007MPS 300V360 9999 FEW040 01/M09 Q1037 NOSIG=
0150583670999992024012205004+31198+121336FM-15+000399999V0203301N007019999999N009999199+00101-00901999999ADDGA1021+012191999GE19AGL   +99999+99999GF199999021999012191999999MA1103601999999REMMET059METAR ZSSS 220500Z 33007MPS 9999 FEW040 01/M09 Q1036 NOSIG=
0158583670999992024012205304+31198+121336FM-15+000399999V0203301V007019999999N009999199+00001-00901999999ADDGA1021+012191999GE19AGL   +99999+99999GF199999021999012191999999MA1103601999999REMMET067METAR ZSSS 220530Z 33007MPS 300V360 9999 FEW040 00/M09 Q1036 NOSIG=
0150583670999992024012206004+31198+121336FM-15+000399999V0203301N008019999999N009999199+00001-00901999999ADDGA1041+012191999GE19AGL   +99999+99999GF199999041999012191999999MA1103601999999REMMET059METAR ZSSS 220600Z 33008MPS 9999 SCT040 00/M09 Q1036 NOSIG=
0151583670999992024012206304+31198+121336FM-15+000399999V0203401N007019999999N009999199+00001-00801999999ADDGA1041+012191999GE19AGL   +99999+99999GF199999041999012191999999MA1103601999999REMMET060METAR ZSSS 220630Z 34007MPS 9999 SCT040 M00/M08 Q1036 NOSIG=
0151583670999992024012207004+31198+121336FM-15+000399999V0203301N008019999999N009999199+00001-00901999999ADDGA1041+012191999GE19AGL   +99999+99999GF199999041999012191999999MA1103601999999REMMET060METAR ZSSS 220700Z 33008MPS 9999 SCT040 M00/M09 Q1036 NOSIG=
0159583670999992024012207304+31198+121336FM-15+000399999V0203301V008019999999N009999199-00101-00801999999ADDGA1041+012191999GE19AGL   +99999+99999GF199999041999012191999999MA1103701999999REMMET068METAR ZSSS 220730Z 33008MPS 290V350 9999 SCT040 M01/M08 Q1037 NOSIG=
0151583670999992024012208004+31198+121336FM-15+000399999V0203401N007019999999N009999199-00101-00801999999ADDGA1041+012191999GE19AGL   +99999+99999GF199999041999012191999999MA1103601999999REMMET060METAR ZSSS 220800Z 34007MPS 9999 SCT040 M01/M08 Q1036 NOSIG=
0151583670999992024012208304+31198+121336FM-15+000399999V0203201N007019999999N009999199-00101-00801999999ADDGA1041+012191999GE19AGL   +99999+99999GF199999041999012191999999MA1103701999999REMMET060METAR ZSSS 220830Z 32007MPS 9999 SCT040 M01/M08 Q1037 NOSIG=
0151583670999992024012209004+31198+121336FM-15+000399999V0203201N006019999999N009999199-00101-00801999999ADDGA1041+012191999GE19AGL   +99999+99999GF199999041999012191999999MA1103801999999REMMET060METAR ZSSS 220900Z 32006MPS 9999 SCT040 M01/M08 Q1038 NOSIG=
0151583670999992024012209304+31198+121336FM-15+000399999V0203201N007019999999N009999199-00201-00901999999ADDGA1041+012191999GE19AGL   +99999+99999GF199999041999012191999999MA1103801999999REMMET060METAR ZSSS 220930Z 32007MPS 9999 SCT040 M02/M09 Q1038 NOSIG=
0151583670999992024012210004+31198+121336FM-15+000399999V0203301N006019999999N009999199-00201-00901999999ADDGA1041+012191999GE19AGL   +99999+99999GF199999041999012191999999MA1103801999999REMMET060METAR ZSSS 221000Z 33006MPS 9999 SCT040 M02/M09 Q1038 NOSIG=
0151583670999992024012210304+31198+121336FM-15+000399999V0203401N006019999999N009999199-00201-01001999999ADDGA1041+012191999GE19AGL   +99999+99999GF199999041999012191999999MA1103801999999REMMET060METAR ZSSS 221030Z 34006MPS 9999 SCT040 M02/M10 Q1038 NOSIG=
0151583670999992024012211004+31198+121336FM-15+000399999V0203301N006019999999N009999199-00201-00901999999ADDGA1041+012191999GE19AGL   +99999+99999GF199999041999012191999999MA1103801999999REMMET060METAR ZSSS 221100Z 33006MPS 9999 SCT040 M02/M09 Q1038 NOSIG=
0151583670999992024012211304+31198+121336FM-15+000399999V0203301N006019999999N009999199-00201-00901999999ADDGA1041+012191999GE19AGL   +99999+99999GF199999041999012191999999MA1103901999999REMMET060METAR ZSSS 221130Z 33006MPS 9999 SCT040 M02/M09 Q1039 NOSIG=
0151583670999992024012212004+31198+121336FM-15+000399999V0203401N006019999999N009999199-00201-00901999999ADDGA1041+012191999GE19AGL   +99999+99999GF199999041999012191999999MA1103801999999REMMET060METAR ZSSS 221200Z 34006MPS 9999 SCT040 M02/M09 Q1038 NOSIG=
0151583670999992024012212304+31198+121336FM-15+000399999V0203301N007019999999N009999199-00201-01001999999ADDGA1041+012191999GE19AGL   +99999+99999GF199999041999012191999999MA1103901999999REMMET060METAR ZSSS 221230Z 33007MPS 9999 SCT040 M02/M10 Q1039 NOSIG=
0151583670999992024012213004+31198+121336FM-15+000399999V0203201N005019999999N009999199-00201-00901999999ADDGA1041+012191999GE19AGL   +99999+99999GF199999041999012191999999MA1103901999999REMMET060METAR ZSSS 221300Z 32005MPS 9999 SCT040 M02/M09 Q1039 NOSIG=
0151583670999992024012213304+31198+121336FM-15+000399999V0203301N007019999999N009999199-00301-01001999999ADDGA1041+012191999GE19AGL   +99999+99999GF199999041999012191999999MA1103801999999REMMET060METAR ZSSS 221330Z 33007MPS 9999 SCT040 M03/M10 Q1038 NOSIG=
0159583670999992024012214004+31198+121336FM-15+000399999V0203201V007019999999N009999199-00301-01001999999ADDGA1041+012191999GE19AGL   +99999+99999GF199999041999012191999999MA1103901999999REMMET068METAR ZSSS 221400Z 32007MPS 290V360 9999 SCT040 M03/M10 Q1039 NOSIG=
0151583670999992024012214304+31198+121336FM-15+000399999V0203201N006019999999N009999199-00301-01001999999ADDGA1021+012191999GE19AGL   +99999+99999GF199999021999012191999999MA1103901999999REMMET060METAR ZSSS 221430Z 32006MPS 9999 FEW040 M03/M10 Q1039 NOSIG=
0151583670999992024012215004+31198+121336FM-15+000399999V0203201N006019999999N009999199-00301-01001999999ADDGA1021+012191999GE19AGL   +99999+99999GF199999021999012191999999MA1103901999999REMMET060METAR ZSSS 221500Z 32006MPS 9999 FEW040 M03/M10 Q1039 NOSIG=
0151583670999992024012215304+31198+121336FM-15+000399999V0203201N006019999999N009999199-00301-01001999999ADDGA1021+012191999GE19AGL   +99999+99999GF199999021999012191999999MA1103901999999REMMET060METAR ZSSS 221530Z 32006MPS 9999 FEW040 M03/M10 Q1039 NOSIG=
0081583670999992024012216004+31198+121336FM-15+000399999V0203201N007019999999Y009900599-00301-01001999999ADDMA1103801999999REMMET054METAR ZSSS 221600Z 32007MPS CAVOK M03/M10 Q1038 NOSIG=
0081583670999992024012216304+31198+121336FM-15+000399999V0203201N006019999999Y009900599-00301-01001999999ADDMA1103801999999REMMET054METAR ZSSS 221630Z 32006MPS CAVOK M03/M10 Q1038 NOSIG=
0081583670999992024012217004+31198+121336FM-15+000399999V0203201N006019999999Y009900599-00301-01001999999ADDMA1103901999999REMMET054METAR ZSSS 221700Z 32006MPS CAVOK M03/M10 Q1039 NOSIG=
0081583670999992024012217304+31198+121336FM-15+000399999V0203201N007019999999Y009900599-00401-01001999999ADDMA1103901999999REMMET054METAR ZSSS 221730Z 32007MPS CAVOK M04/M10 Q1039 NOSIG=
0081583670999992024012218004+31198+121336FM-15+000399999V0203201N006019999999Y009900599-00401-01101999999ADDMA1103901999999REMMET054METAR ZSSS 221800Z 32006MPS CAVOK M04/M11 Q1039 NOSIG=
0081583670999992024012218304+31198+121336FM-15+000399999V0203201N006019999999Y009900599-00401-01101999999ADDMA1103901999999REMMET054METAR ZSSS 221830Z 32006MPS CAVOK M04/M11 Q1039 NOSIG=
0081583670999992024012219004+31198+121336FM-15+000399999V0203201N006019999999Y009900599-00401-01101999999ADDMA1103901999999REMMET054METAR ZSSS 221900Z 32006MPS CAVOK M04/M11 Q1039 NOSIG=
0081583670999992024012219304+31198+121336FM-15+000399999V0203201N007019999999Y009900599-00401-01101999999ADDMA1103801999999REMMET054METAR ZSSS 221930Z 32007MPS CAVOK M04/M11 Q1038 NOSIG=
0081583670999992024012220004+31198+121336FM-15+000399999V0203201N007019999999Y009900599-00401-01101999999ADDMA1103801999999REMMET054METAR ZSSS 222000Z 32007MPS CAVOK M04/M11 Q1038 NOSIG=
0081583670999992024012220304+31198+121336FM-15+000399999V0203201N007019999999Y009900599-00501-01201999999ADDMA1103801999999REMMET054METAR ZSSS 222030Z 32007MPS CAVOK M05/M12 Q1038 NOSIG=
0081583670999992024012221004+31198+121336FM-15+000399999V0203301N007019999999Y009900599-00501-01201999999ADDMA1103801999999REMMET054METAR ZSSS 222100Z 33007MPS CAVOK M05/M12 Q1038 NOSIG=
0089583670999992024012222004+31198+121336FM-15+000399999V0203201V006019999999Y009900599-00501-01201999999ADDMA1103901999999REMMET062METAR ZSSS 222200Z 32006MPS 290V350 CAVOK M05/M12 Q1039 NOSIG=
0081583670999992024012222304+31198+121336FM-15+000399999V0203201N007019999999Y009900599-00501-01201999999ADDMA1103901999999REMMET054METAR ZSSS 222230Z 32007MPS CAVOK M05/M12 Q1039 NOSIG=
0081583670999992024012223004+31198+121336FM-15+000399999V0203301N006019999999Y009900599-00501-01301999999ADDMA1103901999999REMMET054METAR ZSSS 222300Z 33006MPS CAVOK M05/M13 Q1039 NOSIG=
0081583670999992024012223304+31198+121336FM-15+000399999V0203201N006019999999Y009900599-00401-01301999999ADDMA1103901999999REMMET054METAR ZSSS 222330Z 32006MPS CAVOK M04/M13 Q1039 NOSIG=
0089583670999992024012300004+31198+121336FM-15+000399999V0203201V007019999999Y009900599-00401-01301999999ADDMA1103901999999REMMET062METAR ZSSS 230000Z 32007MPS 290V350 CAVOK M04/M13 Q1039 NOSIG=
0089583670999992024012300304+31198+121336FM-15+000399999V0203301V006019999999Y009900599-00301-01201999999ADDMA1103901999999REMMET062METAR ZSSS 230030Z 33006MPS 290V350 CAVOK M03/M12 Q1039 NOSIG=
0081583670999992024012301004+31198+121336FM-15+000399999V0203401N009019999999Y009900599-00301-01401999999ADDMA1103901999999REMMET054METAR ZSSS 230100Z 34009MPS CAVOK M03/M14 Q1039 NOSIG=
0081583670999992024012301304+31198+121336FM-15+000399999V0203401N008019999999Y009900599-00201-01401999999ADDMA1103901999999REMMET054METAR ZSSS 230130Z 34008MPS CAVOK M02/M14 Q1039 NOSIG=
0089583670999992024012302004+31198+121336FM-15+000399999V0203101V007019999999Y009900599-00201-01401999999ADDMA1104001999999REMMET062METAR ZSSS 230200Z 31007MPS 280V350 CAVOK M02/M14 Q1040 NOSIG=
0092583670999992024012302304+31198+121336FM-15+000399999V0203301N008019999999Y009900599-00101-01401999999ADDMA1104001999999OC101301REMMET057METAR ZSSS 230230Z 33008G13MPS CAVOK M01/M14 Q1040 NOSIG=
0089583670999992024012303004+31198+121336FM-15+000399999V0203201V007019999999Y009900599+00001-01301999999ADDMA1103901999999REMMET062METAR ZSSS 230300Z 32007MPS 290V350 CAVOK M00/M13 Q1039 NOSIG=
0089583670999992024012303304+31198+121336FM-15+000399999V0203201V007019999999Y009900599-00101-01401999999ADDMA1103801999999REMMET062METAR ZSSS 230330Z 32007MPS 290V350 CAVOK M01/M14 Q1038 NOSIG=
0100583670999992024012304004+31198+121336FM-15+000399999V0203201V007019999999Y009900599+00001-01401999999ADDMA1103801999999OC101201REMMET065METAR ZSSS 230400Z 32007G12MPS 290V350 CAVOK M00/M14 Q1038 NOSIG=
0088583670999992024012304304+31198+121336FM-15+000399999V0203201V008019999999Y009900599+00001-01501999999ADDMA1103701999999REMMET061METAR ZSSS 230430Z 32008MPS 290V350 CAVOK 00/M15 Q1037 NOSIG=
0088583670999992024012305004+31198+121336FM-15+000399999V0203201V007019999999Y009900599+00101-01501999999ADDMA1103701999999REMMET061METAR ZSSS 230500Z 32007MPS 290V360 CAVOK 01/M15 Q1037 NOSIG=
0088583670999992024012305304+31198+121336FM-15+000399999V0203201V008019999999Y009900599+00101-01601999999ADDMA1103601999999REMMET061METAR ZSSS 230530Z 32008MPS 280V350 CAVOK 01/M16 Q1036 NOSIG=
0080583670999992024012306004+31198+121336FM-15+000399999V0203201N008019999999Y009900599+00001-01601999999ADDMA1103601999999REMMET053METAR ZSSS 230600Z 32008MPS CAVOK 00/M16 Q1036 NOSIG=
0088583670999992024012306304+31198+121336FM-15+000399999V0203301V006019999999Y009900599+00101-01601999999ADDMA1103601999999REMMET061METAR ZSSS 230630Z 33006MPS 280V360 CAVOK 01/M16 Q1036 NOSIG=
0088583670999992024012307004+31198+121336FM-15+000399999V0203201V007019999999Y009900599+00101-01501999999ADDMA1103601999999REMMET061METAR ZSSS 230700Z 32007MPS 280V010 CAVOK 01/M15 Q1036 NOSIG=
0088583670999992024012307304+31198+121336FM-15+000399999V0203101V007019999999Y009900599+00001-01501999999ADDMA1103601999999REMMET061METAR ZSSS 230730Z 31007MPS 270V350 CAVOK 00/M15 Q1036 NOSIG=
0080583670999992024012308004+31198+121336FM-15+000399999V0203001N006019999999Y009900599+00001-01601999999ADDMA1103601999999REMMET053METAR ZSSS 230800Z 30006MPS CAVOK 00/M16 Q1036 NOSIG=
0081583670999992024012308304+31198+121336FM-15+000399999V0203401N008019999999Y009900599-00101-01401999999ADDMA1103601999999REMMET054METAR ZSSS 230830Z 34008MPS CAVOK M01/M14 Q1036 NOSIG=
0089583670999992024012309004+31198+121336FM-15+000399999V0203401V007019999999Y009900599-00101-01401999999ADDMA1103601999999REMMET062METAR ZSSS 230900Z 34007MPS 300V360 CAVOK M01/M14 Q1036 NOSIG=
0081583670999992024012309304+31198+121336FM-15+000399999V0203401N007019999999Y009900599-00101-01301999999ADDMA1103601999999REMMET054METAR ZSSS 230930Z 34007MPS CAVOK M01/M13 Q1036 NOSIG=
0081583670999992024012310004+31198+121336FM-15+000399999V0203301N006019999999Y009900599-00101-01301999999ADDMA1103701999999REMMET054METAR ZSSS 231000Z 33006MPS CAVOK M01/M13 Q1037 NOSIG=
0081583670999992024012310304+31198+121336FM-15+000399999V0203301N006019999999Y009900599-00201-01301999999ADDMA1103701999999REMMET054METAR ZSSS 231030Z 33006MPS CAVOK M02/M13 Q1037 NOSIG=
0081583670999992024012311004+31198+121336FM-15+000399999V0203401N005019999999Y009900599-00201-01301999999ADDMA1103701999999REMMET054METAR ZSSS 231100Z 34005MPS CAVOK M02/M13 Q1037 NOSIG=
0081583670999992024012311304+31198+121336FM-15+000399999V0203401N005019999999Y009900599-00201-01201999999ADDMA1103701999999REMMET054METAR ZSSS 231130Z 34005MPS CAVOK M02/M12 Q1037 NOSIG=
0081583670999992024012312004+31198+121336FM-15+000399999V0203401N005019999999Y009900599-00201-01101999999ADDMA1103701999999REMMET054METAR ZSSS 231200Z 34005MPS CAVOK M02/M11 Q1037 NOSIG=
0081583670999992024012312304+31198+121336FM-15+000399999V0203301N006019999999Y009900599-00201-01201999999ADDMA1103701999999REMMET054METAR ZSSS 231230Z 33006MPS CAVOK M02/M12 Q1037 NOSIG=
0081583670999992024012313004+31198+121336FM-15+000399999V0203401N005019999999Y009900599-00201-01101999999ADDMA1103701999999REMMET054METAR ZSSS 231300Z 34005MPS CAVOK M02/M11 Q1037 NOSIG=
0081583670999992024012313304+31198+121336FM-15+000399999V0203401N005019999999Y009900599-00301-01201999999ADDMA1103701999999REMMET054METAR ZSSS 231330Z 34005MPS CAVOK M03/M12 Q1037 NOSIG=
0081583670999992024012314004+31198+121336FM-15+000399999V0203301N005019999999Y009900599-00301-01101999999ADDMA1103701999999REMMET054METAR ZSSS 231400Z 33005MPS CAVOK M03/M11 Q1037 NOSIG=
0081583670999992024012314304+31198+121336FM-15+000399999V0203301N004019999999Y009900599-00301-01101999999ADDMA1103701999999REMMET054METAR ZSSS 231430Z 33004MPS CAVOK M03/M11 Q1037 NOSIG=
0081583670999992024012315004+31198+121336FM-15+000399999V0203101N004019999999Y009900599-00301-01101999999ADDMA1103701999999REMMET054METAR ZSSS 231500Z 31004MPS CAVOK M03/M11 Q1037 NOSIG=
0081583670999992024012315304+31198+121336FM-15+000399999V0203101N004019999999Y009900599-00301-01101999999ADDMA1103701999999REMMET054METAR ZSSS 231530Z 31004MPS CAVOK M03/M11 Q1037 NOSIG=
0089583670999992024012316004+31198+121336FM-15+000399999V0203201V004019999999Y009900599-00301-01101999999ADDMA1103701999999REMMET062METAR ZSSS 231600Z 32004MPS 280V350 CAVOK M03/M11 Q1037 NOSIG=
0081583670999992024012316304+31198+121336FM-15+000399999V0203101N004019999999Y009900599-00301-01101999999ADDMA1103701999999REMMET054METAR ZSSS 231630Z 31004MPS CAVOK M03/M11 Q1037 NOSIG=
0089583670999992024012317004+31198+121336FM-15+000399999V0203101V004019999999Y009900599-00301-01101999999ADDMA1103701999999REMMET062METAR ZSSS 231700Z 31004MPS 290V350 CAVOK M03/M11 Q1037 NOSIG=
0081583670999992024012317304+31198+121336FM-15+000399999V0203101N004019999999Y009900599-00301-01201999999ADDMA1103701999999REMMET054METAR ZSSS 231730Z 31004MPS CAVOK M03/M12 Q1037 NOSIG=
0089583670999992024012318004+31198+121336FM-15+000399999V0203101V005019999999Y009900599-00301-01201999999ADDMA1103701999999REMMET062METAR ZSSS 231800Z 31005MPS 280V340 CAVOK M03/M12 Q1037 NOSIG=
0081583670999992024012318304+31198+121336FM-15+000399999V0203101N005019999999Y009900599-00301-01201999999ADDMA1103701999999REMMET054METAR ZSSS 231830Z 31005MPS CAVOK M03/M12 Q1037 NOSIG=
0081583670999992024012319004+31198+121336FM-15+000399999V0203101N004019999999Y009900599-00301-01201999999ADDMA1103601999999REMMET054METAR ZSSS 231900Z 31004MPS CAVOK M03/M12 Q1036 NOSIG=
0089583670999992024012319304+31198+121336FM-15+000399999V0203101V004019999999Y009900599-00301-01201999999ADDMA1103601999999REMMET062METAR ZSSS 231930Z 31004MPS 280V340 CAVOK M03/M12 Q1036 NOSIG=
0081583670999992024012320004+31198+121336FM-15+000399999V0203101N005019999999Y009900599-00301-01101999999ADDMA1103601999999REMMET054METAR ZSSS 232000Z 31005MPS CAVOK M03/M11 Q1036 NOSIG=
0081583670999992024012320304+31198+121336FM-15+000399999V0203101N004019999999Y009900599-00301-01101999999ADDMA1103601999999REMMET054METAR ZSSS 232030Z 31004MPS CAVOK M03/M11 Q1036 NOSIG=
0089583670999992024012321004+31198+121336FM-15+000399999V0203001V004019999999Y009900599-00301-01101999999ADDMA1103601999999REMMET062METAR ZSSS 232100Z 30004MPS 270V340 CAVOK M03/M11 Q1036 NOSIG=
0081583670999992024012321304+31198+121336FM-15+000399999V0202901N004019999999Y009900599-00301-01101999999ADDMA1103601999999REMMET054METAR ZSSS 232130Z 29004MPS CAVOK M03/M11 Q1036 NOSIG=
0081583670999992024012322004+31198+121336FM-15+000399999V0203101N004019999999Y009900599-00301-01101999999ADDMA1103601999999REMMET054METAR ZSSS 232200Z 31004MPS CAVOK M03/M11 Q1036 NOSIG=
0089583670999992024012322304+31198+121336FM-15+000399999V0203101V004019999999Y009900599-00301-01101999999ADDMA1103601999999REMMET062METAR ZSSS 232230Z 31004MPS 280V350 CAVOK M03/M11 Q1036 NOSIG=
0089583670999992024012323004+31198+121336FM-15+000399999V0203101V004019999999Y009900599-00301-01101999999ADDMA1103601999999REMMET062METAR ZSSS 232300Z 31004MPS 280V340 CAVOK M03/M11 Q1036 NOSIG=
0089583670999992024012323304+31198+121336FM-15+000399999V0203001V005019999999Y009900599-00201-01101999999ADDMA1103601999999REMMET062METAR ZSSS 232330Z 30005MPS 270V330 CAVOK M02/M11 Q1036 NOSIG=
0089583670999992024012400004+31198+121336FM-15+000399999V0202901V004019999999Y009900599-00201-01001999999ADDMA1103701999999REMMET062METAR ZSSS 240000Z 29004MPS 260V340 CAVOK M02/M10 Q1037 NOSIG=
0089583670999992024012400304+31198+121336FM-15+000399999V0202901V004019999999Y009900599-00101-01001999999ADDMA1103701999999REMMET062METAR ZSSS 240030Z 29004MPS 260V340 CAVOK M01/M10 Q1037 NOSIG=
0081583670999992024012401004+31198+121336FM-15+000399999V0203101N006019999999Y009900599+00001-01201999999ADDMA1103701999999REMMET054METAR ZSSS 240100Z 31006MPS CAVOK M00/M12 Q1037 NOSIG=
0088583670999992024012401304+31198+121336FM-15+000399999V0203201V005019999999Y009900599+00101-01301999999ADDMA1103701999999REMMET061METAR ZSSS 240130Z 32005MPS 280V360 CAVOK 01/M13 Q1037 NOSIG=
0088583670999992024012402004+31198+121336FM-15+000399999V0203201V006019999999Y009900599+00101-01301999999ADDMA1103701999999REMMET061METAR ZSSS 240200Z 32006MPS 290V020 CAVOK 01/M13 Q1037 NOSIG=
0080583670999992024012402304+31198+121336FM-15+000399999V0203201N006019999999Y009900599+00201-01301999999ADDMA1103701999999REMMET053METAR ZSSS 240230Z 32006MPS CAVOK 02/M13 Q1037 NOSIG=
0088583670999992024012403004+31198+121336FM-15+000399999V0203201V005019999999Y009900599+00301-01201999999ADDMA1103701999999REMMET061METAR ZSSS 240300Z 32005MPS 280V360 CAVOK 03/M12 Q1037 NOSIG=
0088583670999992024012403304+31198+121336FM-15+000399999V0203001V005019999999Y009900599+00301-01301999999ADDMA1103601999999REMMET061METAR ZSSS 240330Z 30005MPS 250V350 CAVOK 03/M13 Q1036 NOSIG=
0080583670999992024012404004+31198+121336FM-15+000399999V0202901N006019999999Y009900599+00301-01301999999ADDMA1103601999999REMMET053METAR ZSSS 240400Z 29006MPS CAVOK 03/M13 Q1036 NOSIG=
0099583670999992024012404304+31198+121336FM-15+000399999V0203401V006019999999Y009900599+00301-01301999999ADDMA1103501999999OC101101REMMET064METAR ZSSS 240430Z 34006G11MPS 280V360 CAVOK 03/M13 Q1035 NOSIG=
0088583670999992024012405004+31198+121336FM-15+000399999V0203301V005019999999Y009900599+00401-01201999999ADDMA1103401999999REMMET061METAR ZSSS 240500Z 33005MPS 280V020 CAVOK 04/M12 Q1034 NOSIG=
0088583670999992024012405304+31198+121336FM-15+000399999V0203401V005019999999Y009900599+00401-01301999999ADDMA1103301999999REMMET061METAR ZSSS 240530Z 34005MPS 310V030 CAVOK 04/M13 Q1033 NOSIG=
0088583670999992024012406004+31198+121336FM-15+000399999V0203101V005019999999Y009900599+00501-01201999999ADDMA1103301999999REMMET061METAR ZSSS 240600Z 31005MPS 290V350 CAVOK 05/M12 Q1033 NOSIG=
0088583670999992024012406304+31198+121336FM-15+000399999V0203001V006019999999Y009900599+00401-01201999999ADDMA1103301999999REMMET061METAR ZSSS 240630Z 30006MPS 280V340 CAVOK 04/M12 Q1033 NOSIG=
0088583670999992024012407004+31198+121336FM-15+000399999V0203301V005019999999Y009900599+00501-01201999999ADDMA1103301999999REMMET061METAR ZSSS 240700Z 33005MPS 280V350 CAVOK 05/M12 Q1033 NOSIG=
0088583670999992024012407304+31198+121336FM-15+000399999V0203301V005019999999Y009900599+00501-01201999999ADDMA1103301999999REMMET061METAR ZSSS 240730Z 33005MPS 300V360 CAVOK 05/M12 Q1033 NOSIG=
0088583670999992024012408004+31198+121336FM-15+000399999V0203001V005019999999Y009900599+00401-01301999999ADDMA1103301999999REMMET061METAR ZSSS 240800Z 30005MPS 270V330 CAVOK 04/M13 Q1033 NOSIG=
0080583670999992024012408304+31198+121336FM-15+000399999V0203401N006019999999Y009900599+00401-01301999999ADDMA1103301999999REMMET053METAR ZSSS 240830Z 34006MPS CAVOK 04/M13 Q1033 NOSIG=
0088583670999992024012409004+31198+121336FM-15+000399999V0203301V005019999999Y009900599+00301-01301999999ADDMA1103401999999REMMET061METAR ZSSS 240900Z 33005MPS 290V360 CAVOK 03/M13 Q1034 NOSIG=
0080583670999992024012409304+31198+121336FM-15+000399999V0203401N004019999999Y009900599+00201-01301999999ADDMA1103401999999REMMET053METAR ZSSS 240930Z 34004MPS CAVOK 02/M13 Q1034 NOSIG=
0080583670999992024012410004+31198+121336FM-15+000399999V0203401N004019999999Y009900599+00201-01201999999ADDMA1103401999999REMMET053METAR ZSSS 241000Z 34004MPS CAVOK 02/M12 Q1034 NOSIG=
0080583670999992024012410304+31198+121336FM-15+000399999V0200101N003019999999Y009900599+00101-01001999999ADDMA1103401999999REMMET053METAR ZSSS 241030Z 01003MPS CAVOK 01/M10 Q1034 NOSIG=
0080583670999992024012411004+31198+121336FM-15+000399999V0203601N004019999999Y009900599+00101-01001999999ADDMA1103401999999REMMET053METAR ZSSS 241100Z 36004MPS CAVOK 01/M10 Q1034 NOSIG=
0080583670999992024012411304+31198+121336FM-15+000399999V0203501N003019999999Y009900599+00101-01001999999ADDMA1103401999999REMMET053METAR ZSSS 241130Z 35003MPS CAVOK 01/M10 Q1034 NOSIG=
0088583670999992024012412004+31198+121336FM-15+000399999V0203301V004019999999Y009900599+00101-01001999999ADDMA1103501999999REMMET061METAR ZSSS 241200Z 33004MPS 290V350 CAVOK 01/M10 Q1035 NOSIG=
0080583670999992024012412304+31198+121336FM-15+000399999V0203301N004019999999Y009900599+00101-01001999999ADDMA1103501999999REMMET053METAR ZSSS 241230Z 33004MPS CAVOK 01/M10 Q1035 NOSIG=
0080583670999992024012413004+31198+121336FM-15+000399999V0203401N004019999999Y009900599+00101-01001999999ADDMA1103501999999REMMET053METAR ZSSS 241300Z 34004MPS CAVOK 01/M10 Q1035 NOSIG=
0080583670999992024012413304+31198+121336FM-15+000399999V0203301N003019999999Y009900599+00101-01001999999ADDMA1103501999999REMMET053METAR ZSSS 241330Z 33003MPS CAVOK 01/M10 Q1035 NOSIG=
0080583670999992024012414004+31198+121336FM-15+000399999V0203301N003019999999Y009900599+00001-01001999999ADDMA1103501999999REMMET053METAR ZSSS 241400Z 33003MPS CAVOK 00/M10 Q1035 NOSIG=
0080583670999992024012414304+31198+121336FM-15+000399999V0203301N003019999999Y009900599+00001-01001999999ADDMA1103401999999REMMET053METAR ZSSS 241430Z 33003MPS CAVOK 00/M10 Q1034 NOSIG=
0080583670999992024012415004+31198+121336FM-15+000399999V0203101N003019999999Y009900599+00001-01001999999ADDMA1103401999999REMMET053METAR ZSSS 241500Z 31003MPS CAVOK 00/M10 Q1034 NOSIG=
0080583670999992024012415304+31198+121336FM-15+000399999V0203101N003019999999Y009900599+00001-01001999999ADDMA1103401999999REMMET053METAR ZSSS 241530Z 31003MPS CAVOK 00/M10 Q1034 NOSIG=
0088583670999992024012416004+31198+121336FM-15+000399999V0203101V003019999999Y009900599+00001-01001999999ADDMA1103401999999REMMET061METAR ZSSS 241600Z 31003MPS 280V340 CAVOK 00/M10 Q1034 NOSIG=
0080583670999992024012416304+31198+121336FM-15+000399999V0203101N003019999999Y009900599+00001-01101999999ADDMA1103401999999REMMET053METAR ZSSS 241630Z 31003MPS CAVOK 00/M11 Q1034 NOSIG=
0081583670999992024012417004+31198+121336FM-15+000399999V0203601N002019999999Y009900599-00201-00801999999ADDMA1103401999999REMMET054METAR ZSSS 241700Z 36002MPS CAVOK M02/M08 Q1034 NOSIG=
0080583670999992024012417304+31198+121336FM-15+000399999V0203101N003019999999Y009900599+00001-01001999999ADDMA1103401999999REMMET053METAR ZSSS 241730Z 31003MPS CAVOK 00/M10 Q1034 NOSIG=
0080583670999992024012418004+31198+121336FM-15+000399999V0203101N003019999999Y009900599+00101-01001999999ADDMA1103401999999REMMET053METAR ZSSS 241800Z 31003MPS CAVOK 01/M10 Q1034 NOSIG=
0080583670999992024012418304+31198+121336FM-15+000399999V0203101N003019999999Y009900599+00101-01001999999ADDMA1103401999999REMMET053METAR ZSSS 241830Z 31003MPS CAVOK 01/M10 Q1034 NOSIG=
0080583670999992024012419004+31198+121336FM-15+000399999V0203101N004019999999Y009900599+00101-01001999999ADDMA1103401999999REMMET053METAR ZSSS 241900Z 31004MPS CAVOK 01/M10 Q1034 NOSIG=
0080583670999992024012419304+31198+121336FM-15+000399999V0203101N003019999999Y009900599+00101-01001999999ADDMA1103401999999REMMET053METAR ZSSS 241930Z 31003MPS CAVOK 01/M10 Q1034 NOSIG=
0080583670999992024012420004+31198+121336FM-15+000399999V0203201N003019999999Y009900599+00101-01001999999ADDMA1103301999999REMMET053METAR ZSSS 242000Z 32003MPS CAVOK 01/M10 Q1033 NOSIG=
0080583670999992024012420304+31198+121336FM-15+000399999V0203301N003019999999Y009900599+00001-01001999999ADDMA1103301999999REMMET053METAR ZSSS 242030Z 33003MPS CAVOK 00/M10 Q1033 NOSIG=
0080583670999992024012421004+31198+121336FM-15+000399999V0203401N003019999999Y009900599+00001-01001999999ADDMA1103301999999REMMET053METAR ZSSS 242100Z 34003MPS CAVOK 00/M10 Q1033 NOSIG=
0080583670999992024012421304+31198+121336FM-15+000399999V0203201N003019999999Y009900599+00001-01001999999ADDMA1103401999999REMMET053METAR ZSSS 242130Z 32003MPS CAVOK 00/M10 Q1034 NOSIG=
0080583670999992024012422004+31198+121336FM-15+000399999V0203001N003019999999Y009900599+00101-01001999999ADDMA1103401999999REMMET053METAR ZSSS 242200Z 30003MPS CAVOK 01/M10 Q1034 NOSIG=
0080583670999992024012422304+31198+121336FM-15+000399999V0202701N002019999999Y009900599+00101-01001999999ADDMA1103401999999REMMET053METAR ZSSS 242230Z 27002MPS CAVOK 01/M10 Q1034 NOSIG=
0088583670999992024012423004+31198+121336FM-15+000399999V0202801V003019999999Y009900599+00101-00901999999ADDMA1103401999999REMMET061METAR ZSSS 242300Z 28003MPS 250V320 CAVOK 01/M09 Q1034 NOSIG=
0088583670999992024012423304+31198+121336FM-15+000399999V0203001V002019999999Y009900599+00101-00901999999ADDMA1103401999999REMMET061METAR ZSSS 242330Z 30002MPS 260V010 CAVOK 01/M09 Q1034 NOSIG=
0088583670999992024012500004+31198+121336FM-15+000399999V0202801V002019999999Y009900599+00101-00901999999ADDMA1103501999999REMMET061METAR ZSSS 250000Z 28002MPS 250V340 CAVOK 01/M09 Q1035 NOSIG=
0088583670999992024012500304+31198+121336FM-15+000399999V0203001V002019999999Y009900599+00201-00901999999ADDMA1103501999999REMMET061METAR ZSSS 250030Z 30002MPS 270V340 CAVOK 02/M09 Q1035 NOSIG=
0088583670999992024012501004+31198+121336FM-15+000399999V0203201V003019999999Y009900599+00301-01001999999ADDMA1103501999999REMMET061METAR ZSSS 250100Z 32003MPS 290V350 CAVOK 03/M10 Q1035 NOSIG=
0088583670999992024012501304+31198+121336FM-15+000399999V0203301V003019999999Y009900599+00401-01001999999ADDMA1103501999999REMMET061METAR ZSSS 250130Z 33003MPS 300V010 CAVOK 04/M10 Q1035 NOSIG=
0088583670999992024012502004+31198+121336FM-15+000399999V0203401V003019999999Y009900599+00401-01001999999ADDMA1103501999999REMMET061METAR ZSSS 250200Z 34003MPS 300V040 CAVOK 04/M10 Q1035 NOSIG=
0088583670999992024012502304+31198+121336FM-15+000399999V0203201V004019999999Y009900599+00501-01101999999ADDMA1103501999999REMMET061METAR ZSSS 250230Z 32004MPS 280V360 CAVOK 05/M11 Q1035 NOSIG=
0088583670999992024012503004+31198+121336FM-15+000399999V0203401V003019999999Y009900599+00601-01101999999ADDMA1103501999999REMMET061METAR ZSSS 250300Z 34003MPS 300V010 CAVOK 06/M11 Q1035 NOSIG=
0088583670999992024012503304+31198+121336FM-15+000399999V0203101V003019999999Y009900599+00601-01201999999ADDMA1103501999999REMMET061METAR ZSSS 250330Z 31003MPS 280V010 CAVOK 06/M12 Q1035 NOSIG=
0080583670999992024012504004+31198+121336FM-15+000399999V0203301N004019999999Y009900599+00701-01201999999ADDMA1103401999999REMMET053METAR ZSSS 250400Z 33004MPS CAVOK 07/M12 Q1034 NOSIG=
0080583670999992024012504304+31198+121336FM-15+000399999V0209999V003019999999Y009900599+00601-01101999999ADDMA1103401999999REMMET053METAR ZSSS 250430Z VRB03MPS CAVOK 06/M11 Q1034 NOSIG=
0088583670999992024012505004+31198+121336FM-15+000399999V0203301V004019999999Y009900599+00701-01201999999ADDMA1103301999999REMMET061METAR ZSSS 250500Z 33004MPS 290V010 CAVOK 07/M12 Q1033 NOSIG=
0088583670999992024012505304+31198+121336FM-15+000399999V0203201V004019999999Y009900599+00701-01201999999ADDMA1103301999999REMMET061METAR ZSSS 250530Z 32004MPS 260V010 CAVOK 07/M12 Q1033 NOSIG=
0088583670999992024012506004+31198+121336FM-15+000399999V0202901V004019999999Y009900599+00801-01201999999ADDMA1103201999999REMMET061METAR ZSSS 250600Z 29004MPS 250V340 CAVOK 08/M12 Q1032 NOSIG=
0088583670999992024012506304+31198+121336FM-15+000399999V0203101V005019999999Y009900599+00801-01301999999ADDMA1103201999999REMMET061METAR ZSSS 250630Z 31005MPS 280V360 CAVOK 08/M13 Q1032 NOSIG=
0080583670999992024012507004+31198+121336FM-15+000399999V0203401N005019999999Y009900599+00701-01201999999ADDMA1103201999999REMMET053METAR ZSSS 250700Z 34005MPS CAVOK 07/M12 Q1032 NOSIG=
0088583670999992024012507304+31198+121336FM-15+000399999V0203301V004019999999Y009900599+00701-01201999999ADDMA1103201999999REMMET061METAR ZSSS 250730Z 33004MPS 290V020 CAVOK 07/M12 Q1032 NOSIG=
0088583670999992024012508004+31198+121336FM-15+000399999V0203401V005019999999Y009900599+00601-01201999999ADDMA1103201999999REMMET061METAR ZSSS 250800Z 34005MPS 310V010 CAVOK 06/M12 Q1032 NOSIG=
0088583670999992024012508304+31198+121336FM-15+000399999V0203401V004019999999Y009900599+00601-01101999999ADDMA1103301999999REMMET061METAR ZSSS 250830Z 34004MPS 300V010 CAVOK 06/M11 Q1033 NOSIG=
0080583670999992024012509004+31198+121336FM-15+000399999V0203501N004019999999Y009900599+00501-01101999999ADDMA1103301999999REMMET053METAR ZSSS 250900Z 35004MPS CAVOK 05/M11 Q1033 NOSIG=
0080583670999992024012509304+31198+121336FM-15+000399999V0203301N003019999999Y009900599+00501-01101999999ADDMA1103301999999REMMET053METAR ZSSS 250930Z 33003MPS CAVOK 05/M11 Q1033 NOSIG=
0080583670999992024012510004+31198+121336FM-15+000399999V0203301N003019999999Y009900599+00501-01101999999ADDMA1103301999999REMMET053METAR ZSSS 251000Z 33003MPS CAVOK 05/M11 Q1033 NOSIG=
0088583670999992024012510304+31198+121336FM-15+000399999V0203501V003019999999Y009900599+00401-01001999999ADDMA1103301999999REMMET061METAR ZSSS 251030Z 35003MPS 320V020 CAVOK 04/M10 Q1033 NOSIG=
0080583670999992024012511004+31198+121336FM-15+000399999V0200101N003019999999Y009900599+00301-00901999999ADDMA1103301999999REMMET053METAR ZSSS 251100Z 01003MPS CAVOK 03/M09 Q1033 NOSIG=
0080583670999992024012511304+31198+121336FM-15+000399999V0200101N002019999999Y009900599+00301-00901999999ADDMA1103301999999REMMET053METAR ZSSS 251130Z 01002MPS CAVOK 03/M09 Q1033 NOSIG=
0080583670999992024012512004+31198+121336FM-15+000399999V0203601N003019999999Y009900599+00301-00901999999ADDMA1103301999999REMMET053METAR ZSSS 251200Z 36003MPS CAVOK 03/M09 Q1033 NOSIG=
0080583670999992024012512304+31198+121336FM-15+000399999V0203501N004019999999Y009900599+00401-00901999999ADDMA1103301999999REMMET053METAR ZSSS 251230Z 35004MPS CAVOK 04/M09 Q1033 NOSIG=
0080583670999992024012513004+31198+121336FM-15+000399999V0203401N003019999999Y009900599+00301-00901999999ADDMA1103301999999REMMET053METAR ZSSS 251300Z 34003MPS CAVOK 03/M09 Q1033 NOSIG=
0080583670999992024012513304+31198+121336FM-15+000399999V0203301N003019999999Y009900599+00401-00901999999ADDMA1103401999999REMMET053METAR ZSSS 251330Z 33003MPS CAVOK 04/M09 Q1034 NOSIG=
0080583670999992024012514004+31198+121336FM-15+000399999V0203201N003019999999Y009900599+00301-00901999999ADDMA1103401999999REMMET053METAR ZSSS 251400Z 32003MPS CAVOK 03/M09 Q1034 NOSIG=
0088583670999992024012514304+31198+121336FM-15+000399999V0203001V002019999999Y009900599+00301-00901999999ADDMA1103401999999REMMET061METAR ZSSS 251430Z 30002MPS 290V040 CAVOK 03/M09 Q1034 NOSIG=
0080583670999992024012515004+31198+121336FM-15+000399999V0203601N002019999999Y009900599+00201-00801999999ADDMA1103401999999REMMET053METAR ZSSS 251500Z 36002MPS CAVOK 02/M08 Q1034 NOSIG=
0080583670999992024012515304+31198+121336FM-15+000399999V0203501N002019999999Y009900599+00201-00801999999ADDMA1103401999999REMMET053METAR ZSSS 251530Z 35002MPS CAVOK 02/M08 Q1034 NOSIG=
0080583670999992024012516004+31198+121336FM-15+000399999V0200101N002019999999Y009900599+00101-00801999999ADDMA1103401999999REMMET053METAR ZSSS 251600Z 01002MPS CAVOK 01/M08 Q1034 NOSIG=
0080583670999992024012516304+31198+121336FM-15+000399999V0200201N002019999999Y009900599+00101-00701999999ADDMA1103301999999REMMET053METAR ZSSS 251630Z 02002MPS CAVOK 01/M07 Q1033 NOSIG=
0080583670999992024012517004+31198+121336FM-15+000399999V0200201N001019999999Y009900599+00001-00701999999ADDMA1103301999999REMMET053METAR ZSSS 251700Z 02001MPS CAVOK 00/M07 Q1033 NOSIG=
0081583670999992024012517304+31198+121336FM-15+000399999V0209999V001019999999Y009900599-00101-00601999999ADDMA1103301999999REMMET054METAR ZSSS 251730Z VRB01MPS CAVOK M01/M06 Q1033 NOSIG=
0081583670999992024012518004+31198+121336FM-15+000399999V0209999C000019999999Y009900599+00001-00601999999ADDMA1103301999999REMMET054METAR ZSSS 251800Z 00000MPS CAVOK M00/M06 Q1033 NOSIG=
0081583670999992024012518304+31198+121336FM-15+000399999V0202501N001019999999Y009900599+00001-00501999999ADDMA1103301999999REMMET054METAR ZSSS 251830Z 25001MPS CAVOK M00/M05 Q1033 NOSIG=
0081583670999992024012519004+31198+121336FM-15+000399999V0209999V001019999999Y009900599-00101-00501999999ADDMA1103301999999REMMET054METAR ZSSS 251900Z VRB01MPS CAVOK M01/M05 Q1033 NOSIG=
0081583670999992024012519304+31198+121336FM-15+000399999V0202101N001019999999Y009900599-00101-00401999999ADDMA1103301999999REMMET054METAR ZSSS 251930Z 21001MPS CAVOK M01/M04 Q1033 NOSIG=
0081583670999992024012520004+31198+121336FM-15+000399999V0209999C000019999999Y009900599-00101-00501999999ADDMA1103301999999REMMET054METAR ZSSS 252000Z 00000MPS CAVOK M01/M05 Q1033 NOSIG=
0081583670999992024012520304+31198+121336FM-15+000399999V0201501N001019999999Y009900599-00201-00501999999ADDMA1103301999999REMMET054METAR ZSSS 252030Z 15001MPS CAVOK M02/M05 Q1033 NOSIG=
0081583670999992024012521004+31198+121336FM-15+000399999V0201901N001019999999Y009900599-00101-00501999999ADDMA1103301999999REMMET054METAR ZSSS 252100Z 19001MPS CAVOK M01/M05 Q1033 NOSIG=
0081583670999992024012521304+31198+121336FM-15+000399999V0202101N002019999999Y009900599-00201-00501999999ADDMA1103301999999REMMET054METAR ZSSS 252130Z 21002MPS CAVOK M02/M05 Q1033 NOSIG=
0081583670999992024012522004+31198+121336FM-15+000399999V0202101N001019999999Y009900599-00201-00501999999ADDMA1103301999999REMMET054METAR ZSSS 252200Z 21001MPS CAVOK M02/M05 Q1033 NOSIG=
0081583670999992024012522304+31198+121336FM-15+000399999V0201601N001019999999Y009900599-00201-00501999999ADDMA1103301999999REMMET054METAR ZSSS 252230Z 16001MPS CAVOK M02/M05 Q1033 NOSIG=
0110583670999992024012523004+31198+121336FM-15+000399999V0209999V001012200019N008000199+00001-00501999999ADDGF100991999999999999999999MA1103301999999REMMET057METAR ZSSS 252300Z VRB01MPS 8000 NSC M00/M05 Q1033 NOSIG=
0117583670999992024012523304+31198+121336FM-15+000399999V0202501V002012200019N008000199+00001-00501999999ADDGF100991999999999999999999MA1103401999999REMMET064METAR ZSSS 252330Z 25002MPS 230V290 8000 NSC 00/M05 Q1034 NOSIG=
0117583670999992024012600004+31198+121336FM-15+000399999V0202401V002012200019N008000199+00101-00401999999ADDGF100991999999999999999999MA1103401999999REMMET064METAR ZSSS 260000Z 24002MPS 200V340 8000 NSC 01/M04 Q1034 NOSIG=
0080583670999992024012600304+31198+121336FM-15+000399999V0209999V001019999999Y009900599+00301-00401999999ADDMA1103401999999REMMET053METAR ZSSS 260030Z VRB01MPS CAVOK 03/M04 Q1034 NOSIG=
0080583670999992024012601004+31198+121336FM-15+000399999V0209999V001019999999Y009900599+00401-00501999999ADDMA1103401999999REMMET053METAR ZSSS 260100Z VRB01MPS CAVOK 04/M05 Q1034 NOSIG=
0080583670999992024012601304+31198+121336FM-15+000399999V0209999V001019999999Y009900599+00501-00801999999ADDMA1103401999999REMMET053METAR ZSSS 260130Z VRB01MPS CAVOK 05/M08 Q1034 NOSIG=
0088583670999992024012602004+31198+121336FM-15+000399999V0202801V002019999999Y009900599+00701-00701999999ADDMA1103401999999REMMET061METAR ZSSS 260200Z 28002MPS 200V340 CAVOK 07/M07 Q1034 NOSIG=
0088583670999992024012602304+31198+121336FM-15+000399999V0202601V003019999999Y009900599+00701-00901999999ADDMA1103301999999REMMET061METAR ZSSS 260230Z 26003MPS 200V350 CAVOK 07/M09 Q1033 NOSIG=
0088583670999992024012603004+31198+121336FM-15+000399999V0203001V003019999999Y009900599+00701-00901999999ADDMA1103301999999REMMET061METAR ZSSS 260300Z 30003MPS 270V340 CAVOK 07/M09 Q1033 NOSIG=
0088583670999992024012603304+31198+121336FM-15+000399999V0203301V003019999999Y009900599+00801-00901999999ADDMA1103301999999REMMET061METAR ZSSS 260330Z 33003MPS 290V360 CAVOK 08/M09 Q1033 NOSIG=
0088583670999992024012604004+31198+121336FM-15+000399999V0202901V003019999999Y009900599+00801-01001999999ADDMA1103201999999REMMET061METAR ZSSS 260400Z 29003MPS 250V320 CAVOK 08/M10 Q1032 NOSIG=
0088583670999992024012604304+31198+121336FM-15+000399999V0203601V004019999999Y009900599+00801-00901999999ADDMA1103201999999REMMET061METAR ZSSS 260430Z 36004MPS 320V030 CAVOK 08/M09 Q1032 NOSIG=
0088583670999992024012605004+31198+121336FM-15+000399999V0203201V003019999999Y009900599+00801-00901999999ADDMA1103101999999REMMET061METAR ZSSS 260500Z 32003MPS 260V020 CAVOK 08/M09 Q1031 NOSIG=
0088583670999992024012605304+31198+121336FM-15+000399999V0203401V004019999999Y009900599+00801-00901999999ADDMA1103101999999REMMET061METAR ZSSS 260530Z 34004MPS 300V360 CAVOK 08/M09 Q1031 NOSIG=
0080583670999992024012606004+31198+121336FM-15+000399999V0203401N004019999999Y009900599+00901-00901999999ADDMA1103101999999REMMET053METAR ZSSS 260600Z 34004MPS CAVOK 09/M09 Q1031 NOSIG=
0088583670999992024012606304+31198+121336FM-15+000399999V0203501V003019999999Y009900599+00801-00901999999ADDMA1103101999999REMMET061METAR ZSSS 260630Z 35003MPS 290V060 CAVOK 08/M09 Q1031 NOSIG=
0088583670999992024012607004+31198+121336FM-15+000399999V0203501V005019999999Y009900599+00801-00901999999ADDMA1103101999999REMMET061METAR ZSSS 260700Z 35005MPS 320V020 CAVOK 08/M09 Q1031 NOSIG=
0088583670999992024012607304+31198+121336FM-15+000399999V0203301V004019999999Y009900599+00701-01001999999ADDMA1103101999999REMMET061METAR ZSSS 260730Z 33004MPS 300V360 CAVOK 07/M10 Q1031 NOSIG=
0088583670999992024012608004+31198+121336FM-15+000399999V0203001V004019999999Y009900599+00701-01001999999ADDMA1103201999999REMMET061METAR ZSSS 260800Z 30004MPS 270V360 CAVOK 07/M10 Q1032 NOSIG=
0088583670999992024012608304+31198+121336FM-15+000399999V0202801V004019999999Y009900599+00701-01001999999ADDMA1103101999999REMMET061METAR ZSSS 260830Z 28004MPS 250V320 CAVOK 07/M10 Q1031 NOSIG=
0080583670999992024012609004+31198+121336FM-15+000399999V0203401N004019999999Y009900599+00601-01001999999ADDMA1103101999999REMMET053METAR ZSSS 260900Z 34004MPS CAVOK 06/M10 Q1031 NOSIG=
0080583670999992024012609304+31198+121336FM-15+000399999V0203401N004019999999Y009900599+00601-00901999999ADDMA1103101999999REMMET053METAR ZSSS 260930Z 34004MPS CAVOK 06/M09 Q1031 NOSIG=
0080583670999992024012610004+31198+121336FM-15+000399999V0203401N003019999999Y009900599+00601-00901999999ADDMA1103101999999REMMET053METAR ZSSS 261000Z 34003MPS CAVOK 06/M09 Q1031 NOSIG=
0088583670999992024012610304+31198+121336FM-15+000399999V0203301V003019999999Y009900599+00601-00801999999ADDMA1103201999999REMMET061METAR ZSSS 261030Z 33003MPS 290V350 CAVOK 06/M08 Q1032 NOSIG=
0080583670999992024012611004+31198+121336FM-15+000399999V0203301N003019999999Y009900599+00601-00901999999ADDMA1103201999999REMMET053METAR ZSSS 261100Z 33003MPS CAVOK 06/M09 Q1032 NOSIG=
0080583670999992024012611304+31198+121336FM-15+000399999V0203301N004019999999Y009900599+00601-00801999999ADDMA1103201999999REMMET053METAR ZSSS 261130Z 33004MPS CAVOK 06/M08 Q1032 NOSIG=
0080583670999992024012612004+31198+121336FM-15+000399999V0203201N004019999999Y009900599+00601-00801999999ADDMA1103201999999REMMET053METAR ZSSS 261200Z 32004MPS CAVOK 06/M08 Q1032 NOSIG=
0088583670999992024012612304+31198+121336FM-15+000399999V0203201V003019999999Y009900599+00501-00701999999ADDMA1103201999999REMMET061METAR ZSSS 261230Z 32003MPS 290V360 CAVOK 05/M07 Q1032 NOSIG=
0080583670999992024012613004+31198+121336FM-15+000399999V0203201N003019999999Y009900599+00501-00701999999ADDMA1103201999999REMMET053METAR ZSSS 261300Z 32003MPS CAVOK 05/M07 Q1032 NOSIG=
0080583670999992024012613304+31198+121336FM-15+000399999V0203301N003019999999Y009900599+00601-00701999999ADDMA1103201999999REMMET053METAR ZSSS 261330Z 33003MPS CAVOK 06/M07 Q1032 NOSIG=
0088583670999992024012614004+31198+121336FM-15+000399999V0203201V003019999999Y009900599+00501-00701999999ADDMA1103201999999REMMET061METAR ZSSS 261400Z 32003MPS 290V350 CAVOK 05/M07 Q1032 NOSIG=
0088583670999992024012614304+31198+121336FM-15+000399999V0203201V003019999999Y009900599+00501-00701999999ADDMA1103201999999REMMET061METAR ZSSS 261430Z 32003MPS 300V360 CAVOK 05/M07 Q1032 NOSIG=
0080583670999992024012615004+31198+121336FM-15+000399999V0203601N003019999999Y009900599+00501-00601999999ADDMA1103201999999REMMET053METAR ZSSS 261500Z 36003MPS CAVOK 05/M06 Q1032 NOSIG=
0080583670999992024012615304+31198+121336FM-15+000399999V0203501N003019999999Y009900599+00401-00701999999ADDMA1103101999999REMMET053METAR ZSSS 261530Z 35003MPS CAVOK 04/M07 Q1031 NOSIG=
0080583670999992024012616004+31198+121336FM-15+000399999V0203501N002019999999Y009900599+00301-00601999999ADDMA1103101999999REMMET053METAR ZSSS 261600Z 35002MPS CAVOK 03/M06 Q1031 NOSIG=
0080583670999992024012616304+31198+121336FM-15+000399999V0209999V001019999999Y009900599+00401-00701999999ADDMA1103201999999REMMET053METAR ZSSS 261630Z VRB01MPS CAVOK 04/M07 Q1032 NOSIG=
0080583670999992024012617004+31198+121336FM-15+000399999V0209999C000019999999Y009900599+00301-00601999999ADDMA1103101999999REMMET053METAR ZSSS 261700Z 00000MPS CAVOK 03/M06 Q1031 NOSIG=
0080583670999992024012617304+31198+121336FM-15+000399999V0209999C000019999999Y009900599+00201-00501999999ADDMA1103101999999REMMET053METAR ZSSS 261730Z 00000MPS CAVOK 02/M05 Q1031 NOSIG=
0080583670999992024012618004+31198+121336FM-15+000399999V0203401N001019999999Y009900599+00201-00501999999ADDMA1103101999999REMMET053METAR ZSSS 261800Z 34001MPS CAVOK 02/M05 Q1031 NOSIG=
0080583670999992024012618304+31198+121336FM-15+000399999V0209999V001019999999Y009900599+00201-00501999999ADDMA1103101999999REMMET053METAR ZSSS 261830Z VRB01MPS CAVOK 02/M05 Q1031 NOSIG=
0080583670999992024012619004+31198+121336FM-15+000399999V0209999V001019999999Y009900599+00201-00501999999ADDMA1103101999999REMMET053METAR ZSSS 261900Z VRB01MPS CAVOK 02/M05 Q1031 NOSIG=
0080583670999992024012619304+31198+121336FM-15+000399999V0209999C000019999999Y009900599+00101-00401999999ADDMA1103101999999REMMET053METAR ZSSS 261930Z 00000MPS CAVOK 01/M04 Q1031 NOSIG=
0080583670999992024012620004+31198+121336FM-15+000399999V0203601N002019999999Y009900599+00001-00601999999ADDMA1103101999999REMMET053METAR ZSSS 262000Z 36002MPS CAVOK 00/M06 Q1031 NOSIG=
0080583670999992024012620304+31198+121336FM-15+000399999V0209999C000019999999Y009900599+00101-00501999999ADDMA1103101999999REMMET053METAR ZSSS 262030Z 00000MPS CAVOK 01/M05 Q1031 NOSIG=
0080583670999992024012621004+31198+121336FM-15+000399999V0200201N001019999999Y009900599+00001-00601999999ADDMA1103101999999REMMET053METAR ZSSS 262100Z 02001MPS CAVOK 00/M06 Q1031 NOSIG=
0081583670999992024012621304+31198+121336FM-15+000399999V0203601N002019999999Y009900599+00001-00501999999ADDMA1103101999999REMMET054METAR ZSSS 262130Z 36002MPS CAVOK M00/M05 Q1031 NOSIG=
0080583670999992024012622004+31198+121336FM-15+000399999V0209999V001019999999Y009900599+00001-00501999999ADDMA1103201999999REMMET053METAR ZSSS 262200Z VRB01MPS CAVOK 00/M05 Q1032 NOSIG=
0080583670999992024012622304+31198+121336FM-15+000399999V0203301N002019999999Y009900599+00101-00501999999ADDMA1103201999999REMMET053METAR ZSSS 262230Z 33002MPS CAVOK 01/M05 Q1032 NOSIG=
0081583670999992024012623004+31198+121336FM-15+000399999V0203601N002019999999Y009900599+00001-00401999999ADDMA1103201999999REMMET054METAR ZSSS 262300Z 36002MPS CAVOK M00/M04 Q1032 NOSIG=
0080583670999992024012623304+31198+121336FM-15+000399999V0209999V001019999999Y009900599+00201-00501999999ADDMA1103301999999REMMET053METAR ZSSS 262330Z VRB01MPS CAVOK 02/M05 Q1033 NOSIG=
0080583670999992024012700004+31198+121336FM-15+000399999V0209999V001019999999Y009900599+00301-00301999999ADDMA1103201999999REMMET053METAR ZSSS 270000Z VRB01MPS CAVOK 03/M03 Q1032 NOSIG=
0109583670999992024012700304+31198+121336FM-15+000399999V0209999C000012200019N007000199+00501-00401999999ADDGF100991999999999999999999MA1103201999999REMMET056METAR ZSSS 270030Z 00000MPS 7000 NSC 05/M04 Q1032 NOSIG=
0117583670999992024012701004+31198+121336FM-15+000399999V0203401V003012200019N008000199+00601-00501999999ADDGF100991999999999999999999MA1103301999999REMMET064METAR ZSSS 270100Z 34003MPS 310V010 8000 NSC 06/M05 Q1033 NOSIG=
0117583670999992024012701304+31198+121336FM-15+000399999V0203401V003012200019N008000199+00601-00501999999ADDGF100991999999999999999999MA1103301999999REMMET064METAR ZSSS 270130Z 34003MPS 310V010 8000 NSC 06/M05 Q1033 NOSIG=
0117583670999992024012702004+31198+121336FM-15+000399999V0203301V002012200019N008000199+00601-00601999999ADDGF100991999999999999999999MA1103301999999REMMET064METAR ZSSS 270200Z 33002MPS 270V030 8000 NSC 06/M06 Q1033 NOSIG=
0117583670999992024012702304+31198+121336FM-15+000399999V0203501V002012200019N008000199+00601-00601999999ADDGF100991999999999999999999MA1103201999999REMMET064METAR ZSSS 270230Z 35002MPS 310V010 8000 NSC 06/M06 Q1032 NOSIG=
0117583670999992024012703004+31198+121336FM-15+000399999V0203501V003012200019N008000199+00601-00601999999ADDGF100991999999999999999999MA1103101999999REMMET064METAR ZSSS 270300Z 35003MPS 320V020 8000 NSC 06/M06 Q1031 NOSIG=
0117583670999992024012703304+31198+121336FM-15+000399999V0203601V002012200019N009000199+00601-00701999999ADDGF100991999999999999999999MA1103101999999REMMET064METAR ZSSS 270330Z 36002MPS 330V040 9000 NSC 06/M07 Q1031 NOSIG=
0117583670999992024012704004+31198+121336FM-15+000399999V0203001V003012200019N009000199+00701-00701999999ADDGF100991999999999999999999MA1103101999999REMMET064METAR ZSSS 270400Z 30003MPS 260V350 9000 NSC 07/M07 Q1031 NOSIG=
0117583670999992024012704304+31198+121336FM-15+000399999V0203301V003012200019N009000199+00701-00701999999ADDGF100991999999999999999999MA1103101999999REMMET064METAR ZSSS 270430Z 33003MPS 290V360 9000 NSC 07/M07 Q1031 NOSIG=
0117583670999992024012705004+31198+121336FM-15+000399999V0202901V003012200019N009000199+00701-00701999999ADDGF100991999999999999999999MA1103001999999REMMET064METAR ZSSS 270500Z 29003MPS 250V360 9000 NSC 07/M07 Q1030 NOSIG=
0117583670999992024012705304+31198+121336FM-15+000399999V0203101V003012200019N009000199+00701-00701999999ADDGF100991999999999999999999MA1103001999999REMMET064METAR ZSSS 270530Z 31003MPS 230V360 9000 NSC 07/M07 Q1030 NOSIG=
0117583670999992024012706004+31198+121336FM-15+000399999V0203201V004012200019N009000199+00701-00801999999ADDGF100991999999999999999999MA1102901999999REMMET064METAR ZSSS 270600Z 32004MPS 270V360 9000 NSC 07/M08 Q1029 NOSIG=
0117583670999992024012706304+31198+121336FM-15+000399999V0203501V004012200019N009000199+00801-00701999999ADDGF100991999999999999999999MA1103001999999REMMET064METAR ZSSS 270630Z 35004MPS 310V010 9000 NSC 08/M07 Q1030 NOSIG=
0117583670999992024012707004+31198+121336FM-15+000399999V0203501V004012200019N009000199+00701-00801999999ADDGF100991999999999999999999MA1102901999999REMMET064METAR ZSSS 270700Z 35004MPS 320V020 9000 NSC 07/M08 Q1029 NOSIG=
0117583670999992024012707304+31198+121336FM-15+000399999V0203101V003012200019N009000199+00701-00801999999ADDGF100991999999999999999999MA1103001999999REMMET064METAR ZSSS 270730Z 31003MPS 280V350 9000 NSC 07/M08 Q1030 NOSIG=
0109583670999992024012708004+31198+121336FM-15+000399999V0203101N004012200019N009000199+00701-00801999999ADDGF100991999999999999999999MA1103001999999REMMET056METAR ZSSS 270800Z 31004MPS 9000 NSC 07/M08 Q1030 NOSIG=
0117583670999992024012708304+31198+121336FM-15+000399999V0203201V004012200019N009000199+00701-00801999999ADDGF100991999999999999999999MA1103001999999REMMET064METAR ZSSS 270830Z 32004MPS 290V360 9000 NSC 07/M08 Q1030 NOSIG=
0109583670999992024012709004+31198+121336FM-15+000399999V0203501N004012200019N009000199+00601-00701999999ADDGF100991999999999999999999MA1103001999999REMMET056METAR ZSSS 270900Z 35004MPS 9000 NSC 06/M07 Q1030 NOSIG=
0117583670999992024012709304+31198+121336FM-15+000399999V0203101V003012200019N009000199+00601-00701999999ADDGF100991999999999999999999MA1103001999999REMMET064METAR ZSSS 270930Z 31003MPS 290V350 9000 NSC 06/M07 Q1030 NOSIG=
0117583670999992024012710004+31198+121336FM-15+000399999V0203001V003012200019N009000199+00601-00801999999ADDGF100991999999999999999999MA1103001999999REMMET064METAR ZSSS 271000Z 30003MPS 280V340 9000 NSC 06/M08 Q1030 NOSIG=
0088583670999992024012710304+31198+121336FM-15+000399999V0202901V003019999999Y009900599+00601-00701999999ADDMA1103101999999REMMET061METAR ZSSS 271030Z 29003MPS 260V340 CAVOK 06/M07 Q1031 NOSIG=
0088583670999992024012711004+31198+121336FM-15+000399999V0202701V002019999999Y009900599+00601-00701999999ADDMA1103101999999REMMET061METAR ZSSS 271100Z 27002MPS 240V330 CAVOK 06/M07 Q1031 NOSIG=
0088583670999992024012711304+31198+121336FM-15+000399999V0202801V002019999999Y009900599+00501-00701999999ADDMA1103101999999REMMET061METAR ZSSS 271130Z 28002MPS 250V340 CAVOK 05/M07 Q1031 NOSIG=
0088583670999992024012712004+31198+121336FM-15+000399999V0202801V002019999999Y009900599+00501-00701999999ADDMA1103101999999REMMET061METAR ZSSS 271200Z 28002MPS 250V320 CAVOK 05/M07 Q1031 NOSIG=
0088583670999992024012712304+31198+121336FM-15+000399999V0202701V002019999999Y009900599+00501-00601999999ADDMA1103101999999REMMET061METAR ZSSS 271230Z 27002MPS 240V330 CAVOK 05/M06 Q1031 NOSIG=
0117583670999992024012713004+31198+121336FM-15+000399999V0202801V002012200019N009000199+00401-00601999999ADDGF100991999999999999999999MA1103101999999REMMET064METAR ZSSS 271300Z 28002MPS 260V320 9000 NSC 04/M06 Q1031 NOSIG=
0117583670999992024012713304+31198+121336FM-15+000399999V0202901V003012200019N009000199+00401-00601999999ADDGF100991999999999999999999MA1103101999999REMMET064METAR ZSSS 271330Z 29003MPS 270V330 9000 NSC 04/M06 Q1031 NOSIG=
0117583670999992024012714004+31198+121336FM-15+000399999V0203001V003012200019N008000199+00401-00601999999ADDGF100991999999999999999999MA1103101999999REMMET064METAR ZSSS 271400Z 30003MPS 280V340 8000 NSC 04/M06 Q1031 NOSIG=
0109583670999992024012714304+31198+121336FM-15+000399999V0203001N003012200019N008000199+00401-00601999999ADDGF100991999999999999999999MA1103101999999REMMET056METAR ZSSS 271430Z 30003MPS 8000 NSC 04/M06 Q1031 NOSIG=
0117583670999992024012715004+31198+121336FM-15+000399999V0203101V003012200019N008000199+00401-00601999999ADDGF100991999999999999999999MA1103201999999REMMET064METAR ZSSS 271500Z 31003MPS 280V350 8000 NSC 04/M06 Q1032 NOSIG=
0109583670999992024012715304+31198+121336FM-15+000399999V0202801N002012200019N008000199+00301-00601999999ADDGF100991999999999999999999MA1103201999999REMMET056METAR ZSSS 271530Z 28002MPS 8000 NSC 03/M06 Q1032 NOSIG=
0109583670999992024012716004+31198+121336FM-15+000399999V0202701N002012200019N008000199+00301-00501999999ADDGF100991999999999999999999MA1103201999999REMMET056METAR ZSSS 271600Z 27002MPS 8000 NSC 03/M05 Q1032 NOSIG=
0109583670999992024012716304+31198+121336FM-15+000399999V0202701N002012200019N008000199+00301-00601999999ADDGF100991999999999999999999MA1103201999999REMMET056METAR ZSSS 271630Z 27002MPS 8000 NSC 03/M06 Q1032 NOSIG=
0109583670999992024012717004+31198+121336FM-15+000399999V0209999V001012200019N007000199+00101-00501999999ADDGF100991999999999999999999MA1103201999999REMMET056METAR ZSSS 271700Z VRB01MPS 7000 NSC 01/M05 Q1032 NOSIG=
0109583670999992024012717304+31198+121336FM-15+000399999V0209999C000012200019N007000199+00101-00501999999ADDGF100991999999999999999999MA1103201999999REMMET056METAR ZSSS 271730Z 00000MPS 7000 NSC 01/M05 Q1032 NOSIG=
0109583670999992024012718004+31198+121336FM-15+000399999V0209999C000012200019N007000199+00001-00501999999ADDGF100991999999999999999999MA1103201999999REMMET056METAR ZSSS 271800Z 00000MPS 7000 NSC 00/M05 Q1032 NOSIG=
0110583670999992024012718304+31198+121336FM-15+000399999V0202201N002012200019N007000199+00001-00401999999ADDGF100991999999999999999999MA1103201999999REMMET057METAR ZSSS 271830Z 22002MPS 7000 NSC M00/M04 Q1032 NOSIG=
0109583670999992024012719004+31198+121336FM-15+000399999V0201901N002012200019N007000199+00101-00401999999ADDGF100991999999999999999999MA1103201999999REMMET056METAR ZSSS 271900Z 19002MPS 7000 NSC 01/M04 Q1032 NOSIG=
0109583670999992024012719304+31198+121336FM-15+000399999V0202001N002012200019N007000199+00001-00401999999ADDGF100991999999999999999999MA1103101999999REMMET056METAR ZSSS 271930Z 20002MPS 7000 NSC 00/M04 Q1031 NOSIG=
0109583670999992024012720004+31198+121336FM-15+000399999V0202001N002012200019N007000199+00101-00401999999ADDGF100991999999999999999999MA1103101999999REMMET056METAR ZSSS 272000Z 20002MPS 7000 NSC 01/M04 Q1031 NOSIG=
0110583670999992024012720304+31198+121336FM-15+000399999V0202101N002012200019N007000199+00001-00401999999ADDGF100991999999999999999999MA1103101999999REMMET057METAR ZSSS 272030Z 21002MPS 7000 NSC M00/M04 Q1031 NOSIG=
0109583670999992024012721004+31198+121336FM-15+000399999V0201901N001012200019N007000199+00001-00401999999ADDGF100991999999999999999999MA1103101999999REMMET056METAR ZSSS 272100Z 19001MPS 7000 NSC 00/M04 Q1031 NOSIG=
0109583670999992024012721304+31198+121336FM-15+000399999V0201901N002012200019N007000199+00001-00401999999ADDGF100991999999999999999999MA1103101999999REMMET056METAR ZSSS 272130Z 19002MPS 7000 NSC 00/M04 Q1031 NOSIG=
0110583670999992024012722004+31198+121336FM-15+000399999V0202101N002012200019N007000199+00001-00301999999ADDGF100991999999999999999999MA1103201999999REMMET057METAR ZSSS 272200Z 21002MPS 7000 NSC M00/M03 Q1032 NOSIG=
0110583670999992024012722304+31198+121336FM-15+000399999V0209999V001012200019N007000199-00101-00401999999ADDGF100991999999999999999999MA1103201999999REMMET057METAR ZSSS 272230Z VRB01MPS 7000 NSC M01/M04 Q1032 NOSIG=
0110583670999992024012723004+31198+121336FM-15+000399999V0209999V001012200019N006000199-00101-00401999999ADDGF100991999999999999999999MA1103201999999REMMET057METAR ZSSS 272300Z VRB01MPS 6000 NSC M01/M04 Q1032 NOSIG=
0118583670999992024012723304+31198+121336FM-15+000399999V0209999V001012200019N005000199+00001-00301999999ADDGF100991999999999999999999MA1103301999999MW1101REMMET059METAR ZSSS 272330Z VRB01MPS 5000 BR NSC 00/M03 Q1033 NOSIG=
0126583670999992024012800004+31198+121336FM-15+000399999V0202301V002012200019N005000199+00101-00301999999ADDGF100991999999999999999999MA1103301999999MW1101REMMET067METAR ZSSS 280000Z 23002MPS 180V300 5000 BR NSC 01/M03 Q1033 NOSIG=
0126583670999992024012800304+31198+121336FM-15+000399999V0202401V002012200019N005000199+00201-00201999999ADDGF100991999999999999999999MA1103401999999MW1051REMMET067METAR ZSSS 280030Z 24002MPS 200V320 5000 HZ NSC 02/M02 Q1034 NOSIG=
0117583670999992024012801004+31198+121336FM-15+000399999V0202601V002012200019N006000199+00401-00201999999ADDGF100991999999999999999999MA1103401999999REMMET064METAR ZSSS 280100Z 26002MPS 220V310 6000 NSC 04/M02 Q1034 NOSIG=
0117583670999992024012801304+31198+121336FM-15+000399999V0202701V002012200019N007000199+00501-00301999999ADDGF100991999999999999999999MA1103401999999REMMET064METAR ZSSS 280130Z 27002MPS 220V320 7000 NSC 05/M03 Q1034 NOSIG=
0117583670999992024012802004+31198+121336FM-15+000399999V0203001V002012200019N007000199+00701-00301999999ADDGF100991999999999999999999MA1103401999999REMMET064METAR ZSSS 280200Z 30002MPS 270V010 7000 NSC 07/M03 Q1034 NOSIG=
0117583670999992024012802304+31198+121336FM-15+000399999V0203001V002012200019N007000199+00801-00301999999ADDGF100991999999999999999999MA1103401999999REMMET064METAR ZSSS 280230Z 30002MPS 260V330 7000 NSC 08/M03 Q1034 NOSIG=
0109583670999992024012803004+31198+121336FM-15+000399999V0203201N003012200019N008000199+00901-00301999999ADDGF100991999999999999999999MA1103301999999REMMET056METAR ZSSS 280300Z 32003MPS 8000 NSC 09/M03 Q1033 NOSIG=
0117583670999992024012803304+31198+121336FM-15+000399999V0203101V003012200019N008000199+01001-00401999999ADDGF100991999999999999999999MA1103301999999REMMET064METAR ZSSS 280330Z 31003MPS 270V360 8000 NSC 10/M04 Q1033 NOSIG=
0117583670999992024012804004+31198+121336FM-15+000399999V0203101V003012200019N008000199+01001-00501999999ADDGF100991999999999999999999MA1103301999999REMMET064METAR ZSSS 280400Z 31003MPS 280V350 8000 NSC 10/M05 Q1033 NOSIG=
0088583670999992024012804304+31198+121336FM-15+000399999V0203101V003019999999Y009900599+01001-00501999999ADDMA1103201999999REMMET061METAR ZSSS 280430Z 31003MPS 270V010 CAVOK 10/M05 Q1032 NOSIG=
0088583670999992024012805004+31198+121336FM-15+000399999V0203501V004019999999Y009900599+01001-00601999999ADDMA1103101999999REMMET061METAR ZSSS 280500Z 35004MPS 320V020 CAVOK 10/M06 Q1031 NOSIG=
0088583670999992024012805304+31198+121336FM-15+000399999V0203301V004019999999Y009900599+01101-00701999999ADDMA1103101999999REMMET061METAR ZSSS 280530Z 33004MPS 260V010 CAVOK 11/M07 Q1031 NOSIG=
0080583670999992024012806004+31198+121336FM-15+000399999V0209999V002019999999Y009900599+01101-00701999999ADDMA1103101999999REMMET053METAR ZSSS 280600Z VRB02MPS CAVOK 11/M07 Q1031 NOSIG=
0080583670999992024012806304+31198+121336FM-15+000399999V0209999V002019999999Y009900599+01101-00801999999ADDMA1103101999999REMMET053METAR ZSSS 280630Z VRB02MPS CAVOK 11/M08 Q1031 NOSIG=
0088583670999992024012807004+31198+121336FM-15+000399999V0203401V003019999999Y009900599+01201-00701999999ADDMA1103001999999REMMET061METAR ZSSS 280700Z 34003MPS 300V040 CAVOK 12/M07 Q1030 NOSIG=
0088583670999992024012807304+31198+121336FM-15+000399999V0203201V003019999999Y009900599+01101-00801999999ADDMA1103001999999REMMET061METAR ZSSS 280730Z 32003MPS 270V010 CAVOK 11/M08 Q1030 NOSIG=
0080583670999992024012808004+31198+121336FM-15+000399999V0203101N003019999999Y009900599+01101-00701999999ADDMA1103001999999REMMET053METAR ZSSS 280800Z 31003MPS CAVOK 11/M07 Q1030 NOSIG=
0088583670999992024012808304+31198+121336FM-15+000399999V0200101V002019999999Y009900599+01001-00801999999ADDMA1103101999999REMMET061METAR ZSSS 280830Z 01002MPS 340V110 CAVOK 10/M08 Q1031 NOSIG=
0088583670999992024012809004+31198+121336FM-15+000399999V0203301V002019999999Y009900599+00901-00701999999ADDMA1103101999999REMMET061METAR ZSSS 280900Z 33002MPS 280V350 CAVOK 09/M07 Q1031 NOSIG=
0088583670999992024012809304+31198+121336FM-15+000399999V0203201V003019999999Y009900599+00901-00701999999ADDMA1103101999999REMMET061METAR ZSSS 280930Z 32003MPS 290V360 CAVOK 09/M07 Q1031 NOSIG=
0080583670999992024012810004+31198+121336FM-15+000399999V0200201N003019999999Y009900599+00801-00501999999ADDMA1103101999999REMMET053METAR ZSSS 281000Z 02003MPS CAVOK 08/M05 Q1031 NOSIG=
0080583670999992024012810304+31198+121336FM-15+000399999V0200601N002019999999Y009900599+00801-00501999999ADDMA1103101999999REMMET053METAR ZSSS 281030Z 06002MPS CAVOK 08/M05 Q1031 NOSIG=
0080583670999992024012811004+31198+121336FM-15+000399999V0201401N003019999999Y009900599+00701-00301999999ADDMA1103201999999REMMET053METAR ZSSS 281100Z 14003MPS CAVOK 07/M03 Q1032 NOSIG=
0080583670999992024012811304+31198+121336FM-15+000399999V0201401N003019999999Y009900599+00701-00301999999ADDMA1103201999999REMMET053METAR ZSSS 281130Z 14003MPS CAVOK 07/M03 Q1032 NOSIG=
0080583670999992024012812004+31198+121336FM-15+000399999V0201501N003019999999Y009900599+00601-00301999999ADDMA1103201999999REMMET053METAR ZSSS 281200Z 15003MPS CAVOK 06/M03 Q1032 NOSIG=
0109583670999992024012812304+31198+121336FM-15+000399999V0201401N003012200019N008000199+00501-00301999999ADDGF100991999999999999999999MA1103201999999REMMET056METAR ZSSS 281230Z 14003MPS 8000 NSC 05/M03 Q1032 NOSIG=
0109583670999992024012813004+31198+121336FM-15+000399999V0201301N002012200019N008000199+00601-00201999999ADDGF100991999999999999999999MA1103201999999REMMET056METAR ZSSS 281300Z 13002MPS 8000 NSC 06/M02 Q1032 NOSIG=
0109583670999992024012813304+31198+121336FM-15+000399999V0201401N003012200019N008000199+00501-00201999999ADDGF100991999999999999999999MA1103201999999REMMET056METAR ZSSS 281330Z 14003MPS 8000 NSC 05/M02 Q1032 NOSIG=
0109583670999992024012814004+31198+121336FM-15+000399999V0201401N003012200019N008000199+00501-00101999999ADDGF100991999999999999999999MA1103201999999REMMET056METAR ZSSS 281400Z 14003MPS 8000 NSC 05/M01 Q1032 NOSIG=
0109583670999992024012814304+31198+121336FM-15+000399999V0201301N002012200019N007000199+00501-00101999999ADDGF100991999999999999999999MA1103201999999REMMET056METAR ZSSS 281430Z 13002MPS 7000 NSC 05/M01 Q1032 NOSIG=
0109583670999992024012815004+31198+121336FM-15+000399999V0209999V001012200019N007000199+00501-00101999999ADDGF100991999999999999999999MA1103201999999REMMET056METAR ZSSS 281500Z VRB01MPS 7000 NSC 05/M01 Q1032 NOSIG=
0109583670999992024012815304+31198+121336FM-15+000399999V0209999V001012200019N007000199+00401-00101999999ADDGF100991999999999999999999MA1103201999999REMMET056METAR ZSSS 281530Z VRB01MPS 7000 NSC 04/M01 Q1032 NOSIG=
0109583670999992024012816004+31198+121336FM-15+000399999V0201801N001012200019N006000199+00401-00101999999ADDGF100991999999999999999999MA1103201999999REMMET056METAR ZSSS 281600Z 18001MPS 6000 NSC 04/M01 Q1032 NOSIG=
0109583670999992024012816304+31198+121336FM-15+000399999V0201601N002012200019N006000199+00401-00101999999ADDGF100991999999999999999999MA1103201999999REMMET056METAR ZSSS 281630Z 16002MPS 6000 NSC 04/M01 Q1032 NOSIG=
0109583670999992024012817004+31198+121336FM-15+000399999V0201701N002012200019N006000199+00301-00101999999ADDGF100991999999999999999999MA1103101999999REMMET056METAR ZSSS 281700Z 17002MPS 6000 NSC 03/M01 Q1031 NOSIG=
0109583670999992024012817304+31198+121336FM-15+000399999V0201601N002012200019N006000199+00401-00101999999ADDGF100991999999999999999999MA1103101999999REMMET056METAR ZSSS 281730Z 16002MPS 6000 NSC 04/M01 Q1031 NOSIG=
0109583670999992024012818004+31198+121336FM-15+000399999V0209999V001012200019N006000199+00401-00101999999ADDGF100991999999999999999999MA1103101999999REMMET056METAR ZSSS 281800Z VRB01MPS 6000 NSC 04/M01 Q1031 NOSIG=
0109583670999992024012818304+31198+121336FM-15+000399999V0201501N002012200019N007000199+00401-00101999999ADDGF100991999999999999999999MA1103101999999REMMET056METAR ZSSS 281830Z 15002MPS 7000 NSC 04/M01 Q1031 NOSIG=
0109583670999992024012819004+31198+121336FM-15+000399999V0201401N002012200019N008000199+00401-00101999999ADDGF100991999999999999999999MA1103101999999REMMET056METAR ZSSS 281900Z 14002MPS 8000 NSC 04/M01 Q1031 NOSIG=
0109583670999992024012819304+31198+121336FM-15+000399999V0201301N003012200019N008000199+00401-00201999999ADDGF100991999999999999999999MA1103001999999REMMET056METAR ZSSS 281930Z 13003MPS 8000 NSC 04/M02 Q1030 NOSIG=
0109583670999992024012820004+31198+121336FM-15+000399999V0201301N003012200019N008000199+00501-00201999999ADDGF100991999999999999999999MA1103001999999REMMET056METAR ZSSS 282000Z 13003MPS 8000 NSC 05/M02 Q1030 NOSIG=
0109583670999992024012820304+31198+121336FM-15+000399999V0201301N002012200019N008000199+00501-00201999999ADDGF100991999999999999999999MA1103001999999REMMET056METAR ZSSS 282030Z 13002MPS 8000 NSC 05/M02 Q1030 NOSIG=
0109583670999992024012821004+31198+121336FM-15+000399999V0201201N002012200019N008000199+00501-00201999999ADDGF100991999999999999999999MA1103001999999REMMET056METAR ZSSS 282100Z 12002MPS 8000 NSC 05/M02 Q1030 NOSIG=
0109583670999992024012821304+31198+121336FM-15+000399999V0201101N002012200019N008000199+00501-00201999999ADDGF100991999999999999999999MA1103001999999REMMET056METAR ZSSS 282130Z 11002MPS 8000 NSC 05/M02 Q1030 NOSIG=
0117583670999992024012822004+31198+121336FM-15+000399999V0201201V002012200019N008000199+00501-00301999999ADDGF100991999999999999999999MA1103001999999REMMET064METAR ZSSS 282200Z 12002MPS 100V160 8000 NSC 05/M03 Q1030 NOSIG=
0109583670999992024012822304+31198+121336FM-15+000399999V0201401N003012200019N008000199+00401-00201999999ADDGF100991999999999999999999MA1103001999999REMMET056METAR ZSSS 282230Z 14003MPS 8000 NSC 04/M02 Q1030 NOSIG=
0109583670999992024012823004+31198+121336FM-15+000399999V0201201N002012200019N008000199+00401-00301999999ADDGF100991999999999999999999MA1103101999999REMMET056METAR ZSSS 282300Z 12002MPS 8000 NSC 04/M03 Q1031 NOSIG=
0109583670999992024012823304+31198+121336FM-15+000399999V0201001N002012200019N008000199+00501-00301999999ADDGF100991999999999999999999MA1103001999999REMMET056METAR ZSSS 282330Z 10002MPS 8000 NSC 05/M03 Q1030 NOSIG=
0117583670999992024012900004+31198+121336FM-15+000399999V0201101V002012200019N008000199+00601-00301999999ADDGF100991999999999999999999MA1103001999999REMMET064METAR ZSSS 290000Z 11002MPS 040V130 8000 NSC 06/M03 Q1030 NOSIG=
0117583670999992024012900304+31198+121336FM-15+000399999V0201001V002012200019N008000199+00701-00301999999ADDGF100991999999999999999999MA1103101999999REMMET064METAR ZSSS 290030Z 10002MPS 070V130 8000 NSC 07/M03 Q1031 NOSIG=
0117583670999992024012901004+31198+121336FM-15+000399999V0201101V003012200019N008000199+00701-00301999999ADDGF100991999999999999999999MA1103101999999REMMET064METAR ZSSS 290100Z 11003MPS 090V150 8000 NSC 07/M03 Q1031 NOSIG=
0109583670999992024012901304+31198+121336FM-15+000399999V0201201N004012200019N008000199+00801-00301999999ADDGF100991999999999999999999MA1103001999999REMMET056METAR ZSSS 290130Z 12004MPS 8000 NSC 08/M03 Q1030 NOSIG=
0109583670999992024012902004+31198+121336FM-15+000399999V0201301N004012200019N008000199+00901-00201999999ADDGF100991999999999999999999MA1103001999999REMMET056METAR ZSSS 290200Z 13004MPS 8000 NSC 09/M02 Q1030 NOSIG=
0109583670999992024012902304+31198+121336FM-15+000399999V0201401N005012200019N008000199+00901-00101999999ADDGF100991999999999999999999MA1103101999999REMMET056METAR ZSSS 290230Z 14005MPS 8000 NSC 09/M01 Q1031 NOSIG=
0117583670999992024012903004+31198+121336FM-15+000399999V0201301V003012200019N008000199+00901-00101999999ADDGF100991999999999999999999MA1103001999999REMMET064METAR ZSSS 290300Z 13003MPS 100V170 8000 NSC 09/M01 Q1030 NOSIG=
0117583670999992024012903304+31198+121336FM-15+000399999V0201201V005012200019N007000199+01001-00101999999ADDGF100991999999999999999999MA1103001999999REMMET064METAR ZSSS 290330Z 12005MPS 100V160 7000 NSC 10/M01 Q1030 NOSIG=
0116583670999992024012904004+31198+121336FM-15+000399999V0201301V005012200019N007000199+01001+00001999999ADDGF100991999999999999999999MA1102901999999REMMET063METAR ZSSS 290400Z 13005MPS 100V160 7000 NSC 10/00 Q1029 NOSIG=
0108583670999992024012904304+31198+121336FM-15+000399999V0201401N005012200019N006000199+01001+00101999999ADDGF100991999999999999999999MA1102901999999REMMET055METAR ZSSS 290430Z 14005MPS 6000 NSC 10/01 Q1029 NOSIG=
0116583670999992024012905004+31198+121336FM-15+000399999V0201201V004012200019N006000199+01101+00101999999ADDGF100991999999999999999999MA1102801999999REMMET063METAR ZSSS 290500Z 12004MPS 100V160 6000 NSC 11/01 Q1028 NOSIG=
0149583670999992024012905304+31198+121336FM-15+000399999V0201301N005019999999N006000199+01101+00101999999ADDGA1021+010061999GE19AGL   +99999+99999GF199999021999010061999999MA1102801999999REMMET058METAR ZSSS 290530Z 13005MPS 6000 FEW033 11/01 Q1028 NOSIG=
0157583670999992024012906004+31198+121336FM-15+000399999V0201301V004019999999N006000199+01101+00101999999ADDGA1021+010061999GE19AGL   +99999+99999GF199999021999010061999999MA1102801999999REMMET066METAR ZSSS 290600Z 13004MPS 100V170 6000 FEW033 11/01 Q1028 NOSIG=
0157583670999992024012906304+31198+121336FM-15+000399999V0201501V006019999999N007000199+01101+00101999999ADDGA1021+010061999GE19AGL   +99999+99999GF199999021999010061999999MA1102701999999REMMET066METAR ZSSS 290630Z 15006MPS 120V180 7000 FEW033 11/01 Q1027 NOSIG=
0157583670999992024012907004+31198+121336FM-15+000399999V0201601V005019999999N007000199+01101+00101999999ADDGA1021+010061999GE19AGL   +99999+99999GF199999021999010061999999MA1102701999999REMMET066METAR ZSSS 290700Z 16005MPS 130V200 7000 FEW033 11/01 Q1027 NOSIG=
0157583670999992024012907304+31198+121336FM-15+000399999V0201601V005019999999N007000199+01101+00201999999ADDGA1021+010061999GE19AGL   +99999+99999GF199999021999010061999999MA1102701999999REMMET066METAR ZSSS 290730Z 16005MPS 120V180 7000 FEW033 11/02 Q1027 NOSIG=
0108583670999992024012908004+31198+121336FM-15+000399999V0201401N005012200019N007000199+01001+00201999999ADDGF100991999999999999999999MA1102701999999REMMET055METAR ZSSS 290800Z 14005MPS 7000 NSC 10/02 Q1027 NOSIG=
0108583670999992024012908304+31198+121336FM-15+000399999V0201401N004012200019N007000199+01001+00201999999ADDGF100991999999999999999999MA1102701999999REMMET055METAR ZSSS 290830Z 14004MPS 7000 NSC 10/02 Q1027 NOSIG=
0108583670999992024012909004+31198+121336FM-15+000399999V0201301N005012200019N007000199+01001+00201999999ADDGF100991999999999999999999MA1102701999999REMMET055METAR ZSSS 290900Z 13005MPS 7000 NSC 10/02 Q1027 NOSIG=
0116583670999992024012909304+31198+121336FM-15+000399999V0201301V004012200019N007000199+01001+00201999999ADDGF100991999999999999999999MA1102701999999REMMET063METAR ZSSS 290930Z 13004MPS 100V160 7000 NSC 10/02 Q1027 NOSIG=
0116583670999992024012910004+31198+121336FM-15+000399999V0201201V003012200019N007000199+00901+00201999999ADDGF100991999999999999999999MA1102801999999REMMET063METAR ZSSS 291000Z 12003MPS 090V160 7000 NSC 09/02 Q1028 NOSIG=
0116583670999992024012910304+31198+121336FM-15+000399999V0201301V004012200019N008000199+00901+00201999999ADDGF100991999999999999999999MA1102801999999REMMET063METAR ZSSS 291030Z 13004MPS 100V160 8000 NSC 09/02 Q1028 NOSIG=
0079583670999992024012911004+31198+121336FM-15+000399999V0201301N004019999999Y009900599+00901+00301999999ADDMA1102801999999REMMET052METAR ZSSS 291100Z 13004MPS CAVOK 09/03 Q1028 NOSIG=
0079583670999992024012911304+31198+121336FM-15+000399999V0201401N004019999999Y009900599+00901+00301999999ADDMA1102701999999REMMET052METAR ZSSS 291130Z 14004MPS CAVOK 09/03 Q1027 NOSIG=
0079583670999992024012912004+31198+121336FM-15+000399999V0201301N003019999999Y009900599+00901+00301999999ADDMA1102801999999REMMET052METAR ZSSS 291200Z 13003MPS CAVOK 09/03 Q1028 NOSIG=
0079583670999992024012912304+31198+121336FM-15+000399999V0201401N003019999999Y009900599+00901+00401999999ADDMA1102801999999REMMET052METAR ZSSS 291230Z 14003MPS CAVOK 09/04 Q1028 NOSIG=
0159583670999992024012913004+31198+121336FM-15+000399999V0201401N003019999999N008000199+00801+00501999999ADDGA1021+009141999GE19AGL   +99999+99999GF199999021999009141999999MA1102801999999MW1611REMMET062METAR ZSSS 291300Z 14003MPS 8000 -RA FEW030 08/05 Q1028 NOSIG=
0159583670999992024012913304+31198+121336FM-15+000399999V0201501N004019999999N008000199+00801+00501999999ADDGA1021+009141999GE19AGL   +99999+99999GF199999021999009141999999MA1102801999999MW1611REMMET062METAR ZSSS 291330Z 15004MPS 8000 -RA FEW030 08/05 Q1028 NOSIG=
0159583670999992024012914004+31198+121336FM-15+000399999V0201401N004019999999N007000199+00801+00601999999ADDGA1041+009141999GE19AGL   +99999+99999GF199999041999009141999999MA1102801999999MW1611REMMET062METAR ZSSS 291400Z 14004MPS 7000 -RA SCT030 08/06 Q1028 NOSIG=
0159583670999992024012914304+31198+121336FM-15+000399999V0201301N00401007921CN007000199+00801+00601999999ADDGA1071+007921999GE19AGL   +99999+99999GF199999071999007921999999MA1102801999999MW1611REMMET062METAR ZSSS 291430Z 13004MPS 7000 -RA BKN026 08/06 Q1028 NOSIG=
0205583670999992024012915004+31198+121336FM-15+000399999V0201301N003010100619N005000199+00801+00601999999ADDGA1041+004881999GA2081+010061999GE19AGL   +99999+99999GF199999041999004881999999MA1102701999999MW1101MW2611REMMET086METAR ZSSS 291500Z 13003MPS 5000 -RA BR SCT016 OVC033 08/06 Q1027 BECMG TL1630 BKN013=
0191583670999992024012915304+31198+121336FM-15+000399999V0201301N004010100619N005000199+00801+00601999999ADDGA1041+004881999GA2081+010061999GE19AGL   +99999+99999GF199999041999004881999999MA1102701999999MW1101MW2611REMMET072METAR ZSSS 291530Z 13004MPS 5000 -RA BR SCT016 OVC033 08/06 Q1027 NOSIG=
0205583670999992024012916004+31198+121336FM-15+000399999V0201201N00401004881CN005000199+00801+00601999999ADDGA1071+004881999GA2081+010061999GE19AGL   +99999+99999GF199999071999004881999999MA1102701999999MW1101MW2611REMMET086METAR ZSSS 291600Z 12004MPS 5000 -RA BR BKN016 OVC033 08/06 Q1027 BECMG TL1730 BKN013=
0191583670999992024012916304+31198+121336FM-15+000399999V0201301N00501003351CN005000199+00801+00601999999ADDGA1071+003351999GA2081+007921999GE19AGL   +99999+99999GF199999071999003351999999MA1102701999999MW1101MW2611REMMET072METAR ZSSS 291630Z 13005MPS 5000 -RA BR BKN011 OVC026 08/06 Q1027 NOSIG=
0211583670999992024012917004+31198+121336FM-15+000399999V0201201V00401003961CN008000199+00801+00601999999ADDGA1071+003961999GA2081+009141999GE19AGL   +99999+99999GF199999071999003961999999MA1102601999999MW1611REMMET098METAR ZSSS 291700Z 12004MPS 090V160 8000 -RA BKN013 OVC030 08/06 Q1026 BECMG TL1830 SCT013 OVC030=
0182583670999992024012917304+31198+121336FM-15+000399999V0201201N004010079219N008000199+00701+00601999999ADDGA1041+003961999GA2081+007921999GE19AGL   +99999+99999GF199999041999003961999999MA1102601999999MW1611REMMET069METAR ZSSS 291730Z 12004MPS 8000 -RA SCT013 OVC026 07/06 Q1026 NOSIG=
0196583670999992024012918004+31198+121336FM-15+000399999V0201201N003010079219N007000199+00801+00601999999ADDGA1041+003961999GA2081+007921999GE19AGL   +99999+99999GF199999041999003961999999MA1102601999999MW1611REMMET083METAR ZSSS 291800Z 12003MPS 7000 -RA SCT013 OVC026 08/06 Q1026 BECMG TL1830 BKN011=
0190583670999992024012918304+31198+121336FM-15+000399999V0201301V00301003051CN007000199+00801+00601999999ADDGA1071+003051999GA2081+006101999GE19AGL   +99999+99999GF199999071999003051999999MA1102601999999MW1611REMMET077METAR ZSSS 291830Z 13003MPS 100V160 7000 -RA BKN010 OVC020 08/06 Q1026 NOSIG=
0205583670999992024012919004+31198+121336FM-15+000399999V0201201N00301003051CN005000199+00801+00601999999ADDGA1071+003051999GA2081+006101999GE19AGL   +99999+99999GF199999071999003051999999MA1102501999999MW1101MW2611REMMET086METAR ZSSS 291900Z 12003MPS 5000 -RA BR BKN010 OVC020 08/06 Q1025 BECMG TL2020 BKN009=
0199583670999992024012919304+31198+121336FM-15+000399999V0200801V00201002441CN005000199+00801+00601999999ADDGA1071+002441999GA2081+006101999GE19AGL   +99999+99999GF199999071999002441999999MA1102501999999MW1101MW2611REMMET080METAR ZSSS 291930Z 08002MPS 040V110 5000 -RA BR BKN008 OVC020 08/06 Q1025 NOSIG=
0205583670999992024012920004+31198+121336FM-15+000399999V0201001N00301002741CN005000199+00801+00601999999ADDGA1071+002741999GA2081+006101999GE19AGL   +99999+99999GF199999071999002741999999MA1102501999999MW1101MW2611REMMET086METAR ZSSS 292000Z 10003MPS 5000 -RA BR BKN009 OVC020 08/06 Q1025 BECMG TL2130 BKN010=
0172583670999992024012920304+31198+121336FM-15+000399999V0201201N00301002741CN006000199+00801+00701999999ADDGA1071+002741999GA2081+006101999GE19AGL   +99999+99999GF199999071999002741999999MA1102501999999REMMET065METAR ZSSS 292030Z 12003MPS 6000 BKN009 OVC020 08/07 Q1025 NOSIG=
0186583670999992024012921004+31198+121336FM-15+000399999V0201101N00201003051CN006000199+00801+00701999999ADDGA1071+003051999GA2081+006101999GE19AGL   +99999+99999GF199999071999003051999999MA1102501999999REMMET079METAR ZSSS 292100Z 11002MPS 6000 BKN010 OVC020 08/07 Q1025 BECMG TL2230 BKN015=
0182583670999992024012921304+31198+121336FM-15+000399999V0200901N00201003051CN006000199+00801+00701999999ADDGA1071+003051999GA2081+006101999GE19AGL   +99999+99999GF199999071999003051999999MA1102501999999MW1611REMMET069METAR ZSSS 292130Z 09002MPS 6000 -RA BKN010 OVC020 08/07 Q1025 NOSIG=
0196583670999992024012922004+31198+121336FM-15+000399999V0201201N00201003051CN006000199+00801+00701999999ADDGA1071+003051999GA2081+006101999GE19AGL   +99999+99999GF199999071999003051999999MA1102501999999MW1611REMMET083METAR ZSSS 292200Z 12002MPS 6000 -RA BKN010 OVC020 08/07 Q1025 BECMG TL2330 BKN009=
0182583670999992024012922304+31198+121336FM-15+000399999V0201201N00301002741CN006000199+00801+00701999999ADDGA1071+002741999GA2081+006101999GE19AGL   +99999+99999GF199999071999002741999999MA1102501999999MW1611REMMET069METAR ZSSS 292230Z 12003MPS 6000 -RA BKN009 OVC020 08/07 Q1025 NOSIG=
0205583670999992024012923004+31198+121336FM-15+000399999V0201201N00201002741CN004000199+00801+00701999999ADDGA1071+002741999GA2081+006101999GE19AGL   +99999+99999GF199999071999002741999999MA1102501999999MW1101MW2611REMMET086METAR ZSSS 292300Z 12002MPS 4000 -RA BR BKN009 OVC020 08/07 Q1025 BECMG TL0040 BKN011=
0191583670999992024012923304+31198+121336FM-15+000399999V0201101N00201002741CN003000199+00801+00701999999ADDGA1071+002741999GA2081+006101999GE19AGL   +99999+99999GF199999071999002741999999MA1102501999999MW1101MW2611REMMET072METAR ZSSS 292330Z 11002MPS 3000 -RA BR BKN009 OVC020 08/07 Q1025 NOSIG=
0218583670999992024013000004+31198+121336FM-15+000399999V0201001V00201001831CN003000199+00801+00701999999ADDGA1071+001831999GA2081+006101999GE19AGL   +99999+99999GF199999071999001831999999MA1102501999999MW1101MW2611REMMET099METAR ZSSS 300000Z 10002MPS 060V140 3000 -RA BR BKN006 OVC020 08/07 Q1025 BECMG TL0130 2800 BKN010=
0199583670999992024013000304+31198+121336FM-15+000399999V0201101V00201001831CN002800199+00801+00701999999ADDGA1071+001831999GA2081+006101999GE19AGL   +99999+99999GF199999071999001831999999MA1102501999999MW1101MW2611REMMET080METAR ZSSS 300030Z 11002MPS 090V150 2800 -RA BR BKN006 OVC020 08/07 Q1025 NOSIG=
0190583670999992024013001004+31198+121336FM-15+000399999V0201201V00201001831CN006000199+00901+00801999999ADDGA1071+001831999GA2081+006101999GE19AGL   +99999+99999GF199999071999001831999999MA1102601999999MW1611REMMET077METAR ZSSS 300100Z 12002MPS 090V170 6000 -RA BKN006 OVC020 09/08 Q1026 NOSIG=
0182583670999992024013001304+31198+121336FM-15+000399999V0201101N00301002131CN006000199+00901+00801999999ADDGA1071+002131999GA2081+006101999GE19AGL   +99999+99999GF199999071999002131999999MA1102601999999MW1611REMMET069METAR ZSSS 300130Z 11003MPS 6000 -RA BKN007 OVC020 09/08 Q1026 NOSIG=
0186583670999992024013002004+31198+121336FM-15+000399999V0201101N00301002131CN007000199+00901+00801999999ADDGA1071+002131999GA2081+006101999GE19AGL   +99999+99999GF199999071999002131999999MA1102601999999REMMET079METAR ZSSS 300200Z 11003MPS 7000 BKN007 OVC020 09/08 Q1026 BECMG TL0350 BKN010=
0180583670999992024013002304+31198+121336FM-15+000399999V0201101V00301002131CN007000199+00901+00801999999ADDGA1071+002131999GA2081+006101999GE19AGL   +99999+99999GF199999071999002131999999MA1102501999999REMMET073METAR ZSSS 300230Z 11003MPS 080V140 7000 BKN007 OVC020 09/08 Q1025 NOSIG=
0180583670999992024013003004+31198+121336FM-15+000399999V0201101V00301002131CN008000199+00901+00801999999ADDGA1071+002131999GA2081+006101999GE19AGL   +99999+99999GF199999071999002131999999MA1102501999999REMMET073METAR ZSSS 300300Z 11003MPS 090V170 8000 BKN007 OVC020 09/08 Q1025 NOSIG=
0180583670999992024013003304+31198+121336FM-15+000399999V0201201V00301002131CN008000199+01001+00801999999ADDGA1071+002131999GA2081+006101999GE19AGL   +99999+99999GF199999071999002131999999MA1102501999999REMMET073METAR ZSSS 300330Z 12003MPS 080V150 8000 BKN007 OVC020 10/08 Q1025 NOSIG=
0172583670999992024013004004+31198+121336FM-15+000399999V0201201N00401002131CN008000199+01001+00801999999ADDGA1071+002131999GA2081+012191999GE19AGL   +99999+99999GF199999071999002131999999MA1102401999999REMMET065METAR ZSSS 300400Z 12004MPS 8000 BKN007 OVC040 10/08 Q1024 NOSIG=
0180583670999992024013004304+31198+121336FM-15+000399999V0201201V00301002131CN008000199+01001+00901999999ADDGA1071+002131999GA2081+012191999GE19AGL   +99999+99999GF199999071999002131999999MA1102401999999REMMET073METAR ZSSS 300430Z 12003MPS 090V150 8000 BKN007 OVC040 10/09 Q1024 NOSIG=
0172583670999992024013005004+31198+121336FM-15+000399999V0201301N00301002131CN008000199+01001+00901999999ADDGA1071+002131999GA2081+012191999GE19AGL   +99999+99999GF199999071999002131999999MA1102301999999REMMET065METAR ZSSS 300500Z 13003MPS 8000 BKN007 OVC040 10/09 Q1023 NOSIG=
0172583670999992024013005304+31198+121336FM-15+000399999V0201501N00301001831CN008000199+01001+00901999999ADDGA1071+001831999GA2081+012191999GE19AGL   +99999+99999GF199999071999001831999999MA1102301999999REMMET065METAR ZSSS 300530Z 15003MPS 8000 BKN006 OVC040 10/09 Q1023 NOSIG=
0193583670999992024013006004+31198+121336FM-15+000399999V0201301N00301001521CN008000199+01001+00901999999ADDGA1071+001521999GA2081+012191999GE19AGL   +99999+99999GF199999071999001521999999MA1102201999999REMMET086METAR ZSSS 300600Z 13003MPS 8000 BKN005 OVC040 10/09 Q1022 BECMG TL0710 BKN004 OVC040=
0180583670999992024013006304+31198+121336FM-15+000399999V0201201V00201001221CN006000199+01001+00901999999ADDGA1071+001221999GA2081+012191999GE19AGL   +99999+99999GF199999071999001221999999MA1102201999999REMMET073METAR ZSSS 300630Z 12002MPS 080V160 6000 BKN004 OVC040 10/09 Q1022 NOSIG=
0186583670999992024013007004+31198+121336FM-15+000399999V0201101N00301001221CN006000199+01001+00901999999ADDGA1071+001221999GA2081+012191999GE19AGL   +99999+99999GF199999071999001221999999MA1102201999999REMMET079METAR ZSSS 300700Z 11003MPS 6000 BKN004 OVC040 10/09 Q1022 BECMG TL0850 BKN015=
0180583670999992024013007304+31198+121336FM-15+000399999V0200901V00301001221CN006000199+01001+00901999999ADDGA1071+001221999GA2081+012191999GE19AGL   +99999+99999GF199999071999001221999999MA1102201999999REMMET073METAR ZSSS 300730Z 09003MPS 070V150 6000 BKN004 OVC040 10/09 Q1022 NOSIG=
0193583670999992024013008004+31198+121336FM-15+000399999V0201101N00201001221CN007000199+01001+00901999999ADDGA1071+001221999GA2081+012191999GE19AGL   +99999+99999GF199999071999001221999999MA1102201999999REMMET086METAR ZSSS 300800Z 11002MPS 7000 BKN004 OVC040 10/09 Q1022 BECMG TL0950 BKN005 OVC040=
0172583670999992024013008304+31198+121336FM-15+000399999V0201101N00201001221CN008000199+01001+00901999999ADDGA1071+001221999GA2081+012191999GE19AGL   +99999+99999GF199999071999001221999999MA1102301999999REMMET065METAR ZSSS 300830Z 11002MPS 8000 BKN004 OVC040 10/09 Q1023 NOSIG=
0189583670999992024013009004+31198+121336FM-15+000399999V0201201V00201001221CN005000199+01001+00901999999ADDGA1071+001221999GA2081+012191999GE19AGL   +99999+99999GF199999071999001221999999MA1102301999999MW1101REMMET076METAR ZSSS 300900Z 12002MPS 090V160 5000 BR BKN004 OVC040 10/09 Q1023 NOSIG=
0181583670999992024013009304+31198+121336FM-15+000399999V0200901N00201000911CN004000199+01001+00901999999ADDGA1071+000911999GA2081+012191999GE19AGL   +99999+99999GF199999071999000911999999MA1102301999999MW1101REMMET068METAR ZSSS 300930Z 09002MPS 4000 BR BKN003 OVC040 10/09 Q1023 NOSIG=
0201583670999992024013010004+31198+121336FM-15+000399999V0201001V00301000911CN004000199+01001+00901999999ADDGA1071+000911999GA2081+012191999GE19AGL   +99999+99999GF199999071999000911999999MA1102301999999MW1101REMMET088METAR ZSSS 301000Z 10003MPS 080V150 4000 BR BKN003 OVC040 10/09 Q1023 BECMG TL1150 2000=
0181583670999992024013010304+31198+121336FM-15+000399999V0201001N00301000911CN004000199+01001+00901999999ADDGA1071+000911999GA2081+012191999GE19AGL   +99999+99999GF199999071999000911999999MA1102301999999MW1101REMMET068METAR ZSSS 301030Z 10003MPS 4000 BR BKN003 OVC040 10/09 Q1023 NOSIG=
0193583670999992024013011004+31198+121336FM-15+000399999V0201101N00301000911CN004000199+01001+00901999999ADDGA1071+000911999GA2081+006101999GE19AGL   +99999+99999GF199999071999000911999999MA1102301999999MW1101REMMET080METAR ZSSS 301100Z 11003MPS 4000 BR BKN003 OVC020 10/09 Q1023 BECMG TL1250 2000=
0189583670999992024013011304+31198+121336FM-15+000399999V0201301V00201001221CN004000199+01001+00901999999ADDGA1071+001221999GA2081+006101999GE19AGL   +99999+99999GF199999071999001221999999MA1102301999999MW1101REMMET076METAR ZSSS 301130Z 13002MPS 080V170 4000 BR BKN004 OVC020 10/09 Q1023 NOSIG=
0181583670999992024013012004+31198+121336FM-15+000399999V0209999V00101001221CN004000199+01001+00901999999ADDGA1071+001221999GA2081+006101999GE19AGL   +99999+99999GF199999071999001221999999MA1102301999999MW1101REMMET068METAR ZSSS 301200Z VRB01MPS 4000 BR BKN004 OVC020 10/09 Q1023 NOSIG=
0189583670999992024013012304+31198+121336FM-15+000399999V0201201V00201001221CN004000199+01001+00901999999ADDGA1071+001221999GA2081+006101999GE19AGL   +99999+99999GF199999071999001221999999MA1102301999999MW1101REMMET076METAR ZSSS 301230Z 12002MPS 060V180 4000 BR BKN004 OVC020 10/09 Q1023 NOSIG=
0181583670999992024013013004+31198+121336FM-15+000399999V0201701N00201001221CN005000199+01001+00901999999ADDGA1071+001221999GA2081+006101999GE19AGL   +99999+99999GF199999071999001221999999MA1102301999999MW1101REMMET068METAR ZSSS 301300Z 17002MPS 5000 BR BKN004 OVC020 10/09 Q1023 NOSIG=
0181583670999992024013013304+31198+121336FM-15+000399999V0201601N00101001221CN005000199+01001+00901999999ADDGA1071+001221999GA2081+006101999GE19AGL   +99999+99999GF199999071999001221999999MA1102301999999MW1101REMMET068METAR ZSSS 301330Z 16001MPS 5000 BR BKN004 OVC020 10/09 Q1023 NOSIG=
0193583670999992024013014004+31198+121336FM-15+000399999V0201001N00201000911CN004000199+01001+00901999999ADDGA1071+000911999GA2081+006101999GE19AGL   +99999+99999GF199999071999000911999999MA1102301999999MW1101REMMET080METAR ZSSS 301400Z 10002MPS 4000 BR BKN003 OVC020 10/09 Q1023 BECMG TL1530 2800=
0189583670999992024013014304+31198+121336FM-15+000399999V0201201V00201000911CN004000199+01001+01001999999ADDGA1071+000911999GA2081+006101999GE19AGL   +99999+99999GF199999071999000911999999MA1102201999999MW1101REMMET076METAR ZSSS 301430Z 12002MPS 100V170 4000 BR BKN003 OVC020 10/10 Q1022 NOSIG=
0181583670999992024013015004+31198+121336FM-15+000399999V0209999V00101000911CN004000199+01001+01001999999ADDGA1071+000911999GA2081+006101999GE19AGL   +99999+99999GF199999071999000911999999MA1102301999999MW1101REMMET068METAR ZSSS 301500Z VRB01MPS 4000 BR BKN003 OVC020 10/10 Q1023 NOSIG=
0189583670999992024013015304+31198+121336FM-15+000399999V0201601V00201000911CN003000199+01001+01001999999ADDGA1071+000911999GA2081+006101999GE19AGL   +99999+99999GF199999071999000911999999MA1102301999999MW1101REMMET076METAR ZSSS 301530Z 16002MPS 130V190 3000 BR BKN003 OVC020 10/10 Q1023 NOSIG=
0230583670999992024013016004+31198+121336FM-15+000399999V0209999V00101000611CN001200199+01001+01001999999ADDED118L99999GA1071+000611999GA2081+006101999GE19AGL   +99999+99999GF199999071999000611999999MA1102301999999MW1101REMMET106METAR ZSSS 301600Z VRB01MPS 1200 R18L/P2000N R18R/1800D BR BKN002 OVC020 10/10 Q1023 BECMG TL1730 0700 FG=
0181583670999992024013016304+31198+121336FM-15+000399999V0209999V00101000611CN001800199+01001+01001999999ADDGA1071+000611999GA2081+006101999GE19AGL   +99999+99999GF199999071999000611999999MA1102301999999MW1101REMMET068METAR ZSSS 301630Z VRB01MPS 1800 BR BKN002 OVC020 10/10 Q1023 NOSIG=
0240583670999992024013017004+31198+121336FM-15+000399999V0209999V00101000611CN000900199+01001+01001999999ADDED118L99999GA1071+000611999GA2081+006101999GE19AGL   +99999+99999GF199999071999000611999999MA1102301999999MW1441REMMET116METAR ZSSS 301700Z VRB01MPS 0900 R18L/1000N R18R/1100D FG BKN002 OVC020 10/10 Q1023 BECMG TL1830 0700 BKN001 OVC020=
0214583670999992024013017304+31198+121336FM-15+000399999V0209999V00101000611CN000300199+01001+01001999999ADDED118L99999GA1071+000611999GA2081+006101999GE19AGL   +99999+99999GF199999071999000611999999MA1102201999999MW1441REMMET090METAR ZSSS 301730Z VRB01MPS 0300 R18L/0400N R18R/0500N FG BKN002 OVC020 10/10 Q1022 NOSIG=
0225583670999992024013018004+31198+121336FM-15+000399999V0209999V00101000301CN000200199+01001+01001999999ADDED118L99999GA1071+000301999GA2081+006101999GE19AGL   +99999+99999GF199999071999000301999999MA1102201999999MW1441REMMET101METAR ZSSS 301800Z VRB01MPS 0200 R18L/0300N R18R/0325 FG BKN001 OVC020 10/10 Q1022 BECMG TL1930 0350=
0214583670999992024013018304+31198+121336FM-15+000399999V0209999V00101000301CN000300199+01001+01001999999ADDED118L99999GA1071+000301999GA2081+006101999GE19AGL   +99999+99999GF199999071999000301999999MA1102201999999MW1441REMMET090METAR ZSSS 301830Z VRB01MPS 0300 R18L/0375N R18R/0400N FG BKN001 OVC020 10/10 Q1022 NOSIG=
0201583670999992024013019004+31198+121336FM-15+000399999V0201401N00101000611WN000500199+01001+01001999999ADDED118L99999GA1091+000611999GE19AGL   +99999+99999GF109991091999000611999999MA1102201999999MW1441REMMET093METAR ZSSS 301900Z 14001MPS 0500 R18L/0700N R18R/0550 FG VV002 10/10 Q1022 BECMG TL2000 0600=
0189583670999992024013019304+31198+121336FM-15+000399999V0209999V00101000611WN000500199+01001+01001999999ADDED118L99999GA1091+000611999GE19AGL   +99999+99999GF109991091999000611999999MA1102101999999MW1441REMMET081METAR ZSSS 301930Z VRB01MPS 0500 R18L/0800 R18R/0750N FG VV002 10/10 Q1021 NOSIG=
0236583670999992024013020004+31198+121336FM-15+000399999V0209999V00101000611CN001100199+01001+01001999999ADDED118L99999GA1071+000611999GA2081+012191999GE19AGL   +99999+99999GF199999071999000611999999MA1102101999999MW1101MW2611REMMET106METAR ZSSS 302000Z VRB01MPS 1100 R18L/1700U R18R/1700U -RA BR BKN002 OVC040 10/10 Q1021 BECMG TL2150 1500=
0191583670999992024013020304+31198+121336FM-15+000399999V0209999V00101000611CN002000199+01001+01001999999ADDGA1071+000611999GA2081+012191999GE19AGL   +99999+99999GF199999071999000611999999MA1102101999999MW1101MW2611REMMET072METAR ZSSS 302030Z VRB01MPS 2000 -RA BR BKN002 OVC040 10/10 Q1021 NOSIG=
0203583670999992024013021004+31198+121336FM-15+000399999V0200601N00101000611CN002800199+01001+01001999999ADDGA1071+000611999GA2081+012191999GE19AGL   +99999+99999GF199999071999000611999999MA1102101999999MW1101MW2611REMMET084METAR ZSSS 302100Z 06001MPS 2800 -RA BR BKN002 OVC040 10/10 Q1021 BECMG TL2250 3000=
0191583670999992024013021304+31198+121336FM-15+000399999V0209999V00101000911CN003200199+01001+01001999999ADDGA1071+000911999GA2081+012191999GE19AGL   +99999+99999GF199999071999000911999999MA1102101999999MW1101MW2611REMMET072METAR ZSSS 302130Z VRB01MPS 3200 -RA BR BKN003 OVC040 10/10 Q1021 NOSIG=
0203583670999992024013022004+31198+121336FM-15+000399999V0200601N00201000911CN002800199+01001+01001999999ADDGA1071+000911999GA2081+012191999GE19AGL   +99999+99999GF199999071999000911999999MA1102101999999MW1101MW2611REMMET084METAR ZSSS 302200Z 06002MPS 2800 -RA BR BKN003 OVC040 10/10 Q1021 BECMG TL2240 3000=
0199583670999992024013022304+31198+121336FM-15+000399999V0200901V00201001221CN003200199+01001+01001999999ADDGA1071+001221999GA2081+012191999GE19AGL   +99999+99999GF199999071999001221999999MA1102101999999MW1101MW2611REMMET080METAR ZSSS 302230Z 09002MPS 060V120 3200 -RA BR BKN004 OVC040 10/10 Q1021 NOSIG=
0202583670999992024013023004+31198+121336FM-15+000399999V0200301N00201001221CN003000199+01101+01001999999ADDGA1071+001221999GA2081+012191999GE19AGL   +99999+99999GF199999071999001221999999MA1102101999999MW1101REMMET089METAR ZSSS 302300Z 03002MPS 3000 BR BKN004 OVC040 11/10 Q1021 BECMG TL2350 BKN005 OVC040=
0181583670999992024013023304+31198+121336FM-15+000399999V0209999V00101001221CN004000199+01101+01001999999ADDGA1071+001221999GA2081+012191999GE19AGL   +99999+99999GF199999071999001221999999MA1102201999999MW1101REMMET068METAR ZSSS 302330Z VRB01MPS 4000 BR BKN004 OVC040 11/10 Q1022 NOSIG=
0212583670999992024013100004+31198+121336FM-15+000399999V0200801N00301001521CN003000199+01101+01001999999ADDGA1071+001521999GA2081+012191999GE19AGL   +99999+99999GF199999071999001521999999MA1102101999999MW1101MW2611REMMET093METAR ZSSS 310000Z 08003MPS 3000 -RA BR BKN005 OVC040 11/10 Q1021 BECMG TL0150 BKN010 OVC040=
0191583670999992024013100304+31198+121336FM-15+000399999V0209999V00201001521CN005000199+01101+01101999999ADDGA1071+001521999GA2081+012191999GE19AGL   +99999+99999GF199999071999001521999999MA1102201999999MW1101MW2611REMMET072METAR ZSSS 310030Z VRB02MPS 5000 -RA BR BKN005 OVC040 11/11 Q1022 NOSIG=
0172583670999992024013101004+31198+121336FM-15+000399999V0200901N00201001521CN008000199+01201+01101999999ADDGA1071+001521999GA2081+012191999GE19AGL   +99999+99999GF199999071999001521999999MA1102301999999REMMET065METAR ZSSS 310100Z 09002MPS 8000 BKN005 OVC040 12/11 Q1023 NOSIG=
0182583670999992024013101304+31198+121336FM-15+000399999V0209999V00101001521CN008000199+01201+01101999999ADDGA1071+001521999GA2081+012191999GE19AGL   +99999+99999GF199999071999001521999999MA1102301999999MW1611REMMET069METAR ZSSS 310130Z VRB01MPS 8000 -RA BKN005 OVC040 12/11 Q1023 NOSIG=
0190583670999992024013102004+31198+121336FM-15+000399999V0201101V00201001831CN008000199+01201+01101999999ADDGA1071+001831999GA2081+012191999GE19AGL   +99999+99999GF199999071999001831999999MA1102301999999MW1611REMMET077METAR ZSSS 310200Z 11002MPS 090V150 8000 -RA BKN006 OVC040 12/11 Q1023 NOSIG=
0190583670999992024013102304+31198+121336FM-15+000399999V0201101V00401001831CN009999199+01201+01101999999ADDGA1071+001831999GA2081+012191999GE19AGL   +99999+99999GF199999071999001831999999MA1102201999999MW1611REMMET077METAR ZSSS 310230Z 11004MPS 080V140 9999 -RA BKN006 OVC040 12/11 Q1022 NOSIG=
0190583670999992024013103004+31198+121336FM-15+000399999V0201101V00301001831CN009999199+01201+01101999999ADDGA1071+001831999GA2081+012191999GE19AGL   +99999+99999GF199999071999001831999999MA1102201999999MW1611REMMET077METAR ZSSS 310300Z 11003MPS 080V140 9999 -RA BKN006 OVC040 12/11 Q1022 NOSIG=
0182583670999992024013103304+31198+121336FM-15+000399999V0201001N00401001831CN009999199+01201+01001999999ADDGA1071+001831999GA2081+012191999GE19AGL   +99999+99999GF199999071999001831999999MA1102101999999MW1611REMMET069METAR ZSSS 310330Z 10004MPS 9999 -RA BKN006 OVC040 12/10 Q1021 NOSIG=
0190583670999992024013104004+31198+121336FM-15+000399999V0201101V00301001831CN009999199+01201+01101999999ADDGA1071+001831999GA2081+012191999GE19AGL   +99999+99999GF199999071999001831999999MA1102101999999MW1611REMMET077METAR ZSSS 310400Z 11003MPS 070V160 9999 -RA BKN006 OVC040 12/11 Q1021 NOSIG=
0180583670999992024013104304+31198+121336FM-15+000399999V0200901V00201001831CN009999199+01201+01001999999ADDGA1071+001831999GA2081+012191999GE19AGL   +99999+99999GF199999071999001831999999MA1102101999999REMMET073METAR ZSSS 310430Z 09002MPS 050V160 9999 BKN006 OVC040 12/10 Q1021 NOSIG=
0180583670999992024013105004+31198+121336FM-15+000399999V0200901V00201001831CN009999199+01201+01101999999ADDGA1071+001831999GA2081+012191999GE19AGL   +99999+99999GF199999071999001831999999MA1102001999999REMMET073METAR ZSSS 310500Z 09002MPS 050V120 9999 BKN006 OVC040 12/11 Q1020 NOSIG=
0180583670999992024013105304+31198+121336FM-15+000399999V0201001V00201002131CN009999199+01201+01001999999ADDGA1071+002131999GA2081+012191999GE19AGL   +99999+99999GF199999071999002131999999MA1102001999999REMMET073METAR ZSSS 310530Z 10002MPS 080V150 9999 BKN007 OVC040 12/10 Q1020 NOSIG=
0180583670999992024013106004+31198+121336FM-15+000399999V0200801V00201002131CN009999199+01201+01101999999ADDGA1071+002131999GA2081+012191999GE19AGL   +99999+99999GF199999071999002131999999MA1101901999999REMMET073METAR ZSSS 310600Z 08002MPS 040V140 9999 BKN007 OVC040 12/11 Q1019 NOSIG=
0180583670999992024013106304+31198+121336FM-15+000399999V0200901V00201002131CN009999199+01201+01101999999ADDGA1071+002131999GA2081+012191999GE19AGL   +99999+99999GF199999071999002131999999MA1101901999999REMMET073METAR ZSSS 310630Z 09002MPS 060V160 9999 BKN007 OVC040 12/11 Q1019 NOSIG=
0190583670999992024013107004+31198+121336FM-15+000399999V0200801V00201002131CN009999199+01201+01101999999ADDGA1071+002131999GA2081+012191999GE19AGL   +99999+99999GF199999071999002131999999MA1101901999999MW1611REMMET077METAR ZSSS 310700Z 08002MPS 050V140 9999 -RA BKN007 OVC040 12/11 Q1019 NOSIG=
0190583670999992024013107304+31198+121336FM-15+000399999V0200901V00201002131CN009999199+01201+01101999999ADDGA1071+002131999GA2081+012191999GE19AGL   +99999+99999GF199999071999002131999999MA1101901999999MW1611REMMET077METAR ZSSS 310730Z 09002MPS 050V160 9999 -RA BKN007 OVC040 12/11 Q1019 NOSIG=
0180583670999992024013108004+31198+121336FM-15+000399999V0200701V00201002131CN009999199+01201+01101999999ADDGA1071+002131999GA2081+012191999GE19AGL   +99999+99999GF199999071999002131999999MA1101901999999REMMET073METAR ZSSS 310800Z 07002MPS 010V140 9999 BKN007 OVC040 12/11 Q1019 NOSIG=
0180583670999992024013108304+31198+121336FM-15+000399999V0200701V00201002131CN009999199+01201+01101999999ADDGA1071+002131999GA2081+012191999GE19AGL   +99999+99999GF199999071999002131999999MA1101901999999REMMET073METAR ZSSS 310830Z 07002MPS 340V130 9999 BKN007 OVC040 12/11 Q1019 NOSIG=
0172583670999992024013109004+31198+121336FM-15+000399999V0209999V00101002131CN008000199+01201+01101999999ADDGA1071+002131999GA2081+012191999GE19AGL   +99999+99999GF199999071999002131999999MA1101901999999REMMET065METAR ZSSS 310900Z VRB01MPS 8000 BKN007 OVC040 12/11 Q1019 NOSIG=
0172583670999992024013109304+31198+121336FM-15+000399999V0209999V00101001831CN006000199+01201+01101999999ADDGA1071+001831999GA2081+012191999GE19AGL   +99999+99999GF199999071999001831999999MA1101901999999REMMET065METAR ZSSS 310930Z VRB01MPS 6000 BKN006 OVC040 12/11 Q1019 NOSIG=
0172583670999992024013110004+31198+121336FM-15+000399999V0200301N00201001831CN006000199+01201+01101999999ADDGA1071+001831999GA2081+012191999GE19AGL   +99999+99999GF199999071999001831999999MA1101901999999REMMET065METAR ZSSS 311000Z 03002MPS 6000 BKN006 OVC040 12/11 Q1019 NOSIG=
0172583670999992024013110304+31198+121336FM-15+000399999V0209999V00101001831CN006000199+01201+01101999999ADDGA1071+001831999GA2081+012191999GE19AGL   +99999+99999GF199999071999001831999999MA1101901999999REMMET065METAR ZSSS 311030Z VRB01MPS 6000 BKN006 OVC040 12/11 Q1019 NOSIG=
0194583670999992024013111004+31198+121336FM-15+000399999V0200701V00201001521CN006000199+01201+01101999999ADDGA1071+001521999GA2081+012191999GE19AGL   +99999+99999GF199999071999001521999999MA1101901999999REMMET087METAR ZSSS 311100Z 07002MPS 040V110 6000 BKN005 OVC040 12/11 Q1019 BECMG TL1240 BKN004=
0181583670999992024013111304+31198+121336FM-15+000399999V0200801N00201001221CN005000199+01201+01101999999ADDGA1071+001221999GA2081+012191999GE19AGL   +99999+99999GF199999071999001221999999MA1101901999999MW1101REMMET068METAR ZSSS 311130Z 08002MPS 5000 BR BKN004 OVC040 12/11 Q1019 NOSIG=
0181583670999992024013112004+31198+121336FM-15+000399999V0209999V00101000911CN005000199+01201+01101999999ADDGA1071+000911999GA2081+012191999GE19AGL   +99999+99999GF199999071999000911999999MA1101901999999MW1101REMMET068METAR ZSSS 311200Z VRB01MPS 5000 BR BKN003 OVC040 12/11 Q1019 NOSIG=
0181583670999992024013112304+31198+121336FM-15+000399999V0201401N00101000911CN003000199+01201+01101999999ADDGA1071+000911999GA2081+012191999GE19AGL   +99999+99999GF199999071999000911999999MA1102001999999MW1101REMMET068METAR ZSSS 311230Z 14001MPS 3000 BR BKN003 OVC040 12/11 Q1020 NOSIG=
0204583670999992024013113004+31198+121336FM-15+000399999V0209999V00101000911CN002000199+01201+01101999999ADDGA1071+000911999GA2081+012191999GE19AGL   +99999+99999GF199999071999000911999999MA1101901999999MW1101MW2111REMMET085METAR ZSSS 311300Z VRB01MPS 2000 PRFG BR BKN003 OVC040 12/11 Q1019 BECMG TL1430 1200=
0191583670999992024013113304+31198+121336FM-15+000399999V0209999V00201000911CN002500199+01201+01101999999ADDGA1071+000911999GA2081+012191999GE19AGL   +99999+99999GF199999071999000911999999MA1102001999999MW1101MW2611REMMET072METAR ZSSS 311330Z VRB02MPS 2500 -RA BR BKN003 OVC040 12/11 Q1020 NOSIG=
0199583670999992024013114004+31198+121336FM-15+000399999V0200401V00201000911CN002500199+01101+01001999999ADDGA1071+000911999GA2081+012191999GE19AGL   +99999+99999GF199999071999000911999999MA1101901999999MW1101MW2611REMMET080METAR ZSSS 311400Z 04002MPS 360V110 2500 -RA BR BKN003 OVC040 11/10 Q1019 NOSIG=
0191583670999992024013114304+31198+121336FM-15+000399999V0203601N00401000611CN002500199+01101+01001999999ADDGA1071+000611999GA2081+012191999GE19AGL   +99999+99999GF199999071999000611999999MA1102001999999MW1101MW2611REMMET072METAR ZSSS 311430Z 36004MPS 2500 -RA BR BKN002 OVC040 11/10 Q1020 NOSIG=
0201583670999992024013115004+31198+121336FM-15+000399999V0200301V00201000611CN002800199+01101+01001999999ADDGA1071+000611999GA2081+012191999GE19AGL   +99999+99999GF199999071999000611999999MA1101901999999MW1101REMMET088METAR ZSSS 311500Z 03002MPS 350V060 2800 BR BKN002 OVC040 11/10 Q1019 BECMG TL1530 3200=
0189583670999992024013115304+31198+121336FM-15+000399999V0200101V00301000611CN004000199+01101+01001999999ADDGA1071+000611999GA2081+012191999GE19AGL   +99999+99999GF199999071999000611999999MA1101901999999MW1101REMMET076METAR ZSSS 311530Z 01003MPS 330V050 4000 BR BKN002 OVC040 11/10 Q1019 NOSIG=
0172583670999992024013116004+31198+121336FM-15+000399999V0200101N00401000911CN006000199+01001+01001999999ADDGA1071+000911999GA2081+012191999GE19AGL   +99999+99999GF199999071999000911999999MA1101901999999REMMET065METAR ZSSS 311600Z 01004MPS 6000 BKN003 OVC040 10/10 Q1019 NOSIG=
0172583670999992024013116304+31198+121336FM-15+000399999V0203601N00301001221CN006000199+01001+01001999999ADDGA1071+001221999GA2081+012191999GE19AGL   +99999+99999GF199999071999001221999999MA1101901999999REMMET065METAR ZSSS 311630Z 36003MPS 6000 BKN004 OVC040 10/10 Q1019 NOSIG=
0172583670999992024013117004+31198+121336FM-15+000399999V0203601N00301001221CN006000199+01001+01001999999ADDGA1071+001221999GA2081+012191999GE19AGL   +99999+99999GF199999071999001221999999MA1101901999999REMMET065METAR ZSSS 311700Z 36003MPS 6000 BKN004 OVC040 10/10 Q1019 NOSIG=
0172583670999992024013117304+31198+121336FM-15+000399999V0200201N00301001221CN006000199+01001+01001999999ADDGA1071+001221999GA2081+012191999GE19AGL   +99999+99999GF199999071999001221999999MA1101901999999REMMET065METAR ZSSS 311730Z 02003MPS 6000 BKN004 OVC040 10/10 Q1019 NOSIG=
0186583670999992024013118004+31198+121336FM-15+000399999V0203601N00401001221CN006000199+01001+00901999999ADDGA1071+001221999GA2081+012191999GE19AGL   +99999+99999GF199999071999001221999999MA1101901999999REMMET079METAR ZSSS 311800Z 36004MPS 6000 BKN004 OVC040 10/09 Q1019 BECMG TL1920 BKN005=
0191583670999992024013118304+31198+121336FM-15+000399999V0203301N00601000911CN003000199+01001+00901999999ADDGA1071+000911999GA2081+012191999GE19AGL   +99999+99999GF199999071999000911999999MA1102001999999MW1101MW2611REMMET072METAR ZSSS 311830Z 33006MPS 3000 -RA BR BKN003 OVC040 10/09 Q1020 NOSIG=
0191583670999992024013119004+31198+121336FM-15+000399999V0200101N00301000911CN003000199+00901+00901999999ADDGA1071+000911999GA2081+012191999GE19AGL   +99999+99999GF199999071999000911999999MA1101901999999MW1101MW2611REMMET072METAR ZSSS 311900Z 01003MPS 3000 -RA BR BKN003 OVC040 09/09 Q1019 NOSIG=
0182583670999992024013119304+31198+121336FM-15+000399999V0209999V00201001221CN006000199+01001+00901999999ADDGA1071+001221999GA2081+012191999GE19AGL   +99999+99999GF199999071999001221999999MA1101901999999MW1611REMMET069METAR ZSSS 311930Z VRB02MPS 6000 -RA BKN004 OVC040 10/09 Q1019 NOSIG=
0196583670999992024013120004+31198+121336FM-15+000399999V0203601N00401001221CN006000199+01001+00901999999ADDGA1071+001221999GA2081+012191999GE19AGL   +99999+99999GF199999071999001221999999MA1101901999999MW1611REMMET083METAR ZSSS 312000Z 36004MPS 6000 -RA BKN004 OVC040 10/09 Q1019 BECMG TL2050 BKN005=
0200583670999992024013120304+31198+121336FM-15+000399999V0203401N00401001521CN005000199+01001+00901999999ADDGA1071+001521999GA2081+012191999GE19AGL   +99999+99999GF199999071999001521999999MA1101901999999MW1101MW2801REMMET081METAR ZSSS 312030Z 34004MPS 5000 -SHRA BR BKN005 OVC040 10/09 Q1019 RESHRA NOSIG=
0184583670999992024013121004+31198+121336FM-15+000399999V0203501N00401001521CN009000199+01001+00901999999ADDGA1071+001521999GA2081+010061999GE19AGL   +99999+99999GF199999071999001521999999MA1101901999999MW1801REMMET071METAR ZSSS 312100Z 35004MPS 9000 -SHRA BKN005 OVC033 10/09 Q1019 NOSIG=
0184583670999992024013121304+31198+121336FM-15+000399999V0203501N00201001521CN006000199+00901+00901999999ADDGA1071+001521999GA2081+010061999GE19AGL   +99999+99999GF199999071999001521999999MA1102001999999MW1801REMMET071METAR ZSSS 312130Z 35002MPS 6000 -SHRA BKN005 OVC033 09/09 Q1020 NOSIG=
0184583670999992024013122004+31198+121336FM-15+000399999V0203501N00401001831CN009999199+00901+00901999999ADDGA1071+001831999GA2081+010061999GE19AGL   +99999+99999GF199999071999001831999999MA1102001999999MW1801REMMET071METAR ZSSS 312200Z 35004MPS 9999 -SHRA BKN006 OVC033 09/09 Q1020 NOSIG=
0184583670999992024013122304+31198+121336FM-15+000399999V0203401N00601001831CN009999199+01001+00901999999ADDGA1071+001831999GA2081+010061999GE19AGL   +99999+99999GF199999071999001831999999MA1102101999999MW1801REMMET071METAR ZSSS 312230Z 34006MPS 9999 -SHRA BKN006 OVC033 10/09 Q1021 NOSIG=
0184583670999992024013123004+31198+121336FM-15+000399999V0200101N00501001831CN008000199+00901+00901999999ADDGA1071+001831999GA2081+010061999GE19AGL   +99999+99999GF199999071999001831999999MA1102101999999MW1801REMMET071METAR ZSSS 312300Z 01005MPS 8000 -SHRA BKN006 OVC033 09/09 Q1021 NOSIG=
0182583670999992024013123304+31198+121336FM-15+000399999V0200101N00601001831CN009000199+00901+00901999999ADDGA1071+001831999GA2081+010061999GE19AGL   +99999+99999GF199999071999001831999999MA1102101999999MW1611REMMET069METAR ZSSS 312330Z 01006MPS 9000 -RA BKN006 OVC033 09/09 Q1021 NOSIG=
0182583670999992024020100004+31198+121336FM-15+000399999V0200301N00601002131CN009999199+01001+00901999999ADDGA1071+002131999GA2081+010061999GE19AGL   +99999+99999GF199999071999002131999999MA1102201999999MW1611REMMET069METAR ZSSS 010000Z 03006MPS 9999 -RA BKN007 OVC033 10/09 Q1022 NOSIG=
0182583670999992024020100304+31198+121336FM-15+000399999V0200301N00601002441CN009999199+01001+00901999999ADDGA1071+002441999GA2081+010061999GE19AGL   +99999+99999GF199999071999002441999999MA1102301999999MW1611REMMET069METAR ZSSS 010030Z 03006MPS 9999 -RA BKN008 OVC033 10/09 Q1023 NOSIG=
0182583670999992024020101004+31198+121336FM-15+000399999V0200301N00701002441CN009999199+01001+00801999999ADDGA1071+002441999GA2081+010061999GE19AGL   +99999+99999GF199999071999002441999999MA1102301999999MW1611REMMET069METAR ZSSS 010100Z 03007MPS 9999 -RA BKN008 OVC033 10/08 Q1023 NOSIG=
0182583670999992024020101304+31198+121336FM-15+000399999V0200401N00901002441CN009999199+00901+00801999999ADDGA1071+002441999GA2081+010061999GE19AGL   +99999+99999GF199999071999002441999999MA1102301999999MW1611REMMET069METAR ZSSS 010130Z 04009MPS 9999 -RA BKN008 OVC033 09/08 Q1023 NOSIG=
0182583670999992024020102004+31198+121336FM-15+000399999V0200201N00801002441CN009999199+00901+00801999999ADDGA1071+002441999GA2081+010061999GE19AGL   +99999+99999GF199999071999002441999999MA1102401999999MW1611REMMET069METAR ZSSS 010200Z 02008MPS 9999 -RA BKN008 OVC033 09/08 Q1024 NOSIG=
0182583670999992024020102304+31198+121336FM-15+000399999V0200301N00701002441CN009999199+00901+00801999999ADDGA1071+002441999GA2081+010061999GE19AGL   +99999+99999GF199999071999002441999999MA1102401999999MW1611REMMET069METAR ZSSS 010230Z 03007MPS 9999 -RA BKN008 OVC033 09/08 Q1024 NOSIG=
0196583670999992024020103004+31198+121336FM-15+000399999V0200301N00601002741CN009999199+00901+00801999999ADDGA1071+002741999GA2081+010061999GE19AGL   +99999+99999GF199999071999002741999999MA1102501999999MW1611REMMET083METAR ZSSS 010300Z 03006MPS 9999 -RA BKN009 OVC033 09/08 Q1025 BECMG TL0440 BKN010=
0182583670999992024020103304+31198+121336FM-15+000399999V0200301N00701003351CN009999199+00901+00701999999ADDGA1071+003351999GA2081+010061999GE19AGL   +99999+99999GF199999071999003351999999MA1102401999999MW1611REMMET069METAR ZSSS 010330Z 03007MPS 9999 -RA BKN011 OVC033 09/07 Q1024 NOSIG=
0182583670999992024020104004+31198+121336FM-15+000399999V0200301N00701003351CN009999199+00801+00701999999ADDGA1071+003351999GA2081+010061999GE19AGL   +99999+99999GF199999071999003351999999MA1102301999999MW1611REMMET069METAR ZSSS 010400Z 03007MPS 9999 -RA BKN011 OVC033 08/07 Q1023 NOSIG=
0190583670999992024020104304+31198+121336FM-15+000399999V0200201V00801003351CN009999199+00801+00601999999ADDGA1071+003351999GA2081+010061999GE19AGL   +99999+99999GF199999071999003351999999MA1102401999999MW1611REMMET077METAR ZSSS 010430Z 02008MPS 350V050 9999 -RA BKN011 OVC033 08/06 Q1024 NOSIG=
0182583670999992024020105004+31198+121336FM-15+000399999V0200301N00701003351CN009999199+00801+00601999999ADDGA1071+003351999GA2081+010061999GE19AGL   +99999+99999GF199999071999003351999999MA1102401999999MW1611REMMET069METAR ZSSS 010500Z 03007MPS 9999 -RA BKN011 OVC033 08/06 Q1024 NOSIG=
0182583670999992024020105304+31198+121336FM-15+000399999V0200201N00701003351CN009999199+00801+00601999999ADDGA1071+003351999GA2081+010061999GE19AGL   +99999+99999GF199999071999003351999999MA1102401999999MW1611REMMET069METAR ZSSS 010530Z 02007MPS 9999 -RA BKN011 OVC033 08/06 Q1024 NOSIG=
0182583670999992024020106004+31198+121336FM-15+000399999V0200401N00701003351CN009999199+00701+00601999999ADDGA1071+003351999GA2081+010061999GE19AGL   +99999+99999GF199999071999003351999999MA1102401999999MW1611REMMET069METAR ZSSS 010600Z 04007MPS 9999 -RA BKN011 OVC033 07/06 Q1024 NOSIG=
0182583670999992024020106304+31198+121336FM-15+000399999V0200301N00601003351CN009999199+00701+00601999999ADDGA1071+003351999GA2081+010061999GE19AGL   +99999+99999GF199999071999003351999999MA1102401999999MW1611REMMET069METAR ZSSS 010630Z 03006MPS 9999 -RA BKN011 OVC033 07/06 Q1024 NOSIG=
0196583670999992024020107004+31198+121336FM-15+000399999V0200401N00601003351CN009999199+00701+00501999999ADDGA1071+003351999GA2081+010061999GE19AGL   +99999+99999GF199999071999003351999999MA1102401999999MW1611REMMET083METAR ZSSS 010700Z 04006MPS 9999 -RA BKN011 OVC033 07/05 Q1024 BECMG TL0800 BKN009=
0182583670999992024020107304+31198+121336FM-15+000399999V0200301N00501002741CN009999199+00701+00601999999ADDGA1071+002741999GA2081+010061999GE19AGL   +99999+99999GF199999071999002741999999MA1102401999999MW1611REMMET069METAR ZSSS 010730Z 03005MPS 9999 -RA BKN009 OVC033 07/06 Q1024 NOSIG=
0196583670999992024020108004+31198+121336FM-15+000399999V0200201N00701002741CN008000199+00701+00501999999ADDGA1071+002741999GA2081+010061999GE19AGL   +99999+99999GF199999071999002741999999MA1102501999999MW1611REMMET083METAR ZSSS 010800Z 02007MPS 8000 -RA BKN009 OVC033 07/05 Q1025 BECMG TL0850 BKN010=
0190583670999992024020108304+31198+121336FM-15+000399999V0200101V00601003351CN008000199+00701+00501999999ADDGA1071+003351999GA2081+010061999GE19AGL   +99999+99999GF199999071999003351999999MA1102501999999MW1611REMMET077METAR ZSSS 010830Z 01006MPS 350V050 8000 -RA BKN011 OVC033 07/05 Q1025 NOSIG=
0182583670999992024020109004+31198+121336FM-15+000399999V0200101N00601003961CN008000199+00701+00501999999ADDGA1071+003961999GA2081+010061999GE19AGL   +99999+99999GF199999071999003961999999MA1102501999999MW1611REMMET069METAR ZSSS 010900Z 01006MPS 8000 -RA BKN013 OVC033 07/05 Q1025 NOSIG=
0182583670999992024020109304+31198+121336FM-15+000399999V0200201N00601003961CN007000199+00601+00501999999ADDGA1071+003961999GA2081+010061999GE19AGL   +99999+99999GF199999071999003961999999MA1102601999999MW1611REMMET069METAR ZSSS 010930Z 02006MPS 7000 -RA BKN013 OVC033 06/05 Q1026 NOSIG=
0196583670999992024020110004+31198+121336FM-15+000399999V0200101N00601003961CN007000199+00601+00501999999ADDGA1071+003961999GA2081+010061999GE19AGL   +99999+99999GF199999071999003961999999MA1102601999999MW1611REMMET083METAR ZSSS 011000Z 01006MPS 7000 -RA BKN013 OVC033 06/05 Q1026 BECMG TL1050 BKN009=
0182583670999992024020110304+31198+121336FM-15+000399999V0200101N00601003961CN008000199+00601+00401999999ADDGA1071+003961999GA2081+010061999GE19AGL   +99999+99999GF199999071999003961999999MA1102601999999MW1611REMMET069METAR ZSSS 011030Z 01006MPS 8000 -RA BKN013 OVC033 06/04 Q1026 NOSIG=
0196583670999992024020111004+31198+121336FM-15+000399999V0200101N00601003961CN009999199+00601+00401999999ADDGA1071+003961999GA2081+010061999GE19AGL   +99999+99999GF199999071999003961999999MA1102601999999MW1611REMMET083METAR ZSSS 011100Z 01006MPS 9999 -RA BKN013 OVC033 06/04 Q1026 BECMG TL1130 BKN015=
0159583670999992024020111304+31198+121336FM-15+000399999V0200101N00701004571CN009999199+00601+00401999999ADDGA1071+004571999GE19AGL   +99999+99999GF199999071999004571999999MA1102701999999MW1611REMMET062METAR ZSSS 011130Z 01007MPS 9999 -RA BKN015 06/04 Q1027 NOSIG=
0159583670999992024020112004+31198+121336FM-15+000399999V0200101N00601004571CN009999199+00601+00401999999ADDGA1071+004571999GE19AGL   +99999+99999GF199999071999004571999999MA1102701999999MW1611REMMET062METAR ZSSS 011200Z 01006MPS 9999 -RA BKN015 06/04 Q1027 NOSIG=
0159583670999992024020112304+31198+121336FM-15+000399999V0200101N00601004571CN009999199+00601+00401999999ADDGA1071+004571999GE19AGL   +99999+99999GF199999071999004571999999MA1102701999999MW1611REMMET062METAR ZSSS 011230Z 01006MPS 9999 -RA BKN015 06/04 Q1027 NOSIG=
0159583670999992024020113004+31198+121336FM-15+000399999V0200101N00601004571CN009999199+00501+00401999999ADDGA1071+004571999GE19AGL   +99999+99999GF199999071999004571999999MA1102701999999MW1611REMMET062METAR ZSSS 011300Z 01006MPS 9999 -RA BKN015 05/04 Q1027 NOSIG=
0149583670999992024020113304+31198+121336FM-15+000399999V0200101N00601004571CN009999199+00501+00301999999ADDGA1071+004571999GE19AGL   +99999+99999GF199999071999004571999999MA1102701999999REMMET058METAR ZSSS 011330Z 01006MPS 9999 BKN015 05/03 Q1027 NOSIG=
0149583670999992024020114004+31198+121336FM-15+000399999V0203601N00601004571CN009999199+00501+00301999999ADDGA1071+004571999GE19AGL   +99999+99999GF199999071999004571999999MA1102701999999REMMET058METAR ZSSS 011400Z 36006MPS 9999 BKN015 05/03 Q1027 NOSIG=
0159583670999992024020114304+31198+121336FM-15+000399999V0200101N00601004571CN009999199+00501+00301999999ADDGA1071+004571999GE19AGL   +99999+99999GF199999071999004571999999MA1102701999999MW1611REMMET062METAR ZSSS 011430Z 01006MPS 9999 -RA BKN015 05/03 Q1027 NOSIG=
0159583670999992024020115004+31198+121336FM-15+000399999V0200101N00701004571CN009999199+00501+00301999999ADDGA1071+004571999GE19AGL   +99999+99999GF199999071999004571999999MA1102701999999MW1611REMMET062METAR ZSSS 011500Z 01007MPS 9999 -RA BKN015 05/03 Q1027 NOSIG=
0159583670999992024020115304+31198+121336FM-15+000399999V0200101N00601004571CN009999199+00501+00301999999ADDGA1071+004571999GE19AGL   +99999+99999GF199999071999004571999999MA1102701999999MW1611REMMET062METAR ZSSS 011530Z 01006MPS 9999 -RA BKN015 05/03 Q1027 NOSIG=
0173583670999992024020116004+31198+121336FM-15+000399999V0200101N00701004571CN009999199+00501+00301999999ADDGA1071+004571999GE19AGL   +99999+99999GF199999071999004571999999MA1102701999999MW1611REMMET076METAR ZSSS 011600Z 01007MPS 9999 -RA BKN015 05/03 Q1027 BECMG TL1630 BKN013=
0159583670999992024020116304+31198+121336FM-15+000399999V0200101N00701003961CN009999199+00501+00301999999ADDGA1071+003961999GE19AGL   +99999+99999GF199999071999003961999999MA1102701999999MW1611REMMET062METAR ZSSS 011630Z 01007MPS 9999 -RA BKN013 05/03 Q1027 NOSIG=
0173583670999992024020117004+31198+121336FM-15+000399999V0200101N00601003961CN009999199+00401+00301999999ADDGA1071+003961999GE19AGL   +99999+99999GF199999071999003961999999MA1102701999999MW1611REMMET076METAR ZSSS 011700Z 01006MPS 9999 -RA BKN013 04/03 Q1027 BECMG TL1750 BKN009=
0159583670999992024020117304+31198+121336FM-15+000399999V0200101N00601002741CN009999199+00401+00301999999ADDGA1071+002741999GE19AGL   +99999+99999GF199999071999002741999999MA1102701999999MW1611REMMET062METAR ZSSS 011730Z 01006MPS 9999 -RA BKN009 04/03 Q1027 NOSIG=
0173583670999992024020118004+31198+121336FM-15+000399999V0200101N00601002741CN009999199+00401+00301999999ADDGA1071+002741999GE19AGL   +99999+99999GF199999071999002741999999MA1102701999999MW1611REMMET076METAR ZSSS 011800Z 01006MPS 9999 -RA BKN009 04/03 Q1027 BECMG TL1840 BKN011=
0159583670999992024020118304+31198+121336FM-15+000399999V0203501N00701003351CN009999199+00401+00301999999ADDGA1071+003351999GE19AGL   +99999+99999GF199999071999003351999999MA1102801999999MW1611REMMET062METAR ZSSS 011830Z 35007MPS 9999 -RA BKN011 04/03 Q1028 NOSIG=
0159583670999992024020119004+31198+121336FM-15+000399999V0200101N00701003351CN009999199+00401+00301999999ADDGA1071+003351999GE19AGL   +99999+99999GF199999071999003351999999MA1102701999999MW1611REMMET062METAR ZSSS 011900Z 01007MPS 9999 -RA BKN011 04/03 Q1027 NOSIG=
0159583670999992024020119304+31198+121336FM-15+000399999V0200101N00601003351CN009999199+00401+00301999999ADDGA1071+003351999GE19AGL   +99999+99999GF199999071999003351999999MA1102601999999MW1611REMMET062METAR ZSSS 011930Z 01006MPS 9999 -RA BKN011 04/03 Q1026 NOSIG=
0159583670999992024020120004+31198+121336FM-15+000399999V0200101N00601003351CN009999199+00401+00301999999ADDGA1071+003351999GE19AGL   +99999+99999GF199999071999003351999999MA1102701999999MW1611REMMET062METAR ZSSS 012000Z 01006MPS 9999 -RA BKN011 04/03 Q1027 NOSIG=
0159583670999992024020120304+31198+121336FM-15+000399999V0203601N00501003351CN009999199+00401+00301999999ADDGA1071+003351999GE19AGL   +99999+99999GF199999071999003351999999MA1102801999999MW1611REMMET062METAR ZSSS 012030Z 36005MPS 9999 -RA BKN011 04/03 Q1028 NOSIG=
0159583670999992024020121004+31198+121336FM-15+000399999V0200101N00701003961CN009999199+00401+00201999999ADDGA1071+003961999GE19AGL   +99999+99999GF199999071999003961999999MA1102701999999MW1611REMMET062METAR ZSSS 012100Z 01007MPS 9999 -RA BKN013 04/02 Q1027 NOSIG=
0159583670999992024020121304+31198+121336FM-15+000399999V0200201N00701003961CN009999199+00401+00201999999ADDGA1071+003961999GE19AGL   +99999+99999GF199999071999003961999999MA1102701999999MW1611REMMET062METAR ZSSS 012130Z 02007MPS 9999 -RA BKN013 04/02 Q1027 NOSIG=
0173583670999992024020122004+31198+121336FM-15+000399999V0200101N00501003961CN009999199+00401+00301999999ADDGA1071+003961999GE19AGL   +99999+99999GF199999071999003961999999MA1102701999999MW1611REMMET076METAR ZSSS 012200Z 01005MPS 9999 -RA BKN013 04/03 Q1027 BECMG TL2350 BKN015=
0149583670999992024020122304+31198+121336FM-15+000399999V0203601N00601003961CN009999199+00401+00201999999ADDGA1071+003961999GE19AGL   +99999+99999GF199999071999003961999999MA1102801999999REMMET058METAR ZSSS 012230Z 36006MPS 9999 BKN013 04/02 Q1028 NOSIG=
0149583670999992024020123004+31198+121336FM-15+000399999V0200101N00401003961CN009999199+00401+00201999999ADDGA1071+003961999GE19AGL   +99999+99999GF199999071999003961999999MA1102801999999REMMET058METAR ZSSS 012300Z 01004MPS 9999 BKN013 04/02 Q1028 NOSIG=
0149583670999992024020123304+31198+121336FM-15+000399999V0203601N00501003961CN009999199+00401+00201999999ADDGA1071+003961999GE19AGL   +99999+99999GF199999071999003961999999MA1102901999999REMMET058METAR ZSSS 012330Z 36005MPS 9999 BKN013 04/02 Q1029 NOSIG=
0163583670999992024020200004+31198+121336FM-15+000399999V0203601N00501003961CN009999199+00401+00201999999ADDGA1071+003961999GE19AGL   +99999+99999GF199999071999003961999999MA1103001999999REMMET072METAR ZSSS 020000Z 36005MPS 9999 BKN013 04/02 Q1030 BECMG TL0140 BKN015=
0149583670999992024020200304+31198+121336FM-15+000399999V0200201N00601004571CN009999199+00401+00201999999ADDGA1071+004571999GE19AGL   +99999+99999GF199999071999004571999999MA1102801999999REMMET058METAR ZSSS 020030Z 02006MPS 9999 BKN015 04/02 Q1028 NOSIG=
0149583670999992024020201004+31198+121336FM-15+000399999V0200101N00601004571CN009999199+00401+00201999999ADDGA1071+004571999GE19AGL   +99999+99999GF199999071999004571999999MA1102901999999REMMET058METAR ZSSS 020100Z 01006MPS 9999 BKN015 04/02 Q1029 NOSIG=
0149583670999992024020201304+31198+121336FM-15+000399999V0203601N00501004881CN009999199+00401+00201999999ADDGA1071+004881999GE19AGL   +99999+99999GF199999071999004881999999MA1102901999999REMMET058METAR ZSSS 020130Z 36005MPS 9999 BKN016 04/02 Q1029 NOSIG=
0149583670999992024020202004+31198+121336FM-15+000399999V0203501N00401004881CN009999199+00501+00201999999ADDGA1071+004881999GE19AGL   +99999+99999GF199999071999004881999999MA1103001999999REMMET058METAR ZSSS 020200Z 35004MPS 9999 BKN016 05/02 Q1030 NOSIG=
0149583670999992024020202304+31198+121336FM-15+000399999V0200101N00501004881CN009999199+00501+00201999999ADDGA1071+004881999GE19AGL   +99999+99999GF199999071999004881999999MA1102901999999REMMET058METAR ZSSS 020230Z 01005MPS 9999 BKN016 05/02 Q1029 NOSIG=
0149583670999992024020203004+31198+121336FM-15+000399999V0200101N00501004881CN009999199+00501+00201999999ADDGA1071+004881999GE19AGL   +99999+99999GF199999071999004881999999MA1102901999999REMMET058METAR ZSSS 020300Z 01005MPS 9999 BKN016 05/02 Q1029 NOSIG=
0149583670999992024020203304+31198+121336FM-15+000399999V0203601N00701004881CN009999199+00501+00201999999ADDGA1071+004881999GE19AGL   +99999+99999GF199999071999004881999999MA1102901999999REMMET058METAR ZSSS 020330Z 36007MPS 9999 BKN016 05/02 Q1029 NOSIG=
0149583670999992024020204004+31198+121336FM-15+000399999V0203601N00501006101CN009999199+00501+00201999999ADDGA1071+006101999GE19AGL   +99999+99999GF199999071999006101999999MA1102901999999REMMET058METAR ZSSS 020400Z 36005MPS 9999 BKN020 05/02 Q1029 NOSIG=
0149583670999992024020204304+31198+121336FM-15+000399999V0200101N00601006101CN009999199+00601+00201999999ADDGA1071+006101999GE19AGL   +99999+99999GF199999071999006101999999MA1102801999999REMMET058METAR ZSSS 020430Z 01006MPS 9999 BKN020 06/02 Q1028 NOSIG=
0149583670999992024020205004+31198+121336FM-15+000399999V0200101N00601006101CN009999199+00601+00201999999ADDGA1071+006101999GE19AGL   +99999+99999GF199999071999006101999999MA1102701999999REMMET058METAR ZSSS 020500Z 01006MPS 9999 BKN020 06/02 Q1027 NOSIG=
0149583670999992024020205304+31198+121336FM-15+000399999V0200101N00501006101CN009999199+00601+00201999999ADDGA1071+006101999GE19AGL   +99999+99999GF199999071999006101999999MA1102701999999REMMET058METAR ZSSS 020530Z 01005MPS 9999 BKN020 06/02 Q1027 NOSIG=
0149583670999992024020206004+31198+121336FM-15+000399999V0200101N00501006101CN009999199+00601+00201999999ADDGA1071+006101999GE19AGL   +99999+99999GF199999071999006101999999MA1102701999999REMMET058METAR ZSSS 020600Z 01005MPS 9999 BKN020 06/02 Q1027 NOSIG=
0157583670999992024020206304+31198+121336FM-15+000399999V0200301V00401006101CN009999199+00601+00201999999ADDGA1071+006101999GE19AGL   +99999+99999GF199999071999006101999999MA1102701999999REMMET066METAR ZSSS 020630Z 03004MPS 360V060 9999 BKN020 06/02 Q1027 NOSIG=
0157583670999992024020207004+31198+121336FM-15+000399999V0200301V00401006101CN009999199+00601+00201999999ADDGA1071+006101999GE19AGL   +99999+99999GF199999071999006101999999MA1102701999999REMMET066METAR ZSSS 020700Z 03004MPS 350V070 9999 BKN020 06/02 Q1027 NOSIG=
0149583670999992024020207304+31198+121336FM-15+000399999V0200301N00501006101CN009999199+00601+00201999999ADDGA1071+006101999GE19AGL   +99999+99999GF199999071999006101999999MA1102701999999REMMET058METAR ZSSS 020730Z 03005MPS 9999 BKN020 06/02 Q1027 NOSIG=
0149583670999992024020208004+31198+121336FM-15+000399999V0200401N00401006101CN009999199+00601+00201999999ADDGA1071+006101999GE19AGL   +99999+99999GF199999071999006101999999MA1102701999999REMMET058METAR ZSSS 020800Z 04004MPS 9999 BKN020 06/02 Q1027 NOSIG=
0149583670999992024020208304+31198+121336FM-15+000399999V0200201N00601006101CN009999199+00601+00201999999ADDGA1071+006101999GE19AGL   +99999+99999GF199999071999006101999999MA1102701999999REMMET058METAR ZSSS 020830Z 02006MPS 9999 BKN020 06/02 Q1027 NOSIG=
0149583670999992024020209004+31198+121336FM-15+000399999V0200201N00501006101CN009999199+00601+00201999999ADDGA1071+006101999GE19AGL   +99999+99999GF199999071999006101999999MA1102701999999REMMET058METAR ZSSS 020900Z 02005MPS 9999 BKN020 06/02 Q1027 NOSIG=
0149583670999992024020209304+31198+121336FM-15+000399999V0200301N00501006101CN009999199+00601+00201999999ADDGA1071+006101999GE19AGL   +99999+99999GF199999071999006101999999MA1102801999999REMMET058METAR ZSSS 020930Z 03005MPS 9999 BKN020 06/02 Q1028 NOSIG=
0149583670999992024020210004+31198+121336FM-15+000399999V0200201N00401006101CN009999199+00501+00201999999ADDGA1071+006101999GE19AGL   +99999+99999GF199999071999006101999999MA1102801999999REMMET058METAR ZSSS 021000Z 02004MPS 9999 BKN020 05/02 Q1028 NOSIG=
0159583670999992024020210304+31198+121336FM-15+000399999V0200201N00501006101CN009999199+00501+00201999999ADDGA1071+006101999GE19AGL   +99999+99999GF199999071999006101999999MA1102801999999MW1611REMMET062METAR ZSSS 021030Z 02005MPS 9999 -RA BKN020 05/02 Q1028 NOSIG=
0173583670999992024020211004+31198+121336FM-15+000399999V0200301N00401004881CN009999199+00501+00301999999ADDGA1071+004881999GE19AGL   +99999+99999GF199999071999004881999999MA1102801999999MW1611REMMET076METAR ZSSS 021100Z 03004MPS 9999 -RA BKN016 05/03 Q1028 BECMG TL1230 BKN013=
0159583670999992024020211304+31198+121336FM-15+000399999V0200401N00501004571CN008000199+00501+00301999999ADDGA1071+004571999GE19AGL   +99999+99999GF199999071999004571999999MA1102801999999MW1611REMMET062METAR ZSSS 021130Z 04005MPS 8000 -RA BKN015 05/03 Q1028 NOSIG=
0173583670999992024020212004+31198+121336FM-15+000399999V0200301N00401003351CN007000199+00501+00301999999ADDGA1071+003351999GE19AGL   +99999+99999GF199999071999003351999999MA1102801999999MW1611REMMET076METAR ZSSS 021200Z 03004MPS 7000 -RA BKN011 05/03 Q1028 BECMG TL1330 BKN009=
0159583670999992024020212304+31198+121336FM-15+000399999V0203601N00401002741CN009999199+00401+00301999999ADDGA1071+002741999GE19AGL   +99999+99999GF199999071999002741999999MA1102801999999MW1611REMMET062METAR ZSSS 021230Z 36004MPS 9999 -RA BKN009 04/03 Q1028 NOSIG=
0173583670999992024020213004+31198+121336FM-15+000399999V0203501N00401002741CN008000199+00501+00301999999ADDGA1071+002741999GE19AGL   +99999+99999GF199999071999002741999999MA1102801999999MW1611REMMET076METAR ZSSS 021300Z 35004MPS 8000 -RA BKN009 05/03 Q1028 BECMG TL1430 BKN010=
0167583670999992024020213304+31198+121336FM-15+000399999V0203601V00301002441CN005000199+00501+00301999999ADDGA1071+002441999GE19AGL   +99999+99999GF199999071999002441999999MA1102801999999MW1611REMMET070METAR ZSSS 021330Z 36003MPS 320V020 5000 -RA BKN008 05/03 Q1028 NOSIG=
0173583670999992024020214004+31198+121336FM-15+000399999V0200101N00301001831CN004000199+00401+00301999999ADDGA1071+001831999GE19AGL   +99999+99999GF199999071999001831999999MA1102801999999MW1611REMMET076METAR ZSSS 021400Z 01003MPS 4000 -RA BKN006 04/03 Q1028 BECMG TL1530 BKN004=
0159583670999992024020214304+31198+121336FM-15+000399999V0203601N00501001521CN004000199+00401+00401999999ADDGA1071+001521999GE19AGL   +99999+99999GF199999071999001521999999MA1102801999999MW1611REMMET062METAR ZSSS 021430Z 36005MPS 4000 -RA BKN005 04/04 Q1028 NOSIG=
0167583670999992024020215004+31198+121336FM-15+000399999V0200301V00401001521CN007000199+00501+00401999999ADDGA1071+001521999GE19AGL   +99999+99999GF199999071999001521999999MA1102701999999MW1611REMMET070METAR ZSSS 021500Z 03004MPS 360V060 7000 -RA BKN005 05/04 Q1027 NOSIG=
0159583670999992024020215304+31198+121336FM-15+000399999V0203601N00401001521CN006000199+00501+00401999999ADDGA1071+001521999GE19AGL   +99999+99999GF199999071999001521999999MA1102801999999MW1611REMMET062METAR ZSSS 021530Z 36004MPS 6000 -RA BKN005 05/04 Q1028 NOSIG=
0159583670999992024020216004+31198+121336FM-15+000399999V0203501N00301001521CN003500199+00501+00401999999ADDGA1071+001521999GE19AGL   +99999+99999GF199999071999001521999999MA1102701999999MW1611REMMET062METAR ZSSS 021600Z 35003MPS 3500 -RA BKN005 05/04 Q1027 NOSIG=
0159583670999992024020216304+31198+121336FM-15+000399999V0203501N00401001521CN002500199+00501+00401999999ADDGA1071+001521999GE19AGL   +99999+99999GF199999071999001521999999MA1102701999999MW1611REMMET062METAR ZSSS 021630Z 35004MPS 2500 -RA BKN005 05/04 Q1027 NOSIG=
0178583670999992024020217004+31198+121336FM-15+000399999V0200201N00401001521CN002500199+00501+00401999999ADDGA1071+001521999GE19AGL   +99999+99999GF199999071999001521999999MA1102601999999MW1611REMMET081METAR ZSSS 021700Z 02004MPS 2500 -RA BKN005 05/04 Q1026 BECMG TL1730 3000 BKN004=
0159583670999992024020217304+31198+121336FM-15+000399999V0200101N00301001221CN004000199+00501+00401999999ADDGA1071+001221999GE19AGL   +99999+99999GF199999071999001221999999MA1102701999999MW1611REMMET062METAR ZSSS 021730Z 01003MPS 4000 -RA BKN004 05/04 Q1027 NOSIG=
0159583670999992024020218004+31198+121336FM-15+000399999V0200301N00401001831CN009999199+00501+00401999999ADDGA1071+001831999GE19AGL   +99999+99999GF199999071999001831999999MA1102601999999MW1611REMMET062METAR ZSSS 021800Z 03004MPS 9999 -RA BKN006 05/04 Q1026 NOSIG=
0159583670999992024020218304+31198+121336FM-15+000399999V0200201N00401002131CN009999199+00501+00401999999ADDGA1071+002131999GE19AGL   +99999+99999GF199999071999002131999999MA1102701999999MW1611REMMET062METAR ZSSS 021830Z 02004MPS 9999 -RA BKN007 05/04 Q1027 NOSIG=
0159583670999992024020219004+31198+121336FM-15+000399999V0200301N00501002131CN009999199+00501+00401999999ADDGA1071+002131999GE19AGL   +99999+99999GF199999071999002131999999MA1102601999999MW1611REMMET062METAR ZSSS 021900Z 03005MPS 9999 -RA BKN007 05/04 Q1026 NOSIG=
0159583670999992024020219304+31198+121336FM-15+000399999V0200301N00501002441CN009999199+00501+00401999999ADDGA1071+002441999GE19AGL   +99999+99999GF199999071999002441999999MA1102501999999MW1611REMMET062METAR ZSSS 021930Z 03005MPS 9999 -RA BKN008 05/04 Q1025 NOSIG=
0159583670999992024020220004+31198+121336FM-15+000399999V0200401N00501002441CN009999199+00501+00401999999ADDGA1071+002441999GE19AGL   +99999+99999GF199999071999002441999999MA1102401999999MW1611REMMET062METAR ZSSS 022000Z 04005MPS 9999 -RA BKN008 05/04 Q1024 NOSIG=
0158583670999992024020220304+31198+121336FM-15+000399999V0200201N00501002441CN009999199+00501+00401999999ADDGA1071+002441999GE19AGL   +99999+99999GF199999071999002441999999MA1102501999999MW1631REMMET061METAR ZSSS 022030Z 02005MPS 9999 RA BKN008 05/04 Q1025 NOSIG=
0207583670999992024020221004+31198+121336FM-15+000399999V0200401N00501002441CN008000199+00501+00401999999ADDGA1071+002441999GA2021+009141091GE19AGL   +99999+99999GF199999071999002441999999MA1102501999999MW1951REMMET094METAR COR ZSSS 022100Z 04005MPS 8000 TSRA BKN008 FEW030CB 05/04 Q1025 RERA BECMG TL2140 -SHRA=
0193583670999992024020221304+31198+121336FM-15+000399999V0200201N00401002441CN006000199+00501+00401999999ADDGA1071+002441999GA2021+009141091GE19AGL   +99999+99999GF199999071999002441999999MA1102501999999MW1801REMMET080METAR ZSSS 022130Z 02004MPS 6000 -SHRA BKN008 FEW030CB 05/04 Q1025 RETSRA NOSIG=
0198583670999992024020222004+31198+121336FM-15+000399999V0203601N00401002441CN005000199+00501+00401999999ADDGA1071+002441999GA2021+009141091GE19AGL   +99999+99999GF199999071999002441999999MA1102701999999MW1811REMMET085METAR ZSSS 022200Z 36004MPS 5000 SHRA BKN008 FEW030CB 05/04 Q1027 BECMG TL2230 -SHRA=
0168583670999992024020222304+31198+121336FM-15+000399999V0200201N00301002131CN005000199+00501+00401999999ADDGA1071+002131999GE19AGL   +99999+99999GF199999071999002131999999MA1102601999999MW1801REMMET071METAR ZSSS 022230Z 02003MPS 5000 -SHRA BKN007 05/04 Q1026 RESHRA NOSIG=
0173583670999992024020223004+31198+121336FM-15+000399999V0203601N00501002131CN005000199+00501+00401999999ADDGA1071+002131999GE19AGL   +99999+99999GF199999071999002131999999MA1102601999999MW1801REMMET076METAR ZSSS 022300Z 36005MPS 5000 -SHRA BKN007 05/04 Q1026 BECMG TL2330 SHRA=
0160583670999992024020223304+31198+121336FM-15+000399999V0203401N00401002131CN004000199+00501+00401999999ADDGA1071+002131999GE19AGL   +99999+99999GF199999071999002131999999MA1102701999999MW1811REMMET063METAR ZSSS 022330Z 34004MPS 4000 SHRA BKN007 05/04 Q1027 NOSIG=
0168583670999992024020300004+31198+121336FM-15+000399999V0203501N00401002131CN006000199+00501+00401999999ADDGA1071+002131999GE19AGL   +99999+99999GF199999071999002131999999MA1102701999999MW1801REMMET071METAR ZSSS 030000Z 35004MPS 6000 -SHRA BKN007 05/04 Q1027 RESHRA NOSIG=
0161583670999992024020300304+31198+121336FM-15+000399999V0200101N00301002131CN006000199+00501+00401999999ADDGA1071+002131999GE19AGL   +99999+99999GF199999071999002131999999MA1102701999999MW1801REMMET064METAR ZSSS 030030Z 01003MPS 6000 -SHRA BKN007 05/04 Q1027 NOSIG=
0161583670999992024020301004+31198+121336FM-15+000399999V0203501N00401002131CN008000199+00501+00501999999ADDGA1071+002131999GE19AGL   +99999+99999GF199999071999002131999999MA1102701999999MW1801REMMET064METAR ZSSS 030100Z 35004MPS 8000 -SHRA BKN007 05/05 Q1027 NOSIG=
0161583670999992024020301304+31198+121336FM-15+000399999V0200101N00401002441CN008000199+00601+00501999999ADDGA1071+002441999GE19AGL   +99999+99999GF199999071999002441999999MA1102701999999MW1801REMMET064METAR ZSSS 030130Z 01004MPS 8000 -SHRA BKN008 06/05 Q1027 NOSIG=
0149583670999992024020302004+31198+121336FM-15+000399999V0203401N00401002741CN009999199+00601+00501999999ADDGA1071+002741999GE19AGL   +99999+99999GF199999071999002741999999MA1102701999999REMMET058METAR ZSSS 030200Z 34004MPS 9999 BKN009 06/05 Q1027 NOSIG=
0149583670999992024020302304+31198+121336FM-15+000399999V0203501N00401002741CN009999199+00601+00501999999ADDGA1071+002741999GE19AGL   +99999+99999GF199999071999002741999999MA1102701999999REMMET058METAR ZSSS 030230Z 35004MPS 9999 BKN009 06/05 Q1027 NOSIG=
0161583670999992024020303004+31198+121336FM-15+000399999V0203601N00601002741CN009999199+00601+00501999999ADDGA1071+002741999GE19AGL   +99999+99999GF199999071999002741999999MA1102601999999MW1801REMMET064METAR ZSSS 030300Z 36006MPS 9999 -SHRA BKN009 06/05 Q1026 NOSIG=
0161583670999992024020303304+31198+121336FM-15+000399999V0203601N00501002131CN006000199+00601+00501999999ADDGA1071+002131999GE19AGL   +99999+99999GF199999071999002131999999MA1102601999999MW1801REMMET064METAR ZSSS 030330Z 36005MPS 6000 -SHRA BKN007 06/05 Q1026 NOSIG=
0161583670999992024020304004+31198+121336FM-15+000399999V0203501N00501001831CN005000199+00601+00501999999ADDGA1071+001831999GE19AGL   +99999+99999GF199999071999001831999999MA1102601999999MW1801REMMET064METAR ZSSS 030400Z 35005MPS 5000 -SHRA BKN006 06/05 Q1026 NOSIG=
0161583670999992024020304304+31198+121336FM-15+000399999V0203601N00601001831CN005000199+00601+00501999999ADDGA1071+001831999GE19AGL   +99999+99999GF199999071999001831999999MA1102501999999MW1801REMMET064METAR ZSSS 030430Z 36006MPS 5000 -SHRA BKN006 06/05 Q1025 NOSIG=
0175583670999992024020305004+31198+121336FM-15+000399999V0203601N00501001831CN007000199+00601+00501999999ADDGA1071+001831999GE19AGL   +99999+99999GF199999071999001831999999MA1102501999999MW1801REMMET078METAR ZSSS 030500Z 36005MPS 7000 -SHRA BKN006 06/05 Q1025 BECMG TL0650 BKN011=
0161583670999992024020305304+31198+121336FM-15+000399999V0203501N00601002131CN007000199+00601+00501999999ADDGA1071+002131999GE19AGL   +99999+99999GF199999071999002131999999MA1102501999999MW1801REMMET064METAR ZSSS 030530Z 35006MPS 7000 -SHRA BKN007 06/05 Q1025 NOSIG=
0161583670999992024020306004+31198+121336FM-15+000399999V0203501N00601002441CN007000199+00601+00501999999ADDGA1071+002441999GE19AGL   +99999+99999GF199999071999002441999999MA1102501999999MW1801REMMET064METAR ZSSS 030600Z 35006MPS 7000 -SHRA BKN008 06/05 Q1025 NOSIG=
0161583670999992024020306304+31198+121336FM-15+000399999V0203601N00601002441CN006000199+00601+00501999999ADDGA1071+002441999GE19AGL   +99999+99999GF199999071999002441999999MA1102401999999MW1801REMMET064METAR ZSSS 030630Z 36006MPS 6000 -SHRA BKN008 06/05 Q1024 NOSIG=
0161583670999992024020307004+31198+121336FM-15+000399999V0203601N00701002441CN006000199+00601+00501999999ADDGA1071+002441999GE19AGL   +99999+99999GF199999071999002441999999MA1102401999999MW1801REMMET064METAR ZSSS 030700Z 36007MPS 6000 -SHRA BKN008 06/05 Q1024 NOSIG=
0161583670999992024020307304+31198+121336FM-15+000399999V0203501N00701002441CN008000199+00601+00501999999ADDGA1071+002441999GE19AGL   +99999+99999GF199999071999002441999999MA1102501999999MW1801REMMET064METAR ZSSS 030730Z 35007MPS 8000 -SHRA BKN008 06/05 Q1025 NOSIG=
0149583670999992024020308004+31198+121336FM-15+000399999V0203501N00801002741CN009999199+00601+00401999999ADDGA1071+002741999GE19AGL   +99999+99999GF199999071999002741999999MA1102501999999REMMET058METAR ZSSS 030800Z 35008MPS 9999 BKN009 06/04 Q1025 NOSIG=
0161583670999992024020308304+31198+121336FM-15+000399999V0203501N00701002741CN006000199+00501+00401999999ADDGA1071+002741999GE19AGL   +99999+99999GF199999071999002741999999MA1102501999999MW1801REMMET064METAR ZSSS 030830Z 35007MPS 6000 -SHRA BKN009 05/04 Q1025 NOSIG=
0161583670999992024020309004+31198+121336FM-15+000399999V0203601N00701002441CN005000199+00501+00401999999ADDGA1071+002441999GE19AGL   +99999+99999GF199999071999002441999999MA1102601999999MW1801REMMET064METAR ZSSS 030900Z 36007MPS 5000 -SHRA BKN008 05/04 Q1026 NOSIG=
0149583670999992024020309304+31198+121336FM-15+000399999V0203601N00701002441CN009999199+00501+00401999999ADDGA1071+002441999GE19AGL   +99999+99999GF199999071999002441999999MA1102601999999REMMET058METAR ZSSS 030930Z 36007MPS 9999 BKN008 05/04 Q1026 NOSIG=
0163583670999992024020310004+31198+121336FM-15+000399999V0203601N00701002441CN009999199+00501+00401999999ADDGA1071+002441999GE19AGL   +99999+99999GF199999071999002441999999MA1102601999999REMMET072METAR ZSSS 031000Z 36007MPS 9999 BKN008 05/04 Q1026 BECMG TL1140 BKN010=
0161583670999992024020310304+31198+121336FM-15+000399999V0203501N00701002741CN009999199+00501+00301999999ADDGA1071+002741999GE19AGL   +99999+99999GF199999071999002741999999MA1102701999999MW1801REMMET064METAR ZSSS 031030Z 35007MPS 9999 -SHRA BKN009 05/03 Q1027 NOSIG=
0149583670999992024020311004+31198+121336FM-15+000399999V0203601N00701002741CN009999199+00501+00301999999ADDGA1071+002741999GE19AGL   +99999+99999GF199999071999002741999999MA1102701999999REMMET058METAR ZSSS 031100Z 36007MPS 9999 BKN009 05/03 Q1027 NOSIG=
0149583670999992024020311304+31198+121336FM-15+000399999V0203601N00701003051CN009999199+00401+00301999999ADDGA1071+003051999GE19AGL   +99999+99999GF199999071999003051999999MA1102701999999REMMET058METAR ZSSS 031130Z 36007MPS 9999 BKN010 04/03 Q1027 NOSIG=
0175583670999992024020312004+31198+121336FM-15+000399999V0203601N00601003051CN009999199+00401+00301999999ADDGA1071+003051999GE19AGL   +99999+99999GF199999071999003051999999MA1102701999999MW1801REMMET078METAR ZSSS 031200Z 36006MPS 9999 -SHRA BKN010 04/03 Q1027 BECMG TL1340 BKN009=
0161583670999992024020312304+31198+121336FM-15+000399999V0203601N00601003051CN009999199+00401+00301999999ADDGA1071+003051999GE19AGL   +99999+99999GF199999071999003051999999MA1102701999999MW1801REMMET064METAR ZSSS 031230Z 36006MPS 9999 -SHRA BKN010 04/03 Q1027 NOSIG=
0161583670999992024020313004+31198+121336FM-15+000399999V0203601N00601002741CN009999199+00401+00301999999ADDGA1071+002741999GE19AGL   +99999+99999GF199999071999002741999999MA1102701999999MW1801REMMET064METAR ZSSS 031300Z 36006MPS 9999 -SHRA BKN009 04/03 Q1027 NOSIG=
0161583670999992024020313304+31198+121336FM-15+000399999V0203601N00601002741CN009999199+00401+00301999999ADDGA1071+002741999GE19AGL   +99999+99999GF199999071999002741999999MA1102701999999MW1801REMMET064METAR ZSSS 031330Z 36006MPS 9999 -SHRA BKN009 04/03 Q1027 NOSIG=
0163583670999992024020314004+31198+121336FM-15+000399999V0203501N00501002741CN009999199+00401+00301999999ADDGA1071+002741999GE19AGL   +99999+99999GF199999071999002741999999MA1102701999999REMMET072METAR ZSSS 031400Z 35005MPS 9999 BKN009 04/03 Q1027 BECMG TL1540 BKN010=
0149583670999992024020314304+31198+121336FM-15+000399999V0203401N00501003051CN009999199+00501+00301999999ADDGA1071+003051999GE19AGL   +99999+99999GF199999071999003051999999MA1102801999999REMMET058METAR ZSSS 031430Z 34005MPS 9999 BKN010 05/03 Q1028 NOSIG=
0175583670999992024020315004+31198+121336FM-15+000399999V0203501N00501003051CN009999199+00501+00301999999ADDGA1071+003051999GE19AGL   +99999+99999GF199999071999003051999999MA1102801999999MW1801REMMET078METAR ZSSS 031500Z 35005MPS 9999 -SHRA BKN010 05/03 Q1028 BECMG TL1550 BKN009=
0149583670999992024020315304+31198+121336FM-15+000399999V0203401N00401002741CN009999199+00501+00301999999ADDGA1071+002741999GE19AGL   +99999+99999GF199999071999002741999999MA1102801999999REMMET058METAR ZSSS 031530Z 34004MPS 9999 BKN009 05/03 Q1028 NOSIG=
0149583670999992024020316004+31198+121336FM-15+000399999V0203501N00501002741CN009999199+00501+00301999999ADDGA1071+002741999GE19AGL   +99999+99999GF199999071999002741999999MA1102701999999REMMET058METAR ZSSS 031600Z 35005MPS 9999 BKN009 05/03 Q1027 NOSIG=
0149583670999992024020316304+31198+121336FM-15+000399999V0203501N00501002741CN009999199+00501+00301999999ADDGA1071+002741999GE19AGL   +99999+99999GF199999071999002741999999MA1102701999999REMMET058METAR ZSSS 031630Z 35005MPS 9999 BKN009 05/03 Q1027 NOSIG=
0163583670999992024020317004+31198+121336FM-15+000399999V0203601N00501002741CN009999199+00501+00301999999ADDGA1071+002741999GE19AGL   +99999+99999GF199999071999002741999999MA1102701999999REMMET072METAR ZSSS 031700Z 36005MPS 9999 BKN009 05/03 Q1027 BECMG TL1850 BKN011=
0149583670999992024020317304+31198+121336FM-15+000399999V0203501N00401003351CN009999199+00501+00301999999ADDGA1071+003351999GE19AGL   +99999+99999GF199999071999003351999999MA1102701999999REMMET058METAR ZSSS 031730Z 35004MPS 9999 BKN011 05/03 Q1027 NOSIG=
0149583670999992024020318004+31198+121336FM-15+000399999V0203601N00401003351CN009999199+00501+00301999999ADDGA1071+003351999GE19AGL   +99999+99999GF199999071999003351999999MA1102601999999REMMET058METAR ZSSS 031800Z 36004MPS 9999 BKN011 05/03 Q1026 NOSIG=
0149583670999992024020318304+31198+121336FM-15+000399999V0203501N00401003351CN009999199+00501+00301999999ADDGA1071+003351999GE19AGL   +99999+99999GF199999071999003351999999MA1102601999999REMMET058METAR ZSSS 031830Z 35004MPS 9999 BKN011 05/03 Q1026 NOSIG=
0149583670999992024020319004+31198+121336FM-15+000399999V0200101N00501003351CN009999199+00501+00301999999ADDGA1071+003351999GE19AGL   +99999+99999GF199999071999003351999999MA1102501999999REMMET058METAR ZSSS 031900Z 01005MPS 9999 BKN011 05/03 Q1025 NOSIG=
0149583670999992024020319304+31198+121336FM-15+000399999V0203401N00401003351CN009999199+00501+00301999999ADDGA1071+003351999GE19AGL   +99999+99999GF199999071999003351999999MA1102601999999REMMET058METAR ZSSS 031930Z 34004MPS 9999 BKN011 05/03 Q1026 NOSIG=
0149583670999992024020320004+31198+121336FM-15+000399999V0200201N00401003351CN009999199+00501+00301999999ADDGA1071+003351999GE19AGL   +99999+99999GF199999071999003351999999MA1102501999999REMMET058METAR ZSSS 032000Z 02004MPS 9999 BKN011 05/03 Q1025 NOSIG=
0149583670999992024020320304+31198+121336FM-15+000399999V0203501N00401003351CN009999199+00501+00301999999ADDGA1071+003351999GE19AGL   +99999+99999GF199999071999003351999999MA1102501999999REMMET058METAR ZSSS 032030Z 35004MPS 9999 BKN011 05/03 Q1025 NOSIG=
0149583670999992024020321004+31198+121336FM-15+000399999V0203601N00501003351CN009999199+00501+00301999999ADDGA1071+003351999GE19AGL   +99999+99999GF199999071999003351999999MA1102501999999REMMET058METAR ZSSS 032100Z 36005MPS 9999 BKN011 05/03 Q1025 NOSIG=
0149583670999992024020321304+31198+121336FM-15+000399999V0203601N00401003351CN009999199+00501+00301999999ADDGA1071+003351999GE19AGL   +99999+99999GF199999071999003351999999MA1102501999999REMMET058METAR ZSSS 032130Z 36004MPS 9999 BKN011 05/03 Q1025 NOSIG=
0149583670999992024020322004+31198+121336FM-15+000399999V0203601N00501003351CN009999199+00501+00301999999ADDGA1071+003351999GE19AGL   +99999+99999GF199999071999003351999999MA1102501999999REMMET058METAR ZSSS 032200Z 36005MPS 9999 BKN011 05/03 Q1025 NOSIG=
0149583670999992024020322304+31198+121336FM-15+000399999V0203601N00401003351CN009999199+00401+00301999999ADDGA1071+003351999GE19AGL   +99999+99999GF199999071999003351999999MA1102501999999REMMET058METAR ZSSS 032230Z 36004MPS 9999 BKN011 04/03 Q1025 NOSIG=
0149583670999992024020323004+31198+121336FM-15+000399999V0200101N00401003351CN009999199+00501+00301999999ADDGA1071+003351999GE19AGL   +99999+99999GF199999071999003351999999MA1102501999999REMMET058METAR ZSSS 032300Z 01004MPS 9999 BKN011 05/03 Q1025 NOSIG=
0149583670999992024020323304+31198+121336FM-15+000399999V0200101N00501003051CN009999199+00501+00301999999ADDGA1071+003051999GE19AGL   +99999+99999GF199999071999003051999999MA1102501999999REMMET058METAR ZSSS 032330Z 01005MPS 9999 BKN010 05/03 Q1025 NOSIG=
0171583670999992024020400004+31198+121336FM-15+000399999V0200201V00301003051CN007000199+00501+00301999999ADDGA1071+003051999GE19AGL   +99999+99999GF199999071999003051999999MA1102501999999REMMET080METAR ZSSS 040000Z 02003MPS 360V070 7000 BKN010 05/03 Q1025 BECMG TL0140 BKN009=
0157583670999992024020400304+31198+121336FM-15+000399999V0200201V00301003051CN007000199+00501+00301999999ADDGA1071+003051999GE19AGL   +99999+99999GF199999071999003051999999MA1102501999999REMMET066METAR ZSSS 040030Z 02003MPS 350V090 7000 BKN010 05/03 Q1025 NOSIG=
0163583670999992024020401004+31198+121336FM-15+000399999V0203601N00301003051CN007000199+00501+00301999999ADDGA1071+003051999GE19AGL   +99999+99999GF199999071999003051999999MA1102401999999REMMET072METAR ZSSS 040100Z 36003MPS 7000 BKN010 05/03 Q1024 BECMG TL0240 BKN009=
0149583670999992024020401304+31198+121336FM-15+000399999V0200201N00301002741CN009999199+00501+00301999999ADDGA1071+002741999GE19AGL   +99999+99999GF199999071999002741999999MA1102401999999REMMET058METAR ZSSS 040130Z 02003MPS 9999 BKN009 05/03 Q1024 NOSIG=
0149583670999992024020402004+31198+121336FM-15+000399999V0200201N00301002741CN009999199+00501+00401999999ADDGA1071+002741999GE19AGL   +99999+99999GF199999071999002741999999MA1102301999999REMMET058METAR ZSSS 040200Z 02003MPS 9999 BKN009 05/04 Q1023 NOSIG=
0169583670999992024020402304+31198+121336FM-15+000399999V0203101V00301002741CN009999199+00501+00401999999ADDGA1071+002741999GE19AGL   +99999+99999GF199999071999002741999999MA1102401999999MW1801REMMET072METAR ZSSS 040230Z 31003MPS 290V010 9999 -SHRA BKN009 05/04 Q1024 NOSIG=
0161583670999992024020403004+31198+121336FM-15+000399999V0203501N00301002441CN006000199+00501+00401999999ADDGA1071+002441999GE19AGL   +99999+99999GF199999071999002441999999MA1102301999999MW1801REMMET064METAR ZSSS 040300Z 35003MPS 6000 -SHRA BKN008 05/04 Q1023 NOSIG=
0161583670999992024020403304+31198+121336FM-15+000399999V0200101N00301002131CN005000199+00501+00401999999ADDGA1071+002131999GE19AGL   +99999+99999GF199999071999002131999999MA1102201999999MW1801REMMET064METAR ZSSS 040330Z 01003MPS 5000 -SHRA BKN007 05/04 Q1022 NOSIG=
0161583670999992024020404004+31198+121336FM-15+000399999V0203401N00401002131CN005000199+00501+00401999999ADDGA1071+002131999GE19AGL   +99999+99999GF199999071999002131999999MA1102201999999MW1801REMMET064METAR ZSSS 040400Z 34004MPS 5000 -SHRA BKN007 05/04 Q1022 NOSIG=
0170583670999992024020404304+31198+121336FM-15+000399999V0203301N00401001831CN004500199+00501+00401999999ADDGA1071+001831999GE19AGL   +99999+99999GF199999071999001831999999MA1102101999999MW1101MW2801REMMET067METAR ZSSS 040430Z 33004MPS 4500 -SHRA BR BKN006 05/04 Q1021 NOSIG=
0170583670999992024020405004+31198+121336FM-15+000399999V0203301N00401001831CN004000199+00501+00401999999ADDGA1071+001831999GE19AGL   +99999+99999GF199999071999001831999999MA1102101999999MW1101MW2801REMMET067METAR ZSSS 040500Z 33004MPS 4000 -SHRA BR BKN006 05/04 Q1021 NOSIG=
0178583670999992024020405304+31198+121336FM-15+000399999V0203201V00401001831CN004000199+00501+00401999999ADDGA1071+001831999GE19AGL   +99999+99999GF199999071999001831999999MA1102101999999MW1101MW2801REMMET075METAR ZSSS 040530Z 32004MPS 280V340 4000 -SHRA BR BKN006 05/04 Q1021 NOSIG=
0178583670999992024020406004+31198+121336FM-15+000399999V0203201V00301001831CN004500199+00501+00401999999ADDGA1071+001831999GE19AGL   +99999+99999GF199999071999001831999999MA1102001999999MW1101MW2801REMMET075METAR ZSSS 040600Z 32003MPS 290V350 4500 -SHRA BR BKN006 05/04 Q1020 NOSIG=
0170583670999992024020406304+31198+121336FM-15+000399999V0203001N00501001831CN004500199+00501+00401999999ADDGA1071+001831999GE19AGL   +99999+99999GF199999071999001831999999MA1102101999999MW1101MW2801REMMET067METAR ZSSS 040630Z 30005MPS 4500 -SHRA BR BKN006 05/04 Q1021 NOSIG=
0207583670999992024020407004+31198+121336FM-15+000399999V0209999V00301001831CN004500199+00501+00401999999ADDGA1071+001831999GA2021+010061091GE19AGL   +99999+99999GF199999071999001831999999MA1102001999999MW1101MW2811REMMET088METAR ZSSS 040700Z VRB03MPS 4500 SHRA BR BKN006 FEW033CB 05/04 Q1020 BECMG TL0740 -SHRA=
0193583670999992024020407304+31198+121336FM-15+000399999V0203301N00301001831CN008000199+00501+00401999999ADDGA1071+001831999GA2021+010061091GE19AGL   +99999+99999GF199999071999001831999999MA1102001999999MW1801REMMET080METAR ZSSS 040730Z 33003MPS 8000 -SHRA BKN006 FEW033CB 05/04 Q1020 RESHRA NOSIG=
0194583670999992024020408004+31198+121336FM-15+000399999V0203101V00401001831CN008000199+00501+00401999999ADDGA1071+001831999GA2021+010061091GE19AGL   +99999+99999GF199999071999001831999999MA1102001999999MW1801REMMET081METAR ZSSS 040800Z 31004MPS 280V340 8000 -SHRA BKN006 FEW033CB 05/04 Q1020 NOSIG=
0194583670999992024020408304+31198+121336FM-15+000399999V0202901V00401001831CN008000199+00501+00401999999ADDGA1071+001831999GA2021+010061091GE19AGL   +99999+99999GF199999071999001831999999MA1102101999999MW1801REMMET081METAR ZSSS 040830Z 29004MPS 260V340 8000 -SHRA BKN006 FEW033CB 05/04 Q1021 NOSIG=
0194583670999992024020409004+31198+121336FM-15+000399999V0202901V00401001831CN008000199+00501+00401999999ADDGA1071+001831999GA2021+010061091GE19AGL   +99999+99999GF199999071999001831999999MA1102101999999MW1801REMMET081METAR ZSSS 040900Z 29004MPS 260V320 8000 -SHRA BKN006 FEW033CB 05/04 Q1021 NOSIG=
0161583670999992024020409304+31198+121336FM-15+000399999V0202901N00401001831CN008000199+00501+00401999999ADDGA1071+001831999GE19AGL   +99999+99999GF199999071999001831999999MA1102101999999MW1801REMMET064METAR ZSSS 040930Z 29004MPS 8000 -SHRA BKN006 05/04 Q1021 NOSIG=
0169583670999992024020410004+31198+121336FM-15+000399999V0202901V00301001831CN009999199+00401+00301999999ADDGA1071+001831999GE19AGL   +99999+99999GF199999071999001831999999MA1102101999999MW1801REMMET072METAR ZSSS 041000Z 29003MPS 260V330 9999 -SHRA BKN006 04/03 Q1021 NOSIG=
0169583670999992024020410304+31198+121336FM-15+000399999V0203201V00301002131CN009999199+00401+00301999999ADDGA1071+002131999GE19AGL   +99999+99999GF199999071999002131999999MA1102001999999MW1801REMMET072METAR ZSSS 041030Z 32003MPS 290V360 9999 -SHRA BKN007 04/03 Q1020 NOSIG=
0169583670999992024020411004+31198+121336FM-15+000399999V0203401V00301002131CN009999199+00401+00301999999ADDGA1071+002131999GE19AGL   +99999+99999GF199999071999002131999999MA1101801999999MW1801REMMET072METAR ZSSS 041100Z 34003MPS 300V360 9999 -SHRA BKN007 04/03 Q1018 NOSIG=
0169583670999992024020411304+31198+121336FM-15+000399999V0202801V00601002131CN008000199+00401+00301999999ADDGA1071+002131999GE19AGL   +99999+99999GF199999071999002131999999MA1102201999999MW1801REMMET072METAR ZSSS 041130Z 28006MPS 250V310 8000 -SHRA BKN007 04/03 Q1022 NOSIG=
0169583670999992024020412004+31198+121336FM-15+000399999V0202801V00601001831CN009999199+00401+00301999999ADDGA1071+001831999GE19AGL   +99999+99999GF199999071999001831999999MA1102201999999MW1801REMMET072METAR ZSSS 041200Z 28006MPS 250V310 9999 -SHRA BKN006 04/03 Q1022 NOSIG=
0167583670999992024020412304+31198+121336FM-15+000399999V0203001V00501001831CN008000199+00401+00301999999ADDGA1071+001831999GE19AGL   +99999+99999GF199999071999001831999999MA1102101999999MW1611REMMET070METAR ZSSS 041230Z 30005MPS 270V340 8000 -RA BKN006 04/03 Q1021 NOSIG=
0167583670999992024020413004+31198+121336FM-15+000399999V0203001V00601001831CN008000199+00401+00301999999ADDGA1071+001831999GE19AGL   +99999+99999GF199999071999001831999999MA1102201999999MW1611REMMET070METAR ZSSS 041300Z 30006MPS 260V320 8000 -RA BKN006 04/03 Q1022 NOSIG=
0159583670999992024020413304+31198+121336FM-15+000399999V0203001N00701001831CN008000199+00401+00301999999ADDGA1071+001831999GE19AGL   +99999+99999GF199999071999001831999999MA1102301999999MW1611REMMET062METAR ZSSS 041330Z 30007MPS 8000 -RA BKN006 04/03 Q1023 NOSIG=
0159583670999992024020414004+31198+121336FM-15+000399999V0203001N00601001831CN008000199+00401+00201999999ADDGA1071+001831999GE19AGL   +99999+99999GF199999071999001831999999MA1102201999999MW1611REMMET062METAR ZSSS 041400Z 30006MPS 8000 -RA BKN006 04/02 Q1022 NOSIG=
0149583670999992024020414304+31198+121336FM-15+000399999V0203001N00501002441CN008000199+00301+00201999999ADDGA1071+002441999GE19AGL   +99999+99999GF199999071999002441999999MA1102301999999REMMET058METAR ZSSS 041430Z 30005MPS 8000 BKN008 03/02 Q1023 NOSIG=
0168583670999992024020415004+31198+121336FM-15+000399999V0202901V00701002441CN009999199+00301+00201999999ADDGA1071+002441999GE19AGL   +99999+99999GF199999071999002441999999MA1102301999999OC101201REMMET069METAR ZSSS 041500Z 29007G12MPS 270V330 9999 BKN008 03/02 Q1023 NOSIG=
0157583670999992024020415304+31198+121336FM-15+000399999V0203001V00601002441CN009999199+00301+00201999999ADDGA1071+002441999GE19AGL   +99999+99999GF199999071999002441999999MA1102301999999REMMET066METAR ZSSS 041530Z 30006MPS 280V340 9999 BKN008 03/02 Q1023 NOSIG=
0163583670999992024020416004+31198+121336FM-15+000399999V0202901N00601002741CN009999199+00301+00201999999ADDGA1071+002741999GE19AGL   +99999+99999GF199999071999002741999999MA1102401999999REMMET072METAR ZSSS 041600Z 29006MPS 9999 BKN009 03/02 Q1024 BECMG TL1740 BKN010=
0149583670999992024020416304+31198+121336FM-15+000399999V0203001N00801002741CN009999199+00301+00101999999ADDGA1071+002741999GE19AGL   +99999+99999GF199999071999002741999999MA1102401999999REMMET058METAR ZSSS 041630Z 30008MPS 9999 BKN009 03/01 Q1024 NOSIG=
0160583670999992024020417004+31198+121336FM-15+000399999V0203001N00801003051CN009999199+00301+00101999999ADDGA1071+003051999GE19AGL   +99999+99999GF199999071999003051999999MA1102401999999OC101301REMMET061METAR ZSSS 041700Z 30008G13MPS 9999 BKN010 03/01 Q1024 NOSIG=
0149583670999992024020417304+31198+121336FM-15+000399999V0203001N00801003051CN009999199+00301+00101999999ADDGA1071+003051999GE19AGL   +99999+99999GF199999071999003051999999MA1102401999999REMMET058METAR ZSSS 041730Z 30008MPS 9999 BKN010 03/01 Q1024 NOSIG=
0149583670999992024020418004+31198+121336FM-15+000399999V0203001N00701003051CN009999199+00301+00001999999ADDGA1071+003051999GE19AGL   +99999+99999GF199999071999003051999999MA1102401999999REMMET058METAR ZSSS 041800Z 30007MPS 9999 BKN010 03/00 Q1024 NOSIG=
0150583670999992024020418304+31198+121336FM-15+000399999V0203001N00801003961CN009999199+00201+00001999999ADDGA1071+003961999GE19AGL   +99999+99999GF199999071999003961999999MA1102401999999REMMET059METAR ZSSS 041830Z 30008MPS 9999 BKN013 02/M00 Q1024 NOSIG=
0150583670999992024020419004+31198+121336FM-15+000399999V0203101N00701003961CN009999199+00201+00001999999ADDGA1071+003961999GE19AGL   +99999+99999GF199999071999003961999999MA1102401999999REMMET059METAR ZSSS 041900Z 31007MPS 9999 BKN013 02/M00 Q1024 NOSIG=
0150583670999992024020419304+31198+121336FM-15+000399999V0203001N00601003961CN009999199+00201+00001999999ADDGA1071+003961999GE19AGL   +99999+99999GF199999071999003961999999MA1102401999999REMMET059METAR ZSSS 041930Z 30006MPS 9999 BKN013 02/M00 Q1024 NOSIG=
0150583670999992024020420004+31198+121336FM-15+000399999V0202901N00501003961CN009999199+00201+00001999999ADDGA1071+003961999GE19AGL   +99999+99999GF199999071999003961999999MA1102401999999REMMET059METAR ZSSS 042000Z 29005MPS 9999 BKN013 02/M00 Q1024 NOSIG=
0150583670999992024020420304+31198+121336FM-15+000399999V0203001N00601003961CN009999199+00201-00101999999ADDGA1071+003961999GE19AGL   +99999+99999GF199999071999003961999999MA1102501999999REMMET059METAR ZSSS 042030Z 30006MPS 9999 BKN013 02/M01 Q1025 NOSIG=
0150583670999992024020421004+31198+121336FM-15+000399999V0202801N00601003961CN009999199+00201-00101999999ADDGA1071+003961999GE19AGL   +99999+99999GF199999071999003961999999MA1102501999999REMMET059METAR ZSSS 042100Z 28006MPS 9999 BKN013 02/M01 Q1025 NOSIG=
0150583670999992024020421304+31198+121336FM-15+000399999V0202901N00601003961CN009999199+00201+00001999999ADDGA1071+003961999GE19AGL   +99999+99999GF199999071999003961999999MA1102601999999REMMET059METAR ZSSS 042130Z 29006MPS 9999 BKN013 02/M00 Q1026 NOSIG=
0164583670999992024020422004+31198+121336FM-15+000399999V0203001N00601003961CN009999199+00201-00101999999ADDGA1071+003961999GE19AGL   +99999+99999GF199999071999003961999999MA1102601999999REMMET073METAR ZSSS 042200Z 30006MPS 9999 BKN013 02/M01 Q1026 BECMG TL2250 BKN015=
0161583670999992024020422304+31198+121336FM-15+000399999V0202901N00801003961CN009999199+00201-00201999999ADDGA1071+003961999GE19AGL   +99999+99999GF199999071999003961999999MA1102701999999OC101301REMMET062METAR ZSSS 042230Z 29008G13MPS 9999 BKN013 02/M02 Q1027 NOSIG=
0164583670999992024020423004+31198+121336FM-15+000399999V0203001N00801003961CN009999199+00201-00201999999ADDGA1071+003961999GE19AGL   +99999+99999GF199999071999003961999999MA1102801999999REMMET073METAR ZSSS 042300Z 30008MPS 9999 BKN013 02/M02 Q1028 BECMG TL2350 BKN015=
0169583670999992024020423304+31198+121336FM-15+000399999V0202901V00601004881CN009999199+00201-00101999999ADDGA1071+004881999GE19AGL   +99999+99999GF199999071999004881999999MA1102801999999OC101201REMMET070METAR ZSSS 042330Z 29006G12MPS 270V330 9999 BKN016 02/M01 Q1028 NOSIG=
0150583670999992024020500004+31198+121336FM-15+000399999V0202901N00701004881CN009999199+00201-00201999999ADDGA1071+004881999GE19AGL   +99999+99999GF199999071999004881999999MA1102901999999REMMET059METAR ZSSS 050000Z 29007MPS 9999 BKN016 02/M02 Q1029 NOSIG=
0158583670999992024020500304+31198+121336FM-15+000399999V0202701V00601006101CN009999199+00201-00201999999ADDGA1071+006101999GE19AGL   +99999+99999GF199999071999006101999999MA1102901999999REMMET067METAR ZSSS 050030Z 27006MPS 250V320 9999 BKN020 02/M02 Q1029 NOSIG=
0158583670999992024020501004+31198+121336FM-15+000399999V0202901V00601006101CN009999199+00201-00201999999ADDGA1071+006101999GE19AGL   +99999+99999GF199999071999006101999999MA1103001999999REMMET067METAR ZSSS 050100Z 29006MPS 260V330 9999 BKN020 02/M02 Q1030 NOSIG=
0150583670999992024020501304+31198+121336FM-15+000399999V0203201N00701006101CN009999199+00201-00201999999ADDGA1071+006101999GE19AGL   +99999+99999GF199999071999006101999999MA1102901999999REMMET059METAR ZSSS 050130Z 32007MPS 9999 BKN020 02/M02 Q1029 NOSIG=
0150583670999992024020502004+31198+121336FM-15+000399999V0203301N00701006101CN008000199+00201-00201999999ADDGA1071+006101999GE19AGL   +99999+99999GF199999071999006101999999MA1102901999999REMMET059METAR ZSSS 050200Z 33007MPS 8000 BKN020 02/M02 Q1029 NOSIG=
0158583670999992024020502304+31198+121336FM-15+000399999V0203001V00701006101CN009999199+00201-00201999999ADDGA1071+006101999GE19AGL   +99999+99999GF199999071999006101999999MA1102901999999REMMET067METAR ZSSS 050230Z 30007MPS 280V340 9999 BKN020 02/M02 Q1029 NOSIG=
0158583670999992024020503004+31198+121336FM-15+000399999V0203201V00601006101CN009999199+00201-00201999999ADDGA1071+006101999GE19AGL   +99999+99999GF199999071999006101999999MA1102801999999REMMET067METAR ZSSS 050300Z 32006MPS 290V350 9999 BKN020 02/M02 Q1028 NOSIG=
0158583670999992024020503304+31198+121336FM-15+000399999V0203201V00701006101CN009999199+00201-00201999999ADDGA1071+006101999GE19AGL   +99999+99999GF199999071999006101999999MA1102801999999REMMET067METAR ZSSS 050330Z 32007MPS 290V350 9999 BKN020 02/M02 Q1028 NOSIG=
0150583670999992024020504004+31198+121336FM-15+000399999V0203001N00601006101CN009999199+00301-00301999999ADDGA1071+006101999GE19AGL   +99999+99999GF199999071999006101999999MA1102801999999REMMET059METAR ZSSS 050400Z 30006MPS 9999 BKN020 03/M03 Q1028 NOSIG=
0158583670999992024020504304+31198+121336FM-15+000399999V0203301V00701006101CN009999199+00301-00301999999ADDGA1071+006101999GE19AGL   +99999+99999GF199999071999006101999999MA1102701999999REMMET067METAR ZSSS 050430Z 33007MPS 290V350 9999 BKN020 03/M03 Q1027 NOSIG=
0158583670999992024020505004+31198+121336FM-15+000399999V0203201V00601006101CN009999199+00201-00301999999ADDGA1071+006101999GE19AGL   +99999+99999GF199999071999006101999999MA1102701999999REMMET067METAR ZSSS 050500Z 32006MPS 280V360 9999 BKN020 02/M03 Q1027 NOSIG=
0150583670999992024020505304+31198+121336FM-15+000399999V0203301N00701006101CN009999199+00201-00301999999ADDGA1071+006101999GE19AGL   +99999+99999GF199999071999006101999999MA1102801999999REMMET059METAR ZSSS 050530Z 33007MPS 9999 BKN020 02/M03 Q1028 NOSIG=
0158583670999992024020506004+31198+121336FM-15+000399999V0203401V00701006101CN009999199+00201-00301999999ADDGA1071+006101999GE19AGL   +99999+99999GF199999071999006101999999MA1102701999999REMMET067METAR ZSSS 050600Z 34007MPS 290V360 9999 BKN020 02/M03 Q1027 NOSIG=
0150583670999992024020506304+31198+121336FM-15+000399999V0203401N00601006101CN009999199+00201-00301999999ADDGA1071+006101999GE19AGL   +99999+99999GF199999071999006101999999MA1102801999999REMMET059METAR ZSSS 050630Z 34006MPS 9999 BKN020 02/M03 Q1028 NOSIG=
0158583670999992024020507004+31198+121336FM-15+000399999V0203301V00701006101CN009999199+00201-00301999999ADDGA1071+006101999GE19AGL   +99999+99999GF199999071999006101999999MA1102801999999REMMET067METAR ZSSS 050700Z 33007MPS 300V360 9999 BKN020 02/M03 Q1028 NOSIG=
0158583670999992024020507304+31198+121336FM-15+000399999V0203201V00601007921CN009999199+00201-00301999999ADDGA1071+007921999GE19AGL   +99999+99999GF199999071999007921999999MA1102801999999REMMET067METAR ZSSS 050730Z 32006MPS 290V350 9999 BKN026 02/M03 Q1028 NOSIG=
0150583670999992024020508004+31198+121336FM-15+000399999V0203301N00601007921CN009999199+00201-00301999999ADDGA1071+007921999GE19AGL   +99999+99999GF199999071999007921999999MA1102801999999REMMET059METAR ZSSS 050800Z 33006MPS 9999 BKN026 02/M03 Q1028 NOSIG=
0158583670999992024020508304+31198+121336FM-15+000399999V0203301V00601007921CN009999199+00201-00301999999ADDGA1071+007921999GE19AGL   +99999+99999GF199999071999007921999999MA1102901999999REMMET067METAR ZSSS 050830Z 33006MPS 290V350 9999 BKN026 02/M03 Q1029 NOSIG=
0150583670999992024020509004+31198+121336FM-15+000399999V0203401N00601007921CN009999199+00201-00301999999ADDGA1071+007921999GE19AGL   +99999+99999GF199999071999007921999999MA1102901999999REMMET059METAR ZSSS 050900Z 34006MPS 9999 BKN026 02/M03 Q1029 NOSIG=
0158583670999992024020509304+31198+121336FM-15+000399999V0203301V00601007011CN009999199+00201-00301999999ADDGA1071+007011999GE19AGL   +99999+99999GF199999071999007011999999MA1102901999999REMMET067METAR ZSSS 050930Z 33006MPS 300V360 9999 BKN023 02/M03 Q1029 NOSIG=
0150583670999992024020510004+31198+121336FM-15+000399999V0203301N00601007011CN009999199+00201-00301999999ADDGA1071+007011999GE19AGL   +99999+99999GF199999071999007011999999MA1102901999999REMMET059METAR ZSSS 051000Z 33006MPS 9999 BKN023 02/M03 Q1029 NOSIG=
0150583670999992024020510304+31198+121336FM-15+000399999V0203301N00501007011CN009999199+00201-00301999999ADDGA1071+007011999GE19AGL   +99999+99999GF199999071999007011999999MA1103001999999REMMET059METAR ZSSS 051030Z 33005MPS 9999 BKN023 02/M03 Q1030 NOSIG=
0158583670999992024020511004+31198+121336FM-15+000399999V0203201V00501007011CN009999199+00101-00301999999ADDGA1071+007011999GE19AGL   +99999+99999GF199999071999007011999999MA1103001999999REMMET067METAR ZSSS 051100Z 32005MPS 300V360 9999 BKN023 01/M03 Q1030 NOSIG=
0150583670999992024020511304+31198+121336FM-15+000399999V0203301N00401007011CN009999199+00101-00301999999ADDGA1071+007011999GE19AGL   +99999+99999GF199999071999007011999999MA1103001999999REMMET059METAR ZSSS 051130Z 33004MPS 9999 BKN023 01/M03 Q1030 NOSIG=
0158583670999992024020512004+31198+121336FM-15+000399999V0203201V00501007011CN009999199+00101-00301999999ADDGA1071+007011999GE19AGL   +99999+99999GF199999071999007011999999MA1103001999999REMMET067METAR ZSSS 051200Z 32005MPS 290V350 9999 BKN023 01/M03 Q1030 NOSIG=
0158583670999992024020512304+31198+121336FM-15+000399999V0203201V00401007011CN009999199+00101-00301999999ADDGA1071+007011999GE19AGL   +99999+99999GF199999071999007011999999MA1103001999999REMMET067METAR ZSSS 051230Z 32004MPS 300V360 9999 BKN023 01/M03 Q1030 NOSIG=
0158583670999992024020513004+31198+121336FM-15+000399999V0203201V00501007011CN008000199+00101-00301999999ADDGA1071+007011999GE19AGL   +99999+99999GF199999071999007011999999MA1103101999999REMMET067METAR ZSSS 051300Z 32005MPS 280V340 8000 BKN023 01/M03 Q1031 NOSIG=
0158583670999992024020513304+31198+121336FM-15+000399999V0203101V00401007011CN008000199+00101-00301999999ADDGA1071+007011999GE19AGL   +99999+99999GF199999071999007011999999MA1103001999999REMMET067METAR ZSSS 051330Z 31004MPS 290V350 8000 BKN023 01/M03 Q1030 NOSIG=
0150583670999992024020514004+31198+121336FM-15+000399999V0203201N00401007011CN008000199+00101-00301999999ADDGA1071+007011999GE19AGL   +99999+99999GF199999071999007011999999MA1103001999999REMMET059METAR ZSSS 051400Z 32004MPS 8000 BKN023 01/M03 Q1030 NOSIG=
0150583670999992024020514304+31198+121336FM-15+000399999V0203301N00401007011CN008000199+00101-00301999999ADDGA1071+007011999GE19AGL   +99999+99999GF199999071999007011999999MA1103001999999REMMET059METAR ZSSS 051430Z 33004MPS 8000 BKN023 01/M03 Q1030 NOSIG=
0150583670999992024020515004+31198+121336FM-15+000399999V0203401N00401007011CN008000199+00101-00301999999ADDGA1071+007011999GE19AGL   +99999+99999GF199999071999007011999999MA1103101999999REMMET059METAR ZSSS 051500Z 34004MPS 8000 BKN023 01/M03 Q1031 NOSIG=
0158583670999992024020515304+31198+121336FM-15+000399999V0203401V00301007011CN008000199+00101-00301999999ADDGA1071+007011999GE19AGL   +99999+99999GF199999071999007011999999MA1103101999999REMMET067METAR ZSSS 051530Z 34003MPS 290V010 8000 BKN023 01/M03 Q1031 NOSIG=
0150583670999992024020516004+31198+121336FM-15+000399999V0203401N00301007011CN008000199+00101-00301999999ADDGA1071+007011999GE19AGL   +99999+99999GF199999071999007011999999MA1103001999999REMMET059METAR ZSSS 051600Z 34003MPS 8000 BKN023 01/M03 Q1030 NOSIG=
0150583670999992024020516304+31198+121336FM-15+000399999V0203301N00401007011CN008000199+00101-00301999999ADDGA1071+007011999GE19AGL   +99999+99999GF199999071999007011999999MA1103001999999REMMET059METAR ZSSS 051630Z 33004MPS 8000 BKN023 01/M03 Q1030 NOSIG=
0150583670999992024020517004+31198+121336FM-15+000399999V0203001N00401007011CN008000199+00101-00301999999ADDGA1071+007011999GE19AGL   +99999+99999GF199999071999007011999999MA1103101999999REMMET059METAR ZSSS 051700Z 30004MPS 8000 BKN023 01/M03 Q1031 NOSIG=
0158583670999992024020517304+31198+121336FM-15+000399999V0202901V00401007011CN008000199+00101-00301999999ADDGA1071+007011999GE19AGL   +99999+99999GF199999071999007011999999MA1103101999999REMMET067METAR ZSSS 051730Z 29004MPS 270V330 8000 BKN023 01/M03 Q1031 NOSIG=
0150583670999992024020518004+31198+121336FM-15+000399999V0203401N00401007011CN007000199+00101-00301999999ADDGA1071+007011999GE19AGL   +99999+99999GF199999071999007011999999MA1103001999999REMMET059METAR ZSSS 051800Z 34004MPS 7000 BKN023 01/M03 Q1030 NOSIG=
0150583670999992024020518304+31198+121336FM-15+000399999V0203401N00401007011CN007000199+00101-00301999999ADDGA1071+007011999GE19AGL   +99999+99999GF199999071999007011999999MA1103001999999REMMET059METAR ZSSS 051830Z 34004MPS 7000 BKN023 01/M03 Q1030 NOSIG=
0150583670999992024020519004+31198+121336FM-15+000399999V0203401N00401007011CN007000199+00101-00301999999ADDGA1071+007011999GE19AGL   +99999+99999GF199999071999007011999999MA1103001999999REMMET059METAR ZSSS 051900Z 34004MPS 7000 BKN023 01/M03 Q1030 NOSIG=
0150583670999992024020519304+31198+121336FM-15+000399999V0203301N00301006101CN007000199+00101-00301999999ADDGA1071+006101999GE19AGL   +99999+99999GF199999071999006101999999MA1102901999999REMMET059METAR ZSSS 051930Z 33003MPS 7000 BKN020 01/M03 Q1029 NOSIG=
0150583670999992024020520004+31198+121336FM-15+000399999V0203601N00401006101CN007000199+00101-00301999999ADDGA1071+006101999GE19AGL   +99999+99999GF199999071999006101999999MA1102901999999REMMET059METAR ZSSS 052000Z 36004MPS 7000 BKN020 01/M03 Q1029 NOSIG=
0150583670999992024020520304+31198+121336FM-15+000399999V0203301N00401006101CN007000199+00101-00301999999ADDGA1071+006101999GE19AGL   +99999+99999GF199999071999006101999999MA1102901999999REMMET059METAR ZSSS 052030Z 33004MPS 7000 BKN020 01/M03 Q1029 NOSIG=
0150583670999992024020521004+31198+121336FM-15+000399999V0203401N00401006101CN007000199+00101-00301999999ADDGA1071+006101999GE19AGL   +99999+99999GF199999071999006101999999MA1103001999999REMMET059METAR ZSSS 052100Z 34004MPS 7000 BKN020 01/M03 Q1030 NOSIG=
0158583670999992024020521304+31198+121336FM-15+000399999V0203201V00301006101CN007000199+00101-00301999999ADDGA1071+006101999GE19AGL   +99999+99999GF199999071999006101999999MA1103001999999REMMET067METAR ZSSS 052130Z 32003MPS 290V360 7000 BKN020 01/M03 Q1030 NOSIG=
0150583670999992024020522004+31198+121336FM-15+000399999V0203301N00301006101CN007000199+00101-00301999999ADDGA1071+006101999GE19AGL   +99999+99999GF199999071999006101999999MA1103001999999REMMET059METAR ZSSS 052200Z 33003MPS 7000 BKN020 01/M03 Q1030 NOSIG=
0150583670999992024020522304+31198+121336FM-15+000399999V0203301N00301006101CN007000199+00101-00301999999ADDGA1071+006101999GE19AGL   +99999+99999GF199999071999006101999999MA1103001999999REMMET059METAR ZSSS 052230Z 33003MPS 7000 BKN020 01/M03 Q1030 NOSIG=
0158583670999992024020523004+31198+121336FM-15+000399999V0203501V00301006101CN007000199+00101-00301999999ADDGA1071+006101999GE19AGL   +99999+99999GF199999071999006101999999MA1102901999999REMMET067METAR ZSSS 052300Z 35003MPS 320V020 7000 BKN020 01/M03 Q1029 NOSIG=
0150583670999992024020523304+31198+121336FM-15+000399999V0203401N00301006101CN007000199+00101-00301999999ADDGA1071+006101999GE19AGL   +99999+99999GF199999071999006101999999MA1103001999999REMMET059METAR ZSSS 052330Z 34003MPS 7000 BKN020 01/M03 Q1030 NOSIG=
0150583670999992024020600004+31198+121336FM-15+000399999V0203601N00301006101CN007000199+00101-00301999999ADDGA1071+006101999GE19AGL   +99999+99999GF199999071999006101999999MA1103001999999REMMET059METAR ZSSS 060000Z 36003MPS 7000 BKN020 01/M03 Q1030 NOSIG=
0158583670999992024020600304+31198+121336FM-15+000399999V0203501V00201006101CN007000199+00101-00301999999ADDGA1071+006101999GE19AGL   +99999+99999GF199999071999006101999999MA1103001999999REMMET067METAR ZSSS 060030Z 35002MPS 310V030 7000 BKN020 01/M03 Q1030 NOSIG=
0150583670999992024020601004+31198+121336FM-15+000399999V0203601N00401006101CN008000199+00101-00301999999ADDGA1071+006101999GE19AGL   +99999+99999GF199999071999006101999999MA1103001999999REMMET059METAR ZSSS 060100Z 36004MPS 8000 BKN020 01/M03 Q1030 NOSIG=
0158583670999992024020601304+31198+121336FM-15+000399999V0203401V00301006101CN008000199+00201-00201999999ADDGA1071+006101999GE19AGL   +99999+99999GF199999071999006101999999MA1103101999999REMMET067METAR ZSSS 060130Z 34003MPS 310V010 8000 BKN020 02/M02 Q1031 NOSIG=
0158583670999992024020602004+31198+121336FM-15+000399999V0203301V00301006101CN008000199+00201-00201999999ADDGA1071+006101999GE19AGL   +99999+99999GF199999071999006101999999MA1103101999999REMMET067METAR ZSSS 060200Z 33003MPS 300V360 8000 BKN020 02/M02 Q1031 NOSIG=
0158583670999992024020602304+31198+121336FM-15+000399999V0203501V00301006101CN008000199+00201-00201999999ADDGA1071+006101999GE19AGL   +99999+99999GF199999071999006101999999MA1103101999999REMMET067METAR ZSSS 060230Z 35003MPS 320V020 8000 BKN020 02/M02 Q1031 NOSIG=
0150583670999992024020603004+31198+121336FM-15+000399999V0203401N00401006101CN008000199+00301-00201999999ADDGA1071+006101999GE19AGL   +99999+99999GF199999071999006101999999MA1103101999999REMMET059METAR ZSSS 060300Z 34004MPS 8000 BKN020 03/M02 Q1031 NOSIG=
0150583670999992024020603304+31198+121336FM-15+000399999V0203601N00401006101CN008000199+00301-00201999999ADDGA1071+006101999GE19AGL   +99999+99999GF199999071999006101999999MA1103001999999REMMET059METAR ZSSS 060330Z 36004MPS 8000 BKN020 03/M02 Q1030 NOSIG=
0150583670999992024020604004+31198+121336FM-15+000399999V0203601N00401006101CN008000199+00301-00201999999ADDGA1071+006101999GE19AGL   +99999+99999GF199999071999006101999999MA1103001999999REMMET059METAR ZSSS 060400Z 36004MPS 8000 BKN020 03/M02 Q1030 NOSIG=
0158583670999992024020604304+31198+121336FM-15+000399999V0203501V00401006101CN007000199+00301-00201999999ADDGA1071+006101999GE19AGL   +99999+99999GF199999071999006101999999MA1103001999999REMMET067METAR ZSSS 060430Z 35004MPS 320V020 7000 BKN020 03/M02 Q1030 NOSIG=
0150583670999992024020605004+31198+121336FM-15+000399999V0200101N00301006101CN007000199+00301-00201999999ADDGA1071+006101999GE19AGL   +99999+99999GF199999071999006101999999MA1102901999999REMMET059METAR ZSSS 060500Z 01003MPS 7000 BKN020 03/M02 Q1029 NOSIG=
0150583670999992024020605304+31198+121336FM-15+000399999V0203401N00401006101CN007000199+00301-00201999999ADDGA1071+006101999GE19AGL   +99999+99999GF199999071999006101999999MA1102901999999REMMET059METAR ZSSS 060530Z 34004MPS 7000 BKN020 03/M02 Q1029 NOSIG=
0158583670999992024020606004+31198+121336FM-15+000399999V0203601V00401006101CN006000199+00301-00201999999ADDGA1071+006101999GE19AGL   +99999+99999GF199999071999006101999999MA1102801999999REMMET067METAR ZSSS 060600Z 36004MPS 330V040 6000 BKN020 03/M02 Q1028 NOSIG=
0150583670999992024020606304+31198+121336FM-15+000399999V0203401N00401006101CN006000199+00301-00201999999ADDGA1071+006101999GE19AGL   +99999+99999GF199999071999006101999999MA1102801999999REMMET059METAR ZSSS 060630Z 34004MPS 6000 BKN020 03/M02 Q1028 NOSIG=
0150583670999992024020607004+31198+121336FM-15+000399999V0203401N004019999999N006000199+00301-00201999999ADDGA1021+006101999GE19AGL   +99999+99999GF199999021999006101999999MA1102801999999REMMET059METAR ZSSS 060700Z 34004MPS 6000 FEW020 03/M02 Q1028 NOSIG=
0160583670999992024020607304+31198+121336FM-15+000399999V0203601N004019999999N006000199+00301-00201999999ADDGA1041+006101999GE19AGL   +99999+99999GF199999041999006101999999MA1102801999999MW1711REMMET063METAR ZSSS 060730Z 36004MPS 6000 -SN SCT020 03/M02 Q1028 NOSIG=
0177583670999992024020608004+31198+121336FM-15+000399999V0203501V00301006101CN005000199+00301-00201999999ADDGA1071+006101999GE19AGL   +99999+99999GF199999071999006101999999MA1102801999999MW1101MW2611REMMET074METAR ZSSS 060800Z 35003MPS 310V020 5000 -RA BR BKN020 03/M02 Q1028 NOSIG=
0169583670999992024020608304+31198+121336FM-15+000399999V0203501N00401006101CN005000199+00301-00201999999ADDGA1071+006101999GE19AGL   +99999+99999GF199999071999006101999999MA1102801999999MW1101MW2711REMMET066METAR ZSSS 060830Z 35004MPS 5000 -SN BR BKN020 03/M02 Q1028 NOSIG=
0169583670999992024020609004+31198+121336FM-15+000399999V0203501N00301006101CN005000199+00301-00201999999ADDGA1071+006101999GE19AGL   +99999+99999GF199999071999006101999999MA1102901999999MW1101MW2611REMMET066METAR ZSSS 060900Z 35003MPS 5000 -RA BR BKN020 03/M02 Q1029 NOSIG=
0158583670999992024020609304+31198+121336FM-15+000399999V0203601V00401006101CN006000199+00301-00201999999ADDGA1071+006101999GE19AGL   +99999+99999GF199999071999006101999999MA1102801999999REMMET067METAR ZSSS 060930Z 36004MPS 320V020 6000 BKN020 03/M02 Q1028 NOSIG=
0150583670999992024020610004+31198+121336FM-15+000399999V0203601N00501006101CN007000199+00301-00101999999ADDGA1071+006101999GE19AGL   +99999+99999GF199999071999006101999999MA1102801999999REMMET059METAR ZSSS 061000Z 36005MPS 7000 BKN020 03/M01 Q1028 NOSIG=
0150583670999992024020610304+31198+121336FM-15+000399999V0203601N00401006101CN008000199+00301-00101999999ADDGA1071+006101999GE19AGL   +99999+99999GF199999071999006101999999MA1102801999999REMMET059METAR ZSSS 061030Z 36004MPS 8000 BKN020 03/M01 Q1028 NOSIG=
0150583670999992024020611004+31198+121336FM-15+000399999V0203501N00401006101CN008000199+00301-00101999999ADDGA1071+006101999GE19AGL   +99999+99999GF199999071999006101999999MA1102901999999REMMET059METAR ZSSS 061100Z 35004MPS 8000 BKN020 03/M01 Q1029 NOSIG=
0150583670999992024020611304+31198+121336FM-15+000399999V0203501N00301006101CN008000199+00301-00101999999ADDGA1071+006101999GE19AGL   +99999+99999GF199999071999006101999999MA1102801999999REMMET059METAR ZSSS 061130Z 35003MPS 8000 BKN020 03/M01 Q1028 NOSIG=
0150583670999992024020612004+31198+121336FM-15+000399999V0203401N00301006101CN008000199+00301-00101999999ADDGA1071+006101999GE19AGL   +99999+99999GF199999071999006101999999MA1102901999999REMMET059METAR ZSSS 061200Z 34003MPS 8000 BKN020 03/M01 Q1029 NOSIG=
0150583670999992024020612304+31198+121336FM-15+000399999V0203401N00401006101CN008000199+00301-00101999999ADDGA1071+006101999GE19AGL   +99999+99999GF199999071999006101999999MA1102901999999REMMET059METAR ZSSS 061230Z 34004MPS 8000 BKN020 03/M01 Q1029 NOSIG=
0150583670999992024020613004+31198+121336FM-15+000399999V0203401N00301006101CN008000199+00301-00101999999ADDGA1071+006101999GE19AGL   +99999+99999GF199999071999006101999999MA1102901999999REMMET059METAR ZSSS 061300Z 34003MPS 8000 BKN020 03/M01 Q1029 NOSIG=
0150583670999992024020613304+31198+121336FM-15+000399999V0203601N00401006101CN009999199+00301-00101999999ADDGA1071+006101999GE19AGL   +99999+99999GF199999071999006101999999MA1102901999999REMMET059METAR ZSSS 061330Z 36004MPS 9999 BKN020 03/M01 Q1029 NOSIG=
0150583670999992024020614004+31198+121336FM-15+000399999V0203401N00301006101CN009999199+00301-00101999999ADDGA1071+006101999GE19AGL   +99999+99999GF199999071999006101999999MA1102901999999REMMET059METAR ZSSS 061400Z 34003MPS 9999 BKN020 03/M01 Q1029 NOSIG=
0150583670999992024020614304+31198+121336FM-15+000399999V0203401N00401006101CN009999199+00301-00101999999ADDGA1071+006101999GE19AGL   +99999+99999GF199999071999006101999999MA1102901999999REMMET059METAR ZSSS 061430Z 34004MPS 9999 BKN020 03/M01 Q1029 NOSIG=
0150583670999992024020615004+31198+121336FM-15+000399999V0203401N00401006101CN009999199+00301-00101999999ADDGA1071+006101999GE19AGL   +99999+99999GF199999071999006101999999MA1102901999999REMMET059METAR ZSSS 061500Z 34004MPS 9999 BKN020 03/M01 Q1029 NOSIG=
0150583670999992024020615304+31198+121336FM-15+000399999V0203501N00401006101CN009999199+00301-00101999999ADDGA1071+006101999GE19AGL   +99999+99999GF199999071999006101999999MA1102901999999REMMET059METAR ZSSS 061530Z 35004MPS 9999 BKN020 03/M01 Q1029 NOSIG=
0150583670999992024020616004+31198+121336FM-15+000399999V0203601N00401006101CN009999199+00301+00001999999ADDGA1071+006101999GE19AGL   +99999+99999GF199999071999006101999999MA1102901999999REMMET059METAR ZSSS 061600Z 36004MPS 9999 BKN020 03/M00 Q1029 NOSIG=
0150583670999992024020616304+31198+121336FM-15+000399999V0203501N00401007011CN009999199+00301-00101999999ADDGA1071+007011999GE19AGL   +99999+99999GF199999071999007011999999MA1102901999999REMMET059METAR ZSSS 061630Z 35004MPS 9999 BKN023 03/M01 Q1029 NOSIG=
0150583670999992024020617004+31198+121336FM-15+000399999V0200101N00501007011CN009999199+00301-00101999999ADDGA1071+007011999GE19AGL   +99999+99999GF199999071999007011999999MA1102801999999REMMET059METAR ZSSS 061700Z 01005MPS 9999 BKN023 03/M01 Q1028 NOSIG=
0150583670999992024020617304+31198+121336FM-15+000399999V0203601N00501007011CN009999199+00301-00101999999ADDGA1071+007011999GE19AGL   +99999+99999GF199999071999007011999999MA1102901999999REMMET059METAR ZSSS 061730Z 36005MPS 9999 BKN023 03/M01 Q1029 NOSIG=
0150583670999992024020618004+31198+121336FM-15+000399999V0203601N004019999999N009999199+00301-00101999999ADDGA1041+009141999GE19AGL   +99999+99999GF199999041999009141999999MA1102801999999REMMET059METAR ZSSS 061800Z 36004MPS 9999 SCT030 03/M01 Q1028 NOSIG=
0150583670999992024020618304+31198+121336FM-15+000399999V0203501N004019999999N009999199+00301-00101999999ADDGA1041+009141999GE19AGL   +99999+99999GF199999041999009141999999MA1102901999999REMMET059METAR ZSSS 061830Z 35004MPS 9999 SCT030 03/M01 Q1029 NOSIG=
0150583670999992024020619004+31198+121336FM-15+000399999V0203601N004019999999N009999199+00301-00101999999ADDGA1041+009141999GE19AGL   +99999+99999GF199999041999009141999999MA1102801999999REMMET059METAR ZSSS 061900Z 36004MPS 9999 SCT030 03/M01 Q1028 NOSIG=
0150583670999992024020619304+31198+121336FM-15+000399999V0203601N00401009141CN009999199+00301-00101999999ADDGA1071+009141999GE19AGL   +99999+99999GF199999071999009141999999MA1102801999999REMMET059METAR ZSSS 061930Z 36004MPS 9999 BKN030 03/M01 Q1028 NOSIG=
0150583670999992024020620004+31198+121336FM-15+000399999V0203501N00401009141CN009999199+00301-00101999999ADDGA1071+009141999GE19AGL   +99999+99999GF199999071999009141999999MA1102801999999REMMET059METAR ZSSS 062000Z 35004MPS 9999 BKN030 03/M01 Q1028 NOSIG=
0150583670999992024020620304+31198+121336FM-15+000399999V0203601N004019999999N009999199+00301-00101999999ADDGA1041+009141999GE19AGL   +99999+99999GF199999041999009141999999MA1102701999999REMMET059METAR ZSSS 062030Z 36004MPS 9999 SCT030 03/M01 Q1027 NOSIG=
0150583670999992024020621004+31198+121336FM-15+000399999V0200101N004019999999N009999199+00301-00101999999ADDGA1041+009141999GE19AGL   +99999+99999GF199999041999009141999999MA1102701999999REMMET059METAR ZSSS 062100Z 01004MPS 9999 SCT030 03/M01 Q1027 NOSIG=
0150583670999992024020621304+31198+121336FM-15+000399999V0200101N005019999999N009999199+00301-00101999999ADDGA1041+009141999GE19AGL   +99999+99999GF199999041999009141999999MA1102701999999REMMET059METAR ZSSS 062130Z 01005MPS 9999 SCT030 03/M01 Q1027 NOSIG=
0080583670999992024020622004+31198+121336FM-15+000399999V0200101N005019999999Y009900599+00301-00101999999ADDMA1102801999999REMMET053METAR ZSSS 062200Z 01005MPS CAVOK 03/M01 Q1028 NOSIG=
0080583670999992024020622304+31198+121336FM-15+000399999V0203601N004019999999Y009900599+00301-00101999999ADDMA1102801999999REMMET053METAR ZSSS 062230Z 36004MPS CAVOK 03/M01 Q1028 NOSIG=
0080583670999992024020623004+31198+121336FM-15+000399999V0203601N004019999999Y009900599+00301-00101999999ADDMA1102801999999REMMET053METAR ZSSS 062300Z 36004MPS CAVOK 03/M01 Q1028 NOSIG=
0080583670999992024020623304+31198+121336FM-15+000399999V0203601N005019999999Y009900599+00301-00101999999ADDMA1102801999999REMMET053METAR ZSSS 062330Z 36005MPS CAVOK 03/M01 Q1028 NOSIG=
0080583670999992024020700004+31198+121336FM-15+000399999V0203601N005019999999Y009900599+00401-00101999999ADDMA1102801999999REMMET053METAR ZSSS 070000Z 36005MPS CAVOK 04/M01 Q1028 NOSIG=
0080583670999992024020700304+31198+121336FM-15+000399999V0203601N005019999999Y009900599+00401-00101999999ADDMA1102901999999REMMET053METAR ZSSS 070030Z 36005MPS CAVOK 04/M01 Q1029 NOSIG=
0080583670999992024020701004+31198+121336FM-15+000399999V0200101N006019999999Y009900599+00401-00101999999ADDMA1102801999999REMMET053METAR ZSSS 070100Z 01006MPS CAVOK 04/M01 Q1028 NOSIG=
0080583670999992024020701304+31198+121336FM-15+000399999V0200101N006019999999Y009900599+00401-00101999999ADDMA1102801999999REMMET053METAR ZSSS 070130Z 01006MPS CAVOK 04/M01 Q1028 NOSIG=
0080583670999992024020702004+31198+121336FM-15+000399999V0203601N006019999999Y009900599+00401+00001999999ADDMA1102901999999REMMET053METAR ZSSS 070200Z 36006MPS CAVOK 04/M00 Q1029 NOSIG=
0080583670999992024020702304+31198+121336FM-15+000399999V0203601N005019999999Y009900599+00401-00101999999ADDMA1102901999999REMMET053METAR ZSSS 070230Z 36005MPS CAVOK 04/M01 Q1029 NOSIG=
0080583670999992024020703004+31198+121336FM-15+000399999V0200101N004019999999Y009900599+00401+00001999999ADDMA1102901999999REMMET053METAR ZSSS 070300Z 01004MPS CAVOK 04/M00 Q1029 NOSIG=
0080583670999992024020703304+31198+121336FM-15+000399999V0203601N005019999999Y009900599+00401+00001999999ADDMA1102801999999REMMET053METAR ZSSS 070330Z 36005MPS CAVOK 04/M00 Q1028 NOSIG=
0080583670999992024020704004+31198+121336FM-15+000399999V0203601N005019999999Y009900599+00401-00101999999ADDMA1102801999999REMMET053METAR ZSSS 070400Z 36005MPS CAVOK 04/M01 Q1028 NOSIG=
0080583670999992024020704304+31198+121336FM-15+000399999V0203501N005019999999Y009900599+00401-00101999999ADDMA1102801999999REMMET053METAR ZSSS 070430Z 35005MPS CAVOK 04/M01 Q1028 NOSIG=
0080583670999992024020705004+31198+121336FM-15+000399999V0203601N005019999999Y009900599+00501-00101999999ADDMA1102701999999REMMET053METAR ZSSS 070500Z 36005MPS CAVOK 05/M01 Q1027 NOSIG=
0080583670999992024020705304+31198+121336FM-15+000399999V0203501N006019999999Y009900599+00501+00001999999ADDMA1102701999999REMMET053METAR ZSSS 070530Z 35006MPS CAVOK 05/M00 Q1027 NOSIG=
0080583670999992024020706004+31198+121336FM-15+000399999V0203601N006019999999Y009900599+00501-00101999999ADDMA1102601999999REMMET053METAR ZSSS 070600Z 36006MPS CAVOK 05/M01 Q1026 NOSIG=
0080583670999992024020706304+31198+121336FM-15+000399999V0203601N005019999999Y009900599+00501-00101999999ADDMA1102701999999REMMET053METAR ZSSS 070630Z 36005MPS CAVOK 05/M01 Q1027 NOSIG=
0150583670999992024020707004+31198+121336FM-15+000399999V0203601N004019999999N008000199+00501-00101999999ADDGA1021+007921999GE19AGL   +99999+99999GF199999021999007921999999MA1102601999999REMMET059METAR ZSSS 070700Z 36004MPS 8000 FEW026 05/M01 Q1026 NOSIG=
0150583670999992024020707304+31198+121336FM-15+000399999V0203501N005019999999N008000199+00501-00101999999ADDGA1021+007921999GE19AGL   +99999+99999GF199999021999007921999999MA1102601999999REMMET059METAR ZSSS 070730Z 35005MPS 8000 FEW026 05/M01 Q1026 NOSIG=
0150583670999992024020708004+31198+121336FM-15+000399999V0203601N005019999999N008000199+00501-00201999999ADDGA1041+009141999GE19AGL   +99999+99999GF199999041999009141999999MA1102601999999REMMET059METAR ZSSS 070800Z 36005MPS 8000 SCT030 05/M02 Q1026 NOSIG=
0117583670999992024020708304+31198+121336FM-15+000399999V0203401V004012200019N008000199+00501-00201999999ADDGF100991999999999999999999MA1102601999999REMMET064METAR ZSSS 070830Z 34004MPS 310V020 8000 NSC 05/M02 Q1026 NOSIG=
0088583670999992024020709004+31198+121336FM-15+000399999V0203401V004019999999Y009900599+00501-00101999999ADDMA1102701999999REMMET061METAR ZSSS 070900Z 34004MPS 310V010 CAVOK 05/M01 Q1027 NOSIG=
0080583670999992024020709304+31198+121336FM-15+000399999V0200101N004019999999Y009900599+00501-00201999999ADDMA1102701999999REMMET053METAR ZSSS 070930Z 01004MPS CAVOK 05/M02 Q1027 NOSIG=
0080583670999992024020710004+31198+121336FM-15+000399999V0203601N005019999999Y009900599+00501-00201999999ADDMA1102701999999REMMET053METAR ZSSS 071000Z 36005MPS CAVOK 05/M02 Q1027 NOSIG=
0080583670999992024020710304+31198+121336FM-15+000399999V0203601N004019999999Y009900599+00401-00201999999ADDMA1102701999999REMMET053METAR ZSSS 071030Z 36004MPS CAVOK 04/M02 Q1027 NOSIG=
0080583670999992024020711004+31198+121336FM-15+000399999V0200101N004019999999Y009900599+00401-00201999999ADDMA1102701999999REMMET053METAR ZSSS 071100Z 01004MPS CAVOK 04/M02 Q1027 NOSIG=
0080583670999992024020711304+31198+121336FM-15+000399999V0200101N004019999999Y009900599+00401-00301999999ADDMA1102701999999REMMET053METAR ZSSS 071130Z 01004MPS CAVOK 04/M03 Q1027 NOSIG=
0080583670999992024020712004+31198+121336FM-15+000399999V0200101N004019999999Y009900599+00401-00201999999ADDMA1102701999999REMMET053METAR ZSSS 071200Z 01004MPS CAVOK 04/M02 Q1027 NOSIG=
0080583670999992024020712304+31198+121336FM-15+000399999V0200301N004019999999Y009900599+00401-00201999999ADDMA1102701999999REMMET053METAR ZSSS 071230Z 03004MPS CAVOK 04/M02 Q1027 NOSIG=
0080583670999992024020713004+31198+121336FM-15+000399999V0200201N004019999999Y009900599+00301-00201999999ADDMA1102701999999REMMET053METAR ZSSS 071300Z 02004MPS CAVOK 03/M02 Q1027 NOSIG=
0080583670999992024020713304+31198+121336FM-15+000399999V0200401N004019999999Y009900599+00301-00201999999ADDMA1102701999999REMMET053METAR ZSSS 071330Z 04004MPS CAVOK 03/M02 Q1027 NOSIG=
0080583670999992024020714004+31198+121336FM-15+000399999V0200401N004019999999Y009900599+00301-00201999999ADDMA1102701999999REMMET053METAR ZSSS 071400Z 04004MPS CAVOK 03/M02 Q1027 NOSIG=
0080583670999992024020714304+31198+121336FM-15+000399999V0200301N003019999999Y009900599+00201-00301999999ADDMA1102701999999REMMET053METAR ZSSS 071430Z 03003MPS CAVOK 02/M03 Q1027 NOSIG=
0150583670999992024020715004+31198+121336FM-15+000399999V0203501N002019999999N009999199+00201-00301999999ADDGA1021+010061999GE19AGL   +99999+99999GF199999021999010061999999MA1102701999999REMMET059METAR ZSSS 071500Z 35002MPS 9999 FEW033 02/M03 Q1027 NOSIG=
0158583670999992024020715304+31198+121336FM-15+000399999V0203001V00201010061CN009999199+00301-00301999999ADDGA1071+010061999GE19AGL   +99999+99999GF199999071999010061999999MA1102801999999REMMET067METAR ZSSS 071530Z 30002MPS 260V340 9999 BKN033 03/M03 Q1028 NOSIG=
0150583670999992024020716004+31198+121336FM-15+000399999V0203401N00301010061CN009999199+00201-00301999999ADDGA1071+010061999GE19AGL   +99999+99999GF199999071999010061999999MA1102701999999REMMET059METAR ZSSS 071600Z 34003MPS 9999 BKN033 02/M03 Q1027 NOSIG=
0150583670999992024020716304+31198+121336FM-15+000399999V0203501N00401010061CN009999199+00201-00201999999ADDGA1071+010061999GE19AGL   +99999+99999GF199999071999010061999999MA1102701999999REMMET059METAR ZSSS 071630Z 35004MPS 9999 BKN033 02/M02 Q1027 NOSIG=
0158583670999992024020717004+31198+121336FM-15+000399999V0203101V00301010061CN009999199+00201-00201999999ADDGA1071+010061999GE19AGL   +99999+99999GF199999071999010061999999MA1102801999999REMMET067METAR ZSSS 071700Z 31003MPS 280V340 9999 BKN033 02/M02 Q1028 NOSIG=
0150583670999992024020717304+31198+121336FM-15+000399999V0203001N003019999999N009999199+00201-00201999999ADDGA1021+010061999GE19AGL   +99999+99999GF199999021999010061999999MA1102801999999REMMET059METAR ZSSS 071730Z 30003MPS 9999 FEW033 02/M02 Q1028 NOSIG=
0080583670999992024020718004+31198+121336FM-15+000399999V0203401N003019999999Y009900599+00101-00201999999ADDMA1102701999999REMMET053METAR ZSSS 071800Z 34003MPS CAVOK 01/M02 Q1027 NOSIG=
0080583670999992024020718304+31198+121336FM-15+000399999V0203301N003019999999Y009900599+00201-00201999999ADDMA1102701999999REMMET053METAR ZSSS 071830Z 33003MPS CAVOK 02/M02 Q1027 NOSIG=
0080583670999992024020719004+31198+121336FM-15+000399999V0203301N004019999999Y009900599+00201-00201999999ADDMA1102701999999REMMET053METAR ZSSS 071900Z 33004MPS CAVOK 02/M02 Q1027 NOSIG=
0080583670999992024020719304+31198+121336FM-15+000399999V0203401N004019999999Y009900599+00201-00301999999ADDMA1102601999999REMMET053METAR ZSSS 071930Z 34004MPS CAVOK 02/M03 Q1026 NOSIG=
0080583670999992024020720004+31198+121336FM-15+000399999V0203401N005019999999Y009900599+00201-00301999999ADDMA1102601999999REMMET053METAR ZSSS 072000Z 34005MPS CAVOK 02/M03 Q1026 NOSIG=
0080583670999992024020720304+31198+121336FM-15+000399999V0203401N004019999999Y009900599+00201-00301999999ADDMA1102601999999REMMET053METAR ZSSS 072030Z 34004MPS CAVOK 02/M03 Q1026 NOSIG=
0080583670999992024020721004+31198+121336FM-15+000399999V0203501N004019999999Y009900599+00201-00301999999ADDMA1102601999999REMMET053METAR ZSSS 072100Z 35004MPS CAVOK 02/M03 Q1026 NOSIG=
0080583670999992024020721304+31198+121336FM-15+000399999V0203401N004019999999Y009900599+00201-00301999999ADDMA1102601999999REMMET053METAR ZSSS 072130Z 34004MPS CAVOK 02/M03 Q1026 NOSIG=
0080583670999992024020722004+31198+121336FM-15+000399999V0203401N003019999999Y009900599+00201-00301999999ADDMA1102601999999REMMET053METAR ZSSS 072200Z 34003MPS CAVOK 02/M03 Q1026 NOSIG=
0080583670999992024020722304+31198+121336FM-15+000399999V0203401N004019999999Y009900599+00201-00301999999ADDMA1102601999999REMMET053METAR ZSSS 072230Z 34004MPS CAVOK 02/M03 Q1026 NOSIG=
0080583670999992024020723004+31198+121336FM-15+000399999V0203601N003019999999Y009900599+00201-00301999999ADDMA1102601999999REMMET053METAR ZSSS 072300Z 36003MPS CAVOK 02/M03 Q1026 NOSIG=
0080583670999992024020723304+31198+121336FM-15+000399999V0203601N003019999999Y009900599+00201-00301999999ADDMA1102701999999REMMET053METAR ZSSS 072330Z 36003MPS CAVOK 02/M03 Q1027 NOSIG=
0080583670999992024020800004+31198+121336FM-15+000399999V0203201N004019999999Y009900599+00201-00301999999ADDMA1102701999999REMMET053METAR ZSSS 080000Z 32004MPS CAVOK 02/M03 Q1027 NOSIG=
0088583670999992024020800304+31198+121336FM-15+000399999V0203401V003019999999Y009900599+00301-00301999999ADDMA1102801999999REMMET061METAR ZSSS 080030Z 34003MPS 300V010 CAVOK 03/M03 Q1028 NOSIG=
0088583670999992024020801004+31198+121336FM-15+000399999V0203501V003019999999Y009900599+00401-00301999999ADDMA1102701999999REMMET061METAR ZSSS 080100Z 35003MPS 300V020 CAVOK 04/M03 Q1027 NOSIG=
0088583670999992024020801304+31198+121336FM-15+000399999V0203601V004019999999Y009900599+00501-00201999999ADDMA1102701999999REMMET061METAR ZSSS 080130Z 36004MPS 320V030 CAVOK 05/M02 Q1027 NOSIG=
0088583670999992024020802004+31198+121336FM-15+000399999V0203401V004019999999Y009900599+00501-00301999999ADDMA1102801999999REMMET061METAR ZSSS 080200Z 34004MPS 290V020 CAVOK 05/M03 Q1028 NOSIG=
0088583670999992024020802304+31198+121336FM-15+000399999V0203401V003019999999Y009900599+00401-00301999999ADDMA1102701999999REMMET061METAR ZSSS 080230Z 34003MPS 310V020 CAVOK 04/M03 Q1027 NOSIG=
0088583670999992024020803004+31198+121336FM-15+000399999V0203401V004019999999Y009900599+00601-00301999999ADDMA1102701999999REMMET061METAR ZSSS 080300Z 34004MPS 290V030 CAVOK 06/M03 Q1027 NOSIG=
0088583670999992024020803304+31198+121336FM-15+000399999V0203501V003019999999Y009900599+00601-00401999999ADDMA1102701999999REMMET061METAR ZSSS 080330Z 35003MPS 300V040 CAVOK 06/M04 Q1027 NOSIG=
0088583670999992024020804004+31198+121336FM-15+000399999V0200201V003019999999Y009900599+00601-00401999999ADDMA1102601999999REMMET061METAR ZSSS 080400Z 02003MPS 330V070 CAVOK 06/M04 Q1026 NOSIG=
0158583670999992024020804304+31198+121336FM-15+000399999V0200201V004019999999N009999199+00601-00401999999ADDGA1041+012191999GE19AGL   +99999+99999GF199999041999012191999999MA1102501999999REMMET067METAR ZSSS 080430Z 02004MPS 340V050 9999 SCT040 06/M04 Q1025 NOSIG=
0158583670999992024020805004+31198+121336FM-15+000399999V0200201V004019999999N009999199+00701-00401999999ADDGA1041+012191999GE19AGL   +99999+99999GF199999041999012191999999MA1102601999999REMMET067METAR ZSSS 080500Z 02004MPS 330V060 9999 SCT040 07/M04 Q1026 NOSIG=
0158583670999992024020805304+31198+121336FM-15+000399999V0203401V00401012191CN009999199+00701-00301999999ADDGA1071+012191999GE19AGL   +99999+99999GF199999071999012191999999MA1102601999999REMMET067METAR ZSSS 080530Z 34004MPS 270V030 9999 BKN040 07/M03 Q1026 NOSIG=
0158583670999992024020806004+31198+121336FM-15+000399999V0203601V00301012191CN009999199+00701-00301999999ADDGA1071+012191999GE19AGL   +99999+99999GF199999071999012191999999MA1102601999999REMMET067METAR ZSSS 080600Z 36003MPS 300V080 9999 BKN040 07/M03 Q1026 NOSIG=
0158583670999992024020806304+31198+121336FM-15+000399999V0203301V00301012191CN009999199+00801-00401999999ADDGA1071+012191999GE19AGL   +99999+99999GF199999071999012191999999MA1102501999999REMMET067METAR ZSSS 080630Z 33003MPS 290V010 9999 BKN040 08/M04 Q1025 NOSIG=
0158583670999992024020807004+31198+121336FM-15+000399999V0200201V004019999999N009999199+00701-00401999999ADDGA1041+012191999GE19AGL   +99999+99999GF199999041999012191999999MA1102401999999REMMET067METAR ZSSS 080700Z 02004MPS 340V050 9999 SCT040 07/M04 Q1024 NOSIG=
0158583670999992024020807304+31198+121336FM-15+000399999V0200301V004019999999N009999199+00701-00401999999ADDGA1041+012191999GE19AGL   +99999+99999GF199999041999012191999999MA1102401999999REMMET067METAR ZSSS 080730Z 03004MPS 350V060 9999 SCT040 07/M04 Q1024 NOSIG=
0158583670999992024020808004+31198+121336FM-15+000399999V0203601V004019999999N009999199+00701-00401999999ADDGA1041+012191999GE19AGL   +99999+99999GF199999041999012191999999MA1102401999999REMMET067METAR ZSSS 080800Z 36004MPS 320V040 9999 SCT040 07/M04 Q1024 NOSIG=
0150583670999992024020808304+31198+121336FM-15+000399999V0200101N005019999999N008000199+00601-00401999999ADDGA1041+012191999GE19AGL   +99999+99999GF199999041999012191999999MA1102401999999REMMET059METAR ZSSS 080830Z 01005MPS 8000 SCT040 06/M04 Q1024 NOSIG=
0150583670999992024020809004+31198+121336FM-15+000399999V0203601N004019999999N008000199+00601-00401999999ADDGA1041+012191999GE19AGL   +99999+99999GF199999041999012191999999MA1102501999999REMMET059METAR ZSSS 080900Z 36004MPS 8000 SCT040 06/M04 Q1025 NOSIG=
0150583670999992024020809304+31198+121336FM-15+000399999V0200201N003019999999N008000199+00501-00401999999ADDGA1041+012191999GE19AGL   +99999+99999GF199999041999012191999999MA1102501999999REMMET059METAR ZSSS 080930Z 02003MPS 8000 SCT040 05/M04 Q1025 NOSIG=
0150583670999992024020810004+31198+121336FM-15+000399999V0200301N003019999999N008000199+00501-00401999999ADDGA1021+012191999GE19AGL   +99999+99999GF199999021999012191999999MA1102501999999REMMET059METAR ZSSS 081000Z 03003MPS 8000 FEW040 05/M04 Q1025 NOSIG=
0158583670999992024020810304+31198+121336FM-15+000399999V0200201V002019999999N009999199+00501-00401999999ADDGA1021+012191999GE19AGL   +99999+99999GF199999021999012191999999MA1102501999999REMMET067METAR ZSSS 081030Z 02002MPS 350V070 9999 FEW040 05/M04 Q1025 NOSIG=
0150583670999992024020811004+31198+121336FM-15+000399999V0203601N003019999999N009999199+00401-00401999999ADDGA1021+012191999GE19AGL   +99999+99999GF199999021999012191999999MA1102501999999REMMET059METAR ZSSS 081100Z 36003MPS 9999 FEW040 04/M04 Q1025 NOSIG=
0150583670999992024020811304+31198+121336FM-15+000399999V0200101N002019999999N009999199+00401-00401999999ADDGA1021+012191999GE19AGL   +99999+99999GF199999021999012191999999MA1102601999999REMMET059METAR ZSSS 081130Z 01002MPS 9999 FEW040 04/M04 Q1026 NOSIG=
0158583670999992024020812004+31198+121336FM-15+000399999V0200101V002019999999N009999199+00501-00401999999ADDGA1021+012191999GE19AGL   +99999+99999GF199999021999012191999999MA1102601999999REMMET067METAR ZSSS 081200Z 01002MPS 340V040 9999 FEW040 05/M04 Q1026 NOSIG=
0150583670999992024020812304+31198+121336FM-15+000399999V0203501N003019999999N009999199+00501-00401999999ADDGA1021+012191999GE19AGL   +99999+99999GF199999021999012191999999MA1102601999999REMMET059METAR ZSSS 081230Z 35003MPS 9999 FEW040 05/M04 Q1026 NOSIG=
0150583670999992024020813004+31198+121336FM-15+000399999V0203601N003019999999N009999199+00401-00401999999ADDGA1021+012191999GE19AGL   +99999+99999GF199999021999012191999999MA1102601999999REMMET059METAR ZSSS 081300Z 36003MPS 9999 FEW040 04/M04 Q1026 NOSIG=
0150583670999992024020813304+31198+121336FM-15+000399999V0203601N002019999999N009999199+00401-00301999999ADDGA1021+012191999GE19AGL   +99999+99999GF199999021999012191999999MA1102701999999REMMET059METAR ZSSS 081330Z 36002MPS 9999 FEW040 04/M03 Q1027 NOSIG=
0158583670999992024020814004+31198+121336FM-15+000399999V0203501V002019999999N009999199+00401-00301999999ADDGA1021+012191999GE19AGL   +99999+99999GF199999021999012191999999MA1102701999999REMMET067METAR ZSSS 081400Z 35002MPS 320V020 9999 FEW040 04/M03 Q1027 NOSIG=
0150583670999992024020814304+31198+121336FM-15+000399999V0203401N001019999999N009999199+00301-00301999999ADDGA1021+012191999GE19AGL   +99999+99999GF199999021999012191999999MA1102701999999REMMET059METAR ZSSS 081430Z 34001MPS 9999 FEW040 03/M03 Q1027 NOSIG=
0158583670999992024020815004+31198+121336FM-15+000399999V0203501V002019999999N009999199+00301-00301999999ADDGA1021+012191999GE19AGL   +99999+99999GF199999021999012191999999MA1102701999999REMMET067METAR ZSSS 081500Z 35002MPS 320V020 9999 FEW040 03/M03 Q1027 NOSIG=
0150583670999992024020815304+31198+121336FM-15+000399999V0209999C000019999999N009999199+00301-00301999999ADDGA1021+012191999GE19AGL   +99999+99999GF199999021999012191999999MA1102701999999REMMET059METAR ZSSS 081530Z 00000MPS 9999 FEW040 03/M03 Q1027 NOSIG=
0150583670999992024020816004+31198+121336FM-15+000399999V0203601N002019999999N009999199+00101-00301999999ADDGA1021+012191999GE19AGL   +99999+99999GF199999021999012191999999MA1102601999999REMMET059METAR ZSSS 081600Z 36002MPS 9999 FEW040 01/M03 Q1026 NOSIG=
0150583670999992024020816304+31198+121336FM-15+000399999V0209999C000019999999N009999199+00201-00201999999ADDGA1021+012191999GE19AGL   +99999+99999GF199999021999012191999999MA1102601999999REMMET059METAR ZSSS 081630Z 00000MPS 9999 FEW040 02/M02 Q1026 NOSIG=
0150583670999992024020817004+31198+121336FM-15+000399999V0209999C000019999999N008000199+00201-00201999999ADDGA1021+012191999GE19AGL   +99999+99999GF199999021999012191999999MA1102601999999REMMET059METAR ZSSS 081700Z 00000MPS 8000 FEW040 02/M02 Q1026 NOSIG=
0150583670999992024020817304+31198+121336FM-15+000399999V0209999C000019999999N008000199+00201-00201999999ADDGA1021+012191999GE19AGL   +99999+99999GF199999021999012191999999MA1102701999999REMMET059METAR ZSSS 081730Z 00000MPS 8000 FEW040 02/M02 Q1027 NOSIG=
0150583670999992024020818004+31198+121336FM-15+000399999V0200301N001019999999N008000199+00101-00201999999ADDGA1021+012191999GE19AGL   +99999+99999GF199999021999012191999999MA1102601999999REMMET059METAR ZSSS 081800Z 03001MPS 8000 FEW040 01/M02 Q1026 NOSIG=
0150583670999992024020818304+31198+121336FM-15+000399999V0209999C000019999999N008000199+00001-00201999999ADDGA1021+012191999GE19AGL   +99999+99999GF199999021999012191999999MA1102701999999REMMET059METAR ZSSS 081830Z 00000MPS 8000 FEW040 00/M02 Q1027 NOSIG=
0150583670999992024020819004+31198+121336FM-15+000399999V0209999C000019999999N006000199+00101-00201999999ADDGA1021+012191999GE19AGL   +99999+99999GF199999021999012191999999MA1102701999999REMMET059METAR ZSSS 081900Z 00000MPS 6000 FEW040 01/M02 Q1027 NOSIG=
0159583670999992024020819304+31198+121336FM-15+000399999V0209999V001019999999N005000199+00101-00201999999ADDGA1021+012191999GE19AGL   +99999+99999GF199999021999012191999999MA1102701999999MW1101REMMET062METAR ZSSS 081930Z VRB01MPS 5000 BR FEW040 01/M02 Q1027 NOSIG=
0159583670999992024020820004+31198+121336FM-15+000399999V0202901N002019999999N005000199+00101-00201999999ADDGA1021+010061999GE19AGL   +99999+99999GF199999021999010061999999MA1102601999999MW1101REMMET062METAR ZSSS 082000Z 29002MPS 5000 BR FEW033 01/M02 Q1026 NOSIG=
0167583670999992024020820304+31198+121336FM-15+000399999V0202701V002019999999N005000199+00101-00201999999ADDGA1041+010061999GE19AGL   +99999+99999GF199999041999010061999999MA1102701999999MW1101REMMET070METAR ZSSS 082030Z 27002MPS 150V310 5000 BR SCT033 01/M02 Q1027 NOSIG=
0159583670999992024020821004+31198+121336FM-15+000399999V0202901N002019999999N005000199+00201-00201999999ADDGA1041+010061999GE19AGL   +99999+99999GF199999041999010061999999MA1102701999999MW1101REMMET062METAR ZSSS 082100Z 29002MPS 5000 BR SCT033 02/M02 Q1027 NOSIG=
0167583670999992024020821304+31198+121336FM-15+000399999V0202701V002019999999N005000199+00101-00301999999ADDGA1041+010061999GE19AGL   +99999+99999GF199999041999010061999999MA1102701999999MW1101REMMET070METAR ZSSS 082130Z 27002MPS 200V290 5000 BR SCT033 01/M03 Q1027 NOSIG=
0159583670999992024020822004+31198+121336FM-15+000399999V0209999V001019999999N005000199+00101-00201999999ADDGA1041+010061999GE19AGL   +99999+99999GF199999041999010061999999MA1102701999999MW1101REMMET062METAR ZSSS 082200Z VRB01MPS 5000 BR SCT033 01/M02 Q1027 NOSIG=
0159583670999992024020822304+31198+121336FM-15+000399999V0209999V001019999999N004500199+00001-00201999999ADDGA1041+010061999GE19AGL   +99999+99999GF199999041999010061999999MA1102801999999MW1101REMMET062METAR ZSSS 082230Z VRB01MPS 4500 BR SCT033 00/M02 Q1028 NOSIG=
0159583670999992024020823004+31198+121336FM-15+000399999V0209999V001019999999N003000199+00101-00201999999ADDGA1021+007921999GE19AGL   +99999+99999GF199999021999007921999999MA1102801999999MW1101REMMET062METAR ZSSS 082300Z VRB01MPS 3000 BR FEW026 01/M02 Q1028 NOSIG=
0167583670999992024020823304+31198+121336FM-15+000399999V0202701V002019999999N003000199+00201-00201999999ADDGA1021+007921999GE19AGL   +99999+99999GF199999021999007921999999MA1102801999999MW1101REMMET070METAR ZSSS 082330Z 27002MPS 230V310 3000 BR FEW026 02/M02 Q1028 NOSIG=
0167583670999992024020900004+31198+121336FM-15+000399999V0202801V003019999999N003000199+00301-00201999999ADDGA1021+010061999GE19AGL   +99999+99999GF199999021999010061999999MA1102901999999MW1101REMMET070METAR ZSSS 090000Z 28003MPS 260V320 3000 BR FEW033 03/M02 Q1029 NOSIG=
0167583670999992024020900304+31198+121336FM-15+000399999V0203001V004019999999N003500199+00301-00201999999ADDGA1021+010061999GE19AGL   +99999+99999GF199999021999010061999999MA1102901999999MW1051REMMET070METAR ZSSS 090030Z 30004MPS 270V330 3500 HZ FEW033 03/M02 Q1029 NOSIG=
0167583670999992024020901004+31198+121336FM-15+000399999V0203001V003019999999N004000199+00401-00201999999ADDGA1021+010061999GE19AGL   +99999+99999GF199999021999010061999999MA1102901999999MW1051REMMET070METAR ZSSS 090100Z 30003MPS 260V360 4000 HZ FEW033 04/M02 Q1029 NOSIG=
0167583670999992024020901304+31198+121336FM-15+000399999V0203101V004019999999N004000199+00501-00201999999ADDGA1021+010061999GE19AGL   +99999+99999GF199999021999010061999999MA1102901999999MW1051REMMET070METAR ZSSS 090130Z 31004MPS 280V340 4000 HZ FEW033 05/M02 Q1029 NOSIG=
0167583670999992024020902004+31198+121336FM-15+000399999V0203101V003019999999N004000199+00601-00101999999ADDGA1021+010061999GE19AGL   +99999+99999GF199999021999010061999999MA1102901999999MW1051REMMET070METAR ZSSS 090200Z 31003MPS 260V350 4000 HZ FEW033 06/M01 Q1029 NOSIG=
0167583670999992024020902304+31198+121336FM-15+000399999V0203101V003019999999N004000199+00701-00201999999ADDGA1021+010061999GE19AGL   +99999+99999GF199999021999010061999999MA1102901999999MW1051REMMET070METAR ZSSS 090230Z 31003MPS 260V350 4000 HZ FEW033 07/M02 Q1029 NOSIG=
0167583670999992024020903004+31198+121336FM-15+000399999V0202901V003019999999N004000199+00701-00301999999ADDGA1021+010061999GE19AGL   +99999+99999GF199999021999010061999999MA1102901999999MW1051REMMET070METAR ZSSS 090300Z 29003MPS 260V340 4000 HZ FEW033 07/M03 Q1029 NOSIG=
0159583670999992024020903304+31198+121336FM-15+000399999V0209999V003019999999N004500199+00801-00201999999ADDGA1021+010061999GE19AGL   +99999+99999GF199999021999010061999999MA1102801999999MW1051REMMET062METAR ZSSS 090330Z VRB03MPS 4500 HZ FEW033 08/M02 Q1028 NOSIG=
0167583670999992024020904004+31198+121336FM-15+000399999V0202701V004019999999N005000199+00901-00301999999ADDGA1021+010061999GE19AGL   +99999+99999GF199999021999010061999999MA1102801999999MW1051REMMET070METAR ZSSS 090400Z 27004MPS 240V320 5000 HZ FEW033 09/M03 Q1028 NOSIG=
0158583670999992024020904304+31198+121336FM-15+000399999V0203001V005019999999N006000199+00901-00401999999ADDGA1021+010061999GE19AGL   +99999+99999GF199999021999010061999999MA1102701999999REMMET067METAR ZSSS 090430Z 30005MPS 250V330 6000 FEW033 09/M04 Q1027 NOSIG=
0158583670999992024020905004+31198+121336FM-15+000399999V0202901V004019999999N006000199+00901-00401999999ADDGA1021+010061999GE19AGL   +99999+99999GF199999021999010061999999MA1102701999999REMMET067METAR ZSSS 090500Z 29004MPS 260V340 6000 FEW033 09/M04 Q1027 NOSIG=
0158583670999992024020905304+31198+121336FM-15+000399999V0203001V005019999999N006000199+01001-00501999999ADDGA1021+010061999GE19AGL   +99999+99999GF199999021999010061999999MA1102701999999REMMET067METAR ZSSS 090530Z 30005MPS 260V340 6000 FEW033 10/M05 Q1027 NOSIG=
0158583670999992024020906004+31198+121336FM-15+000399999V0203301V005019999999N006000199+01001-00501999999ADDGA1021+012191999GE19AGL   +99999+99999GF199999021999012191999999MA1102601999999REMMET067METAR ZSSS 090600Z 33005MPS 270V020 6000 FEW040 10/M05 Q1026 NOSIG=
0158583670999992024020906304+31198+121336FM-15+000399999V0202901V004019999999N006000199+01001-00401999999ADDGA1021+012191999GE19AGL   +99999+99999GF199999021999012191999999MA1102601999999REMMET067METAR ZSSS 090630Z 29004MPS 250V350 6000 FEW040 10/M04 Q1026 NOSIG=
0158583670999992024020907004+31198+121336FM-15+000399999V0203001V004019999999N006000199+01001-00401999999ADDGA1021+012191999GE19AGL   +99999+99999GF199999021999012191999999MA1102601999999REMMET067METAR ZSSS 090700Z 30004MPS 280V340 6000 FEW040 10/M04 Q1026 NOSIG=
0158583670999992024020907304+31198+121336FM-15+000399999V0202701V004019999999N006000199+01001-00401999999ADDGA1021+012191999GE19AGL   +99999+99999GF199999021999012191999999MA1102601999999REMMET067METAR ZSSS 090730Z 27004MPS 240V310 6000 FEW040 10/M04 Q1026 NOSIG=
0158583670999992024020908004+31198+121336FM-15+000399999V0202601V003019999999N006000199+00901-00301999999ADDGA1021+012191999GE19AGL   +99999+99999GF199999021999012191999999MA1102601999999REMMET067METAR ZSSS 090800Z 26003MPS 220V310 6000 FEW040 09/M03 Q1026 NOSIG=
0158583670999992024020908304+31198+121336FM-15+000399999V0202701V003019999999N006000199+00901-00301999999ADDGA1021+012191999GE19AGL   +99999+99999GF199999021999012191999999MA1102601999999REMMET067METAR ZSSS 090830Z 27003MPS 210V320 6000 FEW040 09/M03 Q1026 NOSIG=
0158583670999992024020909004+31198+121336FM-15+000399999V0202801V003019999999N006000199+00901-00301999999ADDGA1021+012191999GE19AGL   +99999+99999GF199999021999012191999999MA1102601999999REMMET067METAR ZSSS 090900Z 28003MPS 210V340 6000 FEW040 09/M03 Q1026 NOSIG=
0158583670999992024020909304+31198+121336FM-15+000399999V0202701V003019999999N006000199+00801-00501999999ADDGA1021+012191999GE19AGL   +99999+99999GF199999021999012191999999MA1102601999999REMMET067METAR ZSSS 090930Z 27003MPS 230V330 6000 FEW040 08/M05 Q1026 NOSIG=
0117583670999992024020910004+31198+121336FM-15+000399999V0202501V002012200019N007000199+00801-00401999999ADDGF100991999999999999999999MA1102601999999REMMET064METAR ZSSS 091000Z 25002MPS 210V310 7000 NSC 08/M04 Q1026 NOSIG=
0117583670999992024020910304+31198+121336FM-15+000399999V0202201V002012200019N008000199+00601-00401999999ADDGF100991999999999999999999MA1102701999999REMMET064METAR ZSSS 091030Z 22002MPS 120V240 8000 NSC 06/M04 Q1027 NOSIG=
0109583670999992024020911004+31198+121336FM-15+000399999V0202601N002012200019N008000199+00701-00401999999ADDGF100991999999999999999999MA1102701999999REMMET056METAR ZSSS 091100Z 26002MPS 8000 NSC 07/M04 Q1027 NOSIG=
0109583670999992024020911304+31198+121336FM-15+000399999V0202601N002012200019N008000199+00701-00401999999ADDGF100991999999999999999999MA1102701999999REMMET056METAR ZSSS 091130Z 26002MPS 8000 NSC 07/M04 Q1027 NOSIG=
0109583670999992024020912004+31198+121336FM-15+000399999V0202401N002012200019N008000199+00601-00301999999ADDGF100991999999999999999999MA1102701999999REMMET056METAR ZSSS 091200Z 24002MPS 8000 NSC 06/M03 Q1027 NOSIG=
0109583670999992024020912304+31198+121336FM-15+000399999V0202401N002012200019N008000199+00501-00301999999ADDGF100991999999999999999999MA1102701999999REMMET056METAR ZSSS 091230Z 24002MPS 8000 NSC 05/M03 Q1027 NOSIG=
0117583670999992024020913004+31198+121336FM-15+000399999V0202501V002012200019N008000199+00601-00301999999ADDGF100991999999999999999999MA1102701999999REMMET064METAR ZSSS 091300Z 25002MPS 230V330 8000 NSC 06/M03 Q1027 NOSIG=
0109583670999992024020913304+31198+121336FM-15+000399999V0202401N002012200019N007000199+00401-00201999999ADDGF100991999999999999999999MA1102701999999REMMET056METAR ZSSS 091330Z 24002MPS 7000 NSC 04/M02 Q1027 NOSIG=
0109583670999992024020914004+31198+121336FM-15+000399999V0202501N002012200019N007000199+00501-00301999999ADDGF100991999999999999999999MA1102701999999REMMET056METAR ZSSS 091400Z 25002MPS 7000 NSC 05/M03 Q1027 NOSIG=
0109583670999992024020914304+31198+121336FM-15+000399999V0202501N002012200019N006000199+00501-00201999999ADDGF100991999999999999999999MA1102701999999REMMET056METAR ZSSS 091430Z 25002MPS 6000 NSC 05/M02 Q1027 NOSIG=
0118583670999992024020915004+31198+121336FM-15+000399999V0202101N002012200019N005000199+00401-00101999999ADDGF100991999999999999999999MA1102701999999MW1051REMMET059METAR ZSSS 091500Z 21002MPS 5000 HZ NSC 04/M01 Q1027 NOSIG=
0118583670999992024020915304+31198+121336FM-15+000399999V0209999V001012200019N005000199+00401-00201999999ADDGF100991999999999999999999MA1102701999999MW1051REMMET059METAR ZSSS 091530Z VRB01MPS 5000 HZ NSC 04/M02 Q1027 NOSIG=
0118583670999992024020916004+31198+121336FM-15+000399999V0202101N002012200019N004500199+00201-00101999999ADDGF100991999999999999999999MA1102701999999MW1101REMMET059METAR ZSSS 091600Z 21002MPS 4500 BR NSC 02/M01 Q1027 NOSIG=
0118583670999992024020916304+31198+121336FM-15+000399999V0201901N001012200019N004500199+00301-00101999999ADDGF100991999999999999999999MA1102801999999MW1101REMMET059METAR ZSSS 091630Z 19001MPS 4500 BR NSC 03/M01 Q1028 NOSIG=
0130583670999992024020917004+31198+121336FM-15+000399999V0201901N001012200019N003500199+00301-00101999999ADDGF100991999999999999999999MA1102701999999MW1101REMMET071METAR ZSSS 091700Z 19001MPS 3500 BR NSC 03/M01 Q1027 BECMG TL1820 2800=
0118583670999992024020917304+31198+121336FM-15+000399999V0201901N001012200019N003000199+00201-00101999999ADDGF100991999999999999999999MA1102701999999MW1101REMMET059METAR ZSSS 091730Z 19001MPS 3000 BR NSC 02/M01 Q1027 NOSIG=
0130583670999992024020918004+31198+121336FM-15+000399999V0202001N001012200019N002500199+00201+00001999999ADDGF100991999999999999999999MA1102701999999MW1101REMMET071METAR ZSSS 091800Z 20001MPS 2500 BR NSC 02/M00 Q1027 BECMG TL1930 3000=
0118583670999992024020918304+31198+121336FM-15+000399999V0201901N001012200019N002500199+00101-00101999999ADDGF100991999999999999999999MA1102701999999MW1101REMMET059METAR ZSSS 091830Z 19001MPS 2500 BR NSC 01/M01 Q1027 NOSIG=
0130583670999992024020919004+31198+121336FM-15+000399999V0202001N001012200019N003000199+00101-00101999999ADDGF100991999999999999999999MA1102701999999MW1101REMMET071METAR ZSSS 091900Z 20001MPS 3000 BR NSC 01/M01 Q1027 BECMG TL2040 2500=
0118583670999992024020919304+31198+121336FM-15+000399999V0202201N001012200019N002500199+00101-00101999999ADDGF100991999999999999999999MA1102701999999MW1101REMMET059METAR ZSSS 091930Z 22001MPS 2500 BR NSC 01/M01 Q1027 NOSIG=
0118583670999992024020920004+31198+121336FM-15+000399999V0201901N001012200019N002500199+00101-00101999999ADDGF100991999999999999999999MA1102701999999MW1101REMMET059METAR ZSSS 092000Z 19001MPS 2500 BR NSC 01/M01 Q1027 NOSIG=
0118583670999992024020920304+31198+121336FM-15+000399999V0202101N002012200019N002200199+00101-00101999999ADDGF100991999999999999999999MA1102701999999MW1101REMMET059METAR ZSSS 092030Z 21002MPS 2200 BR NSC 01/M01 Q1027 NOSIG=
0130583670999992024020921004+31198+121336FM-15+000399999V0202301N001012200019N002600199+00101-00101999999ADDGF100991999999999999999999MA1102701999999MW1101REMMET071METAR ZSSS 092100Z 23001MPS 2600 BR NSC 01/M01 Q1027 BECMG TL2240 3000=
0118583670999992024020921304+31198+121336FM-15+000399999V0209999V001012200019N002900199+00101-00101999999ADDGF100991999999999999999999MA1102701999999MW1101REMMET059METAR ZSSS 092130Z VRB01MPS 2900 BR NSC 01/M01 Q1027 NOSIG=
0130583670999992024020922004+31198+121336FM-15+000399999V0202101N002012200019N003000199+00101-00201999999ADDGF100991999999999999999999MA1102701999999MW1101REMMET071METAR ZSSS 092200Z 21002MPS 3000 BR NSC 01/M02 Q1027 BECMG TL2340 2800=
0118583670999992024020922304+31198+121336FM-15+000399999V0202101N002012200019N002800199+00101-00201999999ADDGF100991999999999999999999MA1102801999999MW1101REMMET059METAR ZSSS 092230Z 21002MPS 2800 BR NSC 01/M02 Q1028 NOSIG=
0130583670999992024020923004+31198+121336FM-15+000399999V0202201N002012200019N002400199+00201-00101999999ADDGF100991999999999999999999MA1102801999999MW1101REMMET071METAR ZSSS 092300Z 22002MPS 2400 BR NSC 02/M01 Q1028 BECMG TL0040 3000=
0126583670999992024020923304+31198+121336FM-15+000399999V0202101V002012200019N002200199+00201-00101999999ADDGF100991999999999999999999MA1102801999999MW1101REMMET067METAR ZSSS 092330Z 21002MPS 180V240 2200 BR NSC 02/M01 Q1028 NOSIG=
0129583670999992024021000004+31198+121336FM-15+000399999V0202201N002012200019N002000199+00401+00001999999ADDGF100991999999999999999999MA1102801999999MW1101REMMET070METAR ZSSS 100000Z 22002MPS 2000 BR NSC 04/00 Q1028 BECMG TL0150 3000=
0117583670999992024021000304+31198+121336FM-15+000399999V0202201N002012200019N002300199+00501+00101999999ADDGF100991999999999999999999MA1102901999999MW1101REMMET058METAR ZSSS 100030Z 22002MPS 2300 BR NSC 05/01 Q1029 NOSIG=
0129583670999992024021001004+31198+121336FM-15+000399999V0202401N003012200019N002800199+00601+00001999999ADDGF100991999999999999999999MA1102901999999MW1051REMMET070METAR ZSSS 100100Z 24003MPS 2800 HZ NSC 06/00 Q1029 BECMG TL0200 3000=
0125583670999992024021001304+31198+121336FM-15+000399999V0202601V002012200019N004000199+00801+00001999999ADDGF100991999999999999999999MA1102901999999MW1051REMMET066METAR ZSSS 100130Z 26002MPS 180V330 4000 HZ NSC 08/00 Q1029 NOSIG=
0126583670999992024021002004+31198+121336FM-15+000399999V0202601V002012200019N004000199+00901+00001999999ADDGF100991999999999999999999MA1102901999999MW1051REMMET067METAR ZSSS 100200Z 26002MPS 230V310 4000 HZ NSC 09/M00 Q1029 NOSIG=
0118583670999992024021002304+31198+121336FM-15+000399999V0209999V002012200019N005000199+01001+00001999999ADDGF100991999999999999999999MA1102901999999MW1051REMMET059METAR ZSSS 100230Z VRB02MPS 5000 HZ NSC 10/M00 Q1029 NOSIG=
0109583670999992024021003004+31198+121336FM-15+000399999V0209999V004012200019N007000199+01201+00001999999ADDGF100991999999999999999999MA1102801999999REMMET056METAR ZSSS 100300Z VRB04MPS 7000 NSC 12/M00 Q1028 NOSIG=
0109583670999992024021003304+31198+121336FM-15+000399999V0209999V004012200019N007000199+01201+00001999999ADDGF100991999999999999999999MA1102801999999REMMET056METAR ZSSS 100330Z VRB04MPS 7000 NSC 12/M00 Q1028 NOSIG=
0117583670999992024021004004+31198+121336FM-15+000399999V0203101V004012200019N007000199+01301+00001999999ADDGF100991999999999999999999MA1102801999999REMMET064METAR ZSSS 100400Z 31004MPS 270V340 7000 NSC 13/M00 Q1028 NOSIG=
0117583670999992024021004304+31198+121336FM-15+000399999V0202901V004012200019N008000199+01301+00001999999ADDGF100991999999999999999999MA1102701999999REMMET064METAR ZSSS 100430Z 29004MPS 260V350 8000 NSC 13/M00 Q1027 NOSIG=
0116583670999992024021005004+31198+121336FM-15+000399999V0202801V003012200019N008000199+01301+00001999999ADDGF100991999999999999999999MA1102701999999REMMET063METAR ZSSS 100500Z 28003MPS 240V350 8000 NSC 13/00 Q1027 NOSIG=
0116583670999992024021005304+31198+121336FM-15+000399999V0202801V004012200019N008000199+01401+00001999999ADDGF100991999999999999999999MA1102601999999REMMET063METAR ZSSS 100530Z 28004MPS 240V330 8000 NSC 14/00 Q1026 NOSIG=
0116583670999992024021006004+31198+121336FM-15+000399999V0202501V004012200019N008000199+01401+00001999999ADDGF100991999999999999999999MA1102601999999REMMET063METAR ZSSS 100600Z 25004MPS 210V320 8000 NSC 14/00 Q1026 NOSIG=
0088583670999992024021006304+31198+121336FM-15+000399999V0202601V004019999999Y009900599+01501+00001999999ADDMA1102601999999REMMET061METAR ZSSS 100630Z 26004MPS 210V320 CAVOK 15/M00 Q1026 NOSIG=
0088583670999992024021007004+31198+121336FM-15+000399999V0202601V004019999999Y009900599+01501+00001999999ADDMA1102601999999REMMET061METAR ZSSS 100700Z 26004MPS 210V330 CAVOK 15/M00 Q1026 NOSIG=
0088583670999992024021007304+31198+121336FM-15+000399999V0202401V004019999999Y009900599+01401+00001999999ADDMA1102601999999REMMET061METAR ZSSS 100730Z 24004MPS 210V280 CAVOK 14/M00 Q1026 NOSIG=
0088583670999992024021008004+31198+121336FM-15+000399999V0202401V004019999999Y009900599+01401-00101999999ADDMA1102601999999REMMET061METAR ZSSS 100800Z 24004MPS 210V310 CAVOK 14/M01 Q1026 NOSIG=
0088583670999992024021008304+31198+121336FM-15+000399999V0202701V004019999999Y009900599+01401-00101999999ADDMA1102601999999REMMET061METAR ZSSS 100830Z 27004MPS 230V310 CAVOK 14/M01 Q1026 NOSIG=
0088583670999992024021009004+31198+121336FM-15+000399999V0202601V003019999999Y009900599+01301-00101999999ADDMA1102601999999REMMET061METAR ZSSS 100900Z 26003MPS 220V300 CAVOK 13/M01 Q1026 NOSIG=
0088583670999992024021009304+31198+121336FM-15+000399999V0202301V002019999999Y009900599+01201-00101999999ADDMA1102601999999REMMET061METAR ZSSS 100930Z 23002MPS 200V270 CAVOK 12/M01 Q1026 NOSIG=
0088583670999992024021010004+31198+121336FM-15+000399999V0202501V002019999999Y009900599+01201-00101999999ADDMA1102601999999REMMET061METAR ZSSS 101000Z 25002MPS 220V310 CAVOK 12/M01 Q1026 NOSIG=
0088583670999992024021010304+31198+121336FM-15+000399999V0202301V002019999999Y009900599+01101-00101999999ADDMA1102601999999REMMET061METAR ZSSS 101030Z 23002MPS 200V280 CAVOK 11/M01 Q1026 NOSIG=
0088583670999992024021011004+31198+121336FM-15+000399999V0202401V002019999999Y009900599+01101-00101999999ADDMA1102701999999REMMET061METAR ZSSS 101100Z 24002MPS 220V280 CAVOK 11/M01 Q1027 NOSIG=
0088583670999992024021011304+31198+121336FM-15+000399999V0202501V002019999999Y009900599+01101-00101999999ADDMA1102701999999REMMET061METAR ZSSS 101130Z 25002MPS 210V310 CAVOK 11/M01 Q1027 NOSIG=
0088583670999992024021012004+31198+121336FM-15+000399999V0202601V002019999999Y009900599+01101+00001999999ADDMA1102701999999REMMET061METAR ZSSS 101200Z 26002MPS 160V320 CAVOK 11/M00 Q1027 NOSIG=
0080583670999992024021012304+31198+121336FM-15+000399999V0209999V001019999999Y009900599+00801+00001999999ADDMA1102701999999REMMET053METAR ZSSS 101230Z VRB01MPS CAVOK 08/M00 Q1027 NOSIG=
0080583670999992024021013004+31198+121336FM-15+000399999V0201801N002019999999Y009900599+00801+00001999999ADDMA1102701999999REMMET053METAR ZSSS 101300Z 18002MPS CAVOK 08/M00 Q1027 NOSIG=
0079583670999992024021013304+31198+121336FM-15+000399999V0202001N002019999999Y009900599+00801+00001999999ADDMA1102701999999REMMET052METAR ZSSS 101330Z 20002MPS CAVOK 08/00 Q1027 NOSIG=
0079583670999992024021014004+31198+121336FM-15+000399999V0202001N001019999999Y009900599+00801+00001999999ADDMA1102801999999REMMET052METAR ZSSS 101400Z 20001MPS CAVOK 08/00 Q1028 NOSIG=
0079583670999992024021014304+31198+121336FM-15+000399999V0209999V001019999999Y009900599+00801+00001999999ADDMA1102801999999REMMET052METAR ZSSS 101430Z VRB01MPS CAVOK 08/00 Q1028 NOSIG=
0079583670999992024021015004+31198+121336FM-15+000399999V0209999V001019999999Y009900599+00801+00101999999ADDMA1102801999999REMMET052METAR ZSSS 101500Z VRB01MPS CAVOK 08/01 Q1028 NOSIG=
0079583670999992024021015304+31198+121336FM-15+000399999V0209999V001019999999Y009900599+00801+00101999999ADDMA1102801999999REMMET052METAR ZSSS 101530Z VRB01MPS CAVOK 08/01 Q1028 NOSIG=
0079583670999992024021016004+31198+121336FM-15+000399999V0201901N003019999999Y009900599+00801+00201999999ADDMA1102801999999REMMET052METAR ZSSS 101600Z 19003MPS CAVOK 08/02 Q1028 NOSIG=
0087583670999992024021016304+31198+121336FM-15+000399999V0202001V002019999999Y009900599+00801+00201999999ADDMA1102701999999REMMET060METAR ZSSS 101630Z 20002MPS 170V240 CAVOK 08/02 Q1027 NOSIG=
0079583670999992024021017004+31198+121336FM-15+000399999V0209999V001019999999Y009900599+00801+00101999999ADDMA1102701999999REMMET052METAR ZSSS 101700Z VRB01MPS CAVOK 08/01 Q1027 NOSIG=
0079583670999992024021017304+31198+121336FM-15+000399999V0209999C000019999999Y009900599+00801+00101999999ADDMA1102801999999REMMET052METAR ZSSS 101730Z 00000MPS CAVOK 08/01 Q1028 NOSIG=
0079583670999992024021018004+31198+121336FM-15+000399999V0209999V001019999999Y009900599+00701+00101999999ADDMA1102801999999REMMET052METAR ZSSS 101800Z VRB01MPS CAVOK 07/01 Q1028 NOSIG=
0087583670999992024021018304+31198+121336FM-15+000399999V0202201V002019999999Y009900599+00701+00101999999ADDMA1102701999999REMMET060METAR ZSSS 101830Z 22002MPS 140V300 CAVOK 07/01 Q1027 NOSIG=
0079583670999992024021019004+31198+121336FM-15+000399999V0209999V001019999999Y009900599+00601+00101999999ADDMA1102701999999REMMET052METAR ZSSS 101900Z VRB01MPS CAVOK 06/01 Q1027 NOSIG=
0079583670999992024021019304+31198+121336FM-15+000399999V0203101N004019999999Y009900599+00701+00101999999ADDMA1102801999999REMMET052METAR ZSSS 101930Z 31004MPS CAVOK 07/01 Q1028 NOSIG=
0108583670999992024021020004+31198+121336FM-15+000399999V0203301N002012200019N008000199+00601+00001999999ADDGF100991999999999999999999MA1102801999999REMMET055METAR ZSSS 102000Z 33002MPS 8000 NSC 06/00 Q1028 NOSIG=
0108583670999992024021020304+31198+121336FM-15+000399999V0209999V001012200019N008000199+00501+00001999999ADDGF100991999999999999999999MA1102801999999REMMET055METAR ZSSS 102030Z VRB01MPS 8000 NSC 05/00 Q1028 NOSIG=
0108583670999992024021021004+31198+121336FM-15+000399999V0209999C000012200019N008000199+00601+00101999999ADDGF100991999999999999999999MA1102801999999REMMET055METAR ZSSS 102100Z 00000MPS 8000 NSC 06/01 Q1028 NOSIG=
0108583670999992024021021304+31198+121336FM-15+000399999V0209999V001012200019N008000199+00501+00101999999ADDGF100991999999999999999999MA1102801999999REMMET055METAR ZSSS 102130Z VRB01MPS 8000 NSC 05/01 Q1028 NOSIG=
0108583670999992024021022004+31198+121336FM-15+000399999V0209999V001012200019N007000199+00401+00101999999ADDGF100991999999999999999999MA1102901999999REMMET055METAR ZSSS 102200Z VRB01MPS 7000 NSC 04/01 Q1029 NOSIG=
0108583670999992024021022304+31198+121336FM-15+000399999V0209999C000012200019N007000199+00401+00101999999ADDGF100991999999999999999999MA1102901999999REMMET055METAR ZSSS 102230Z 00000MPS 7000 NSC 04/01 Q1029 NOSIG=
0116583670999992024021023004+31198+121336FM-15+000399999V0202501V002012200019N007000199+00601+00201999999ADDGF100991999999999999999999MA1103001999999REMMET063METAR ZSSS 102300Z 25002MPS 210V320 7000 NSC 06/02 Q1030 NOSIG=
0108583670999992024021023304+31198+121336FM-15+000399999V0209999V001012200019N007000199+00601+00101999999ADDGF100991999999999999999999MA1103001999999REMMET055METAR ZSSS 102330Z VRB01MPS 7000 NSC 06/01 Q1030 NOSIG=
0108583670999992024021100004+31198+121336FM-15+000399999V0209999V001012200019N008000199+00701+00201999999ADDGF100991999999999999999999MA1103101999999REMMET055METAR ZSSS 110000Z VRB01MPS 8000 NSC 07/02 Q1031 NOSIG=
0108583670999992024021100304+31198+121336FM-15+000399999V0209999V001012200019N008000199+00901+00201999999ADDGF100991999999999999999999MA1103101999999REMMET055METAR ZSSS 110030Z VRB01MPS 8000 NSC 09/02 Q1031 NOSIG=
0116583670999992024021101004+31198+121336FM-15+000399999V0202801V002012200019N008000199+01001+00201999999ADDGF100991999999999999999999MA1103101999999REMMET063METAR ZSSS 110100Z 28002MPS 210V360 8000 NSC 10/02 Q1031 NOSIG=
0116583670999992024021101304+31198+121336FM-15+000399999V0202601V002012200019N007000199+01101+00301999999ADDGF100991999999999999999999MA1103101999999REMMET063METAR ZSSS 110130Z 26002MPS 230V320 7000 NSC 11/03 Q1031 NOSIG=
0116583670999992024021102004+31198+121336FM-15+000399999V0203001V002012200019N007000199+01201+00301999999ADDGF100991999999999999999999MA1103101999999REMMET063METAR ZSSS 110200Z 30002MPS 200V010 7000 NSC 12/03 Q1031 NOSIG=
0116583670999992024021102304+31198+121336FM-15+000399999V0203301V003012200019N007000199+01301+00201999999ADDGF100991999999999999999999MA1103101999999REMMET063METAR ZSSS 110230Z 33003MPS 290V360 7000 NSC 13/02 Q1031 NOSIG=
0108583670999992024021103004+31198+121336FM-15+000399999V0203201N004012200019N007000199+01401+00001999999ADDGF100991999999999999999999MA1103101999999REMMET055METAR ZSSS 110300Z 32004MPS 7000 NSC 14/00 Q1031 NOSIG=
0088583670999992024021103304+31198+121336FM-15+000399999V0203101V004019999999Y009900599+01401-00201999999ADDMA1103001999999REMMET061METAR ZSSS 110330Z 31004MPS 260V360 CAVOK 14/M02 Q1030 NOSIG=
0088583670999992024021104004+31198+121336FM-15+000399999V0203301V004019999999Y009900599+01501-00201999999ADDMA1103001999999REMMET061METAR ZSSS 110400Z 33004MPS 290V360 CAVOK 15/M02 Q1030 NOSIG=
0088583670999992024021104304+31198+121336FM-15+000399999V0203201V004019999999Y009900599+01501-00301999999ADDMA1103001999999REMMET061METAR ZSSS 110430Z 32004MPS 240V020 CAVOK 15/M03 Q1030 NOSIG=
0088583670999992024021105004+31198+121336FM-15+000399999V0203101V004019999999Y009900599+01601-00301999999ADDMA1102901999999REMMET061METAR ZSSS 110500Z 31004MPS 280V350 CAVOK 16/M03 Q1029 NOSIG=
0088583670999992024021105304+31198+121336FM-15+000399999V0203001V004019999999Y009900599+01601-00501999999ADDMA1102901999999REMMET061METAR ZSSS 110530Z 30004MPS 270V340 CAVOK 16/M05 Q1029 NOSIG=
0088583670999992024021106004+31198+121336FM-15+000399999V0202901V005019999999Y009900599+01601-00601999999ADDMA1102901999999REMMET061METAR ZSSS 110600Z 29005MPS 260V330 CAVOK 16/M06 Q1029 NOSIG=
0088583670999992024021106304+31198+121336FM-15+000399999V0203401V004019999999Y009900599+01501-00501999999ADDMA1102901999999REMMET061METAR ZSSS 110630Z 34004MPS 310V010 CAVOK 15/M05 Q1029 NOSIG=
0096583670999992024021107004+31198+121336FM-15+000399999V0209999V003019999999Y009900599+01601-00301999999ADDMA1102901999999REMMET069METAR ZSSS 110700Z VRB03MPS CAVOK 16/M03 Q1029 BECMG TL0740 29005MPS=
0088583670999992024021107304+31198+121336FM-15+000399999V0202801V002019999999Y009900599+01501-00301999999ADDMA1102901999999REMMET061METAR ZSSS 110730Z 28002MPS 240V330 CAVOK 15/M03 Q1029 NOSIG=
0088583670999992024021108004+31198+121336FM-15+000399999V0202701V003019999999Y009900599+01501-00301999999ADDMA1102901999999REMMET061METAR ZSSS 110800Z 27003MPS 240V340 CAVOK 15/M03 Q1029 NOSIG=
0088583670999992024021108304+31198+121336FM-15+000399999V0202601V003019999999Y009900599+01501-00301999999ADDMA1102901999999REMMET061METAR ZSSS 110830Z 26003MPS 220V300 CAVOK 15/M03 Q1029 NOSIG=
0088583670999992024021109004+31198+121336FM-15+000399999V0202801V003019999999Y009900599+01401-00401999999ADDMA1102901999999REMMET061METAR ZSSS 110900Z 28003MPS 240V320 CAVOK 14/M04 Q1029 NOSIG=
0088583670999992024021109304+31198+121336FM-15+000399999V0202701V002019999999Y009900599+01401-00401999999ADDMA1102901999999REMMET061METAR ZSSS 110930Z 27002MPS 230V310 CAVOK 14/M04 Q1029 NOSIG=
0080583670999992024021110004+31198+121336FM-15+000399999V0202301N002019999999Y009900599+01201-00401999999ADDMA1102901999999REMMET053METAR ZSSS 111000Z 23002MPS CAVOK 12/M04 Q1029 NOSIG=
0080583670999992024021110304+31198+121336FM-15+000399999V0209999V001019999999Y009900599+01301-00401999999ADDMA1102901999999REMMET053METAR ZSSS 111030Z VRB01MPS CAVOK 13/M04 Q1029 NOSIG=
0088583670999992024021111004+31198+121336FM-15+000399999V0201901V002019999999Y009900599+01101-00301999999ADDMA1102901999999REMMET061METAR ZSSS 111100Z 19002MPS 160V250 CAVOK 11/M03 Q1029 NOSIG=
0080583670999992024021111304+31198+121336FM-15+000399999V0202001N002019999999Y009900599+01001-00301999999ADDMA1103001999999REMMET053METAR ZSSS 111130Z 20002MPS CAVOK 10/M03 Q1030 NOSIG=
0088583670999992024021112004+31198+121336FM-15+000399999V0201901V002019999999Y009900599+01001-00201999999ADDMA1103001999999REMMET061METAR ZSSS 111200Z 19002MPS 160V230 CAVOK 10/M02 Q1030 NOSIG=
0080583670999992024021112304+31198+121336FM-15+000399999V0209999V001019999999Y009900599+01001-00201999999ADDMA1103001999999REMMET053METAR ZSSS 111230Z VRB01MPS CAVOK 10/M02 Q1030 NOSIG=
0080583670999992024021113004+31198+121336FM-15+000399999V0209999V001019999999Y009900599+00801-00201999999ADDMA1103001999999REMMET053METAR ZSSS 111300Z VRB01MPS CAVOK 08/M02 Q1030 NOSIG=
0080583670999992024021113304+31198+121336FM-15+000399999V0201601N002019999999Y009900599+00801-00101999999ADDMA1103001999999REMMET053METAR ZSSS 111330Z 16002MPS CAVOK 08/M01 Q1030 NOSIG=
0080583670999992024021114004+31198+121336FM-15+000399999V0209999V001019999999Y009900599+00901-00101999999ADDMA1103001999999REMMET053METAR ZSSS 111400Z VRB01MPS CAVOK 09/M01 Q1030 NOSIG=
0088583670999992024021114304+31198+121336FM-15+000399999V0201501V002019999999Y009900599+00801+00001999999ADDMA1103001999999REMMET061METAR ZSSS 111430Z 15002MPS 120V180 CAVOK 08/M00 Q1030 NOSIG=
0080583670999992024021115004+31198+121336FM-15+000399999V0209999V001019999999Y009900599+00801+00001999999ADDMA1103001999999REMMET053METAR ZSSS 111500Z VRB01MPS CAVOK 08/M00 Q1030 NOSIG=
0087583670999992024021115304+31198+121336FM-15+000399999V0201501V002019999999Y009900599+00801+00001999999ADDMA1103001999999REMMET060METAR ZSSS 111530Z 15002MPS 120V180 CAVOK 08/00 Q1030 NOSIG=
0079583670999992024021116004+31198+121336FM-15+000399999V0201701N001019999999Y009900599+00701+00101999999ADDMA1103001999999REMMET052METAR ZSSS 111600Z 17001MPS CAVOK 07/01 Q1030 NOSIG=
0079583670999992024021116304+31198+121336FM-15+000399999V0201701N002019999999Y009900599+00501+00001999999ADDMA1103001999999REMMET052METAR ZSSS 111630Z 17002MPS CAVOK 05/00 Q1030 NOSIG=
0079583670999992024021117004+31198+121336FM-15+000399999V0201401N002019999999Y009900599+00601+00101999999ADDMA1103001999999REMMET052METAR ZSSS 111700Z 14002MPS CAVOK 06/01 Q1030 NOSIG=
0079583670999992024021117304+31198+121336FM-15+000399999V0209999V001019999999Y009900599+00501+00101999999ADDMA1103001999999REMMET052METAR ZSSS 111730Z VRB01MPS CAVOK 05/01 Q1030 NOSIG=
0079583670999992024021118004+31198+121336FM-15+000399999V0209999V001019999999Y009900599+00601+00101999999ADDMA1102901999999REMMET052METAR ZSSS 111800Z VRB01MPS CAVOK 06/01 Q1029 NOSIG=
0079583670999992024021118304+31198+121336FM-15+000399999V0201601N002019999999Y009900599+00601+00101999999ADDMA1102901999999REMMET052METAR ZSSS 111830Z 16002MPS CAVOK 06/01 Q1029 NOSIG=
0079583670999992024021119004+31198+121336FM-15+000399999V0201701N002019999999Y009900599+00501+00101999999ADDMA1102901999999REMMET052METAR ZSSS 111900Z 17002MPS CAVOK 05/01 Q1029 NOSIG=
0079583670999992024021119304+31198+121336FM-15+000399999V0201501N002019999999Y009900599+00501+00101999999ADDMA1102901999999REMMET052METAR ZSSS 111930Z 15002MPS CAVOK 05/01 Q1029 NOSIG=
0079583670999992024021120004+31198+121336FM-15+000399999V0201501N003019999999Y009900599+00601+00101999999ADDMA1102901999999REMMET052METAR ZSSS 112000Z 15003MPS CAVOK 06/01 Q1029 NOSIG=
0079583670999992024021120304+31198+121336FM-15+000399999V0201501N003019999999Y009900599+00601+00101999999ADDMA1102901999999REMMET052METAR ZSSS 112030Z 15003MPS CAVOK 06/01 Q1029 NOSIG=
0079583670999992024021121004+31198+121336FM-15+000399999V0201501N002019999999Y009900599+00601+00101999999ADDMA1102901999999REMMET052METAR ZSSS 112100Z 15002MPS CAVOK 06/01 Q1029 NOSIG=
0079583670999992024021121304+31198+121336FM-15+000399999V0201501N002019999999Y009900599+00601+00101999999ADDMA1102901999999REMMET052METAR ZSSS 112130Z 15002MPS CAVOK 06/01 Q1029 NOSIG=
0079583670999992024021122004+31198+121336FM-15+000399999V0201501N003019999999Y009900599+00601+00101999999ADDMA1102901999999REMMET052METAR ZSSS 112200Z 15003MPS CAVOK 06/01 Q1029 NOSIG=
0108583670999992024021122304+31198+121336FM-15+000399999V0201601N003012200019N008000199+00501+00101999999ADDGF100991999999999999999999MA1102901999999REMMET055METAR ZSSS 112230Z 16003MPS 8000 NSC 05/01 Q1029 NOSIG=
0108583670999992024021123004+31198+121336FM-15+000399999V0201501N003012200019N008000199+00601+00101999999ADDGF100991999999999999999999MA1102901999999REMMET055METAR ZSSS 112300Z 15003MPS 8000 NSC 06/01 Q1029 NOSIG=
0108583670999992024021123304+31198+121336FM-15+000399999V0201501N003012200019N008000199+00701+00101999999ADDGF100991999999999999999999MA1102901999999REMMET055METAR ZSSS 112330Z 15003MPS 8000 NSC 07/01 Q1029 NOSIG=
0108583670999992024021200004+31198+121336FM-15+000399999V0201501N003012200019N008000199+00901+00101999999ADDGF100991999999999999999999MA1103001999999REMMET055METAR ZSSS 120000Z 15003MPS 8000 NSC 09/01 Q1030 NOSIG=
0108583670999992024021200304+31198+121336FM-15+000399999V0201601N004012200019N008000199+01001+00001999999ADDGF100991999999999999999999MA1103001999999REMMET055METAR ZSSS 120030Z 16004MPS 8000 NSC 10/00 Q1030 NOSIG=
0079583670999992024021201004+31198+121336FM-15+000399999V0201701N005019999999Y009900599+01101+00001999999ADDMA1103001999999REMMET052METAR ZSSS 120100Z 17005MPS CAVOK 11/00 Q1030 NOSIG=
0080583670999992024021201304+31198+121336FM-15+000399999V0201701N005019999999Y009900599+01201-00101999999ADDMA1103001999999REMMET053METAR ZSSS 120130Z 17005MPS CAVOK 12/M01 Q1030 NOSIG=
0079583670999992024021202004+31198+121336FM-15+000399999V0201701N005019999999Y009900599+01301+00001999999ADDMA1103001999999REMMET052METAR ZSSS 120200Z 17005MPS CAVOK 13/00 Q1030 NOSIG=
0088583670999992024021202304+31198+121336FM-15+000399999V0201601V005019999999Y009900599+01401-00101999999ADDMA1103001999999REMMET061METAR ZSSS 120230Z 16005MPS 130V190 CAVOK 14/M01 Q1030 NOSIG=
0080583670999992024021203004+31198+121336FM-15+000399999V0201701N006019999999Y009900599+01501+00001999999ADDMA1102901999999REMMET053METAR ZSSS 120300Z 17006MPS CAVOK 15/M00 Q1029 NOSIG=
0080583670999992024021203304+31198+121336FM-15+000399999V0201801N007019999999Y009900599+01501+00001999999ADDMA1102901999999REMMET053METAR ZSSS 120330Z 18007MPS CAVOK 15/M00 Q1029 NOSIG=
0087583670999992024021204004+31198+121336FM-15+000399999V0201701V005019999999Y009900599+01601+00101999999ADDMA1102901999999REMMET060METAR ZSSS 120400Z 17005MPS 140V210 CAVOK 16/01 Q1029 NOSIG=
0080583670999992024021204304+31198+121336FM-15+000399999V0201601N007019999999Y009900599+01601+00001999999ADDMA1102801999999REMMET053METAR ZSSS 120430Z 16007MPS CAVOK 16/M00 Q1028 NOSIG=
0088583670999992024021205004+31198+121336FM-15+000399999V0201601V006019999999Y009900599+01701+00001999999ADDMA1102801999999REMMET061METAR ZSSS 120500Z 16006MPS 130V190 CAVOK 17/M00 Q1028 NOSIG=
0079583670999992024021205304+31198+121336FM-15+000399999V0201701N006019999999Y009900599+01601+00001999999ADDMA1102701999999REMMET052METAR ZSSS 120530Z 17006MPS CAVOK 16/00 Q1027 NOSIG=
0087583670999992024021206004+31198+121336FM-15+000399999V0201701V005019999999Y009900599+01701+00101999999ADDMA1102701999999REMMET060METAR ZSSS 120600Z 17005MPS 140V200 CAVOK 17/01 Q1027 NOSIG=
0087583670999992024021206304+31198+121336FM-15+000399999V0201701V006019999999Y009900599+01701+00001999999ADDMA1102601999999REMMET060METAR ZSSS 120630Z 17006MPS 130V190 CAVOK 17/00 Q1026 NOSIG=
0087583670999992024021207004+31198+121336FM-15+000399999V0201401V006019999999Y009900599+01701+00101999999ADDMA1102601999999REMMET060METAR ZSSS 120700Z 14006MPS 110V170 CAVOK 17/01 Q1026 NOSIG=
0087583670999992024021207304+31198+121336FM-15+000399999V0201601V005019999999Y009900599+01701+00101999999ADDMA1102601999999REMMET060METAR ZSSS 120730Z 16005MPS 120V180 CAVOK 17/01 Q1026 NOSIG=
0087583670999992024021208004+31198+121336FM-15+000399999V0201501V005019999999Y009900599+01601+00201999999ADDMA1102601999999REMMET060METAR ZSSS 120800Z 15005MPS 120V180 CAVOK 16/02 Q1026 NOSIG=
0087583670999992024021208304+31198+121336FM-15+000399999V0201501V006019999999Y009900599+01601+00201999999ADDMA1102601999999REMMET060METAR ZSSS 120830Z 15006MPS 120V180 CAVOK 16/02 Q1026 NOSIG=
0079583670999992024021209004+31198+121336FM-15+000399999V0201501N006019999999Y009900599+01501+00301999999ADDMA1102501999999REMMET052METAR ZSSS 120900Z 15006MPS CAVOK 15/03 Q1025 NOSIG=
0079583670999992024021209304+31198+121336FM-15+000399999V0201501N005019999999Y009900599+01301+00301999999ADDMA1102601999999REMMET052METAR ZSSS 120930Z 15005MPS CAVOK 13/03 Q1026 NOSIG=
0079583670999992024021210004+31198+121336FM-15+000399999V0201401N005019999999Y009900599+01301+00301999999ADDMA1102601999999REMMET052METAR ZSSS 121000Z 14005MPS CAVOK 13/03 Q1026 NOSIG=
0079583670999992024021210304+31198+121336FM-15+000399999V0201501N005019999999Y009900599+01201+00301999999ADDMA1102601999999REMMET052METAR ZSSS 121030Z 15005MPS CAVOK 12/03 Q1026 NOSIG=
0079583670999992024021211004+31198+121336FM-15+000399999V0201501N006019999999Y009900599+01201+00401999999ADDMA1102601999999REMMET052METAR ZSSS 121100Z 15006MPS CAVOK 12/04 Q1026 NOSIG=
0079583670999992024021211304+31198+121336FM-15+000399999V0201501N006019999999Y009900599+01101+00401999999ADDMA1102601999999REMMET052METAR ZSSS 121130Z 15006MPS CAVOK 11/04 Q1026 NOSIG=
0079583670999992024021212004+31198+121336FM-15+000399999V0201501N005019999999Y009900599+01101+00401999999ADDMA1102601999999REMMET052METAR ZSSS 121200Z 15005MPS CAVOK 11/04 Q1026 NOSIG=
0079583670999992024021212304+31198+121336FM-15+000399999V0201501N005019999999Y009900599+01001+00401999999ADDMA1102701999999REMMET052METAR ZSSS 121230Z 15005MPS CAVOK 10/04 Q1027 NOSIG=
0079583670999992024021213004+31198+121336FM-15+000399999V0201501N005019999999Y009900599+01001+00501999999ADDMA1102701999999REMMET052METAR ZSSS 121300Z 15005MPS CAVOK 10/05 Q1027 NOSIG=
0079583670999992024021213304+31198+121336FM-15+000399999V0201501N005019999999Y009900599+01001+00401999999ADDMA1102701999999REMMET052METAR ZSSS 121330Z 15005MPS CAVOK 10/04 Q1027 NOSIG=
0079583670999992024021214004+31198+121336FM-15+000399999V0201601N005019999999Y009900599+01101+00501999999ADDMA1102601999999REMMET052METAR ZSSS 121400Z 16005MPS CAVOK 11/05 Q1026 NOSIG=
0079583670999992024021214304+31198+121336FM-15+000399999V0201601N005019999999Y009900599+01101+00501999999ADDMA1102601999999REMMET052METAR ZSSS 121430Z 16005MPS CAVOK 11/05 Q1026 NOSIG=
0079583670999992024021215004+31198+121336FM-15+000399999V0201601N006019999999Y009900599+01101+00501999999ADDMA1102601999999REMMET052METAR ZSSS 121500Z 16006MPS CAVOK 11/05 Q1026 NOSIG=
0079583670999992024021215304+31198+121336FM-15+000399999V0201601N006019999999Y009900599+01101+00501999999ADDMA1102601999999REMMET052METAR ZSSS 121530Z 16006MPS CAVOK 11/05 Q1026 NOSIG=
0079583670999992024021216004+31198+121336FM-15+000399999V0201601N005019999999Y009900599+01001+00501999999ADDMA1102601999999REMMET052METAR ZSSS 121600Z 16005MPS CAVOK 10/05 Q1026 NOSIG=
0079583670999992024021216304+31198+121336FM-15+000399999V0201601N005019999999Y009900599+01001+00501999999ADDMA1102601999999REMMET052METAR ZSSS 121630Z 16005MPS CAVOK 10/05 Q1026 NOSIG=
0079583670999992024021217004+31198+121336FM-15+000399999V0201601N005019999999Y009900599+01001+00501999999ADDMA1102601999999REMMET052METAR ZSSS 121700Z 16005MPS CAVOK 10/05 Q1026 NOSIG=
0079583670999992024021217304+31198+121336FM-15+000399999V0201601N005019999999Y009900599+01001+00401999999ADDMA1102501999999REMMET052METAR ZSSS 121730Z 16005MPS CAVOK 10/04 Q1025 NOSIG=
0079583670999992024021218004+31198+121336FM-15+000399999V0201601N005019999999Y009900599+01001+00401999999ADDMA1102501999999REMMET052METAR ZSSS 121800Z 16005MPS CAVOK 10/04 Q1025 NOSIG=
0079583670999992024021218304+31198+121336FM-15+000399999V0201601N005019999999Y009900599+01001+00401999999ADDMA1102501999999REMMET052METAR ZSSS 121830Z 16005MPS CAVOK 10/04 Q1025 NOSIG=
0079583670999992024021219004+31198+121336FM-15+000399999V0201701N006019999999Y009900599+01001+00501999999ADDMA1102501999999REMMET052METAR ZSSS 121900Z 17006MPS CAVOK 10/05 Q1025 NOSIG=
0079583670999992024021219304+31198+121336FM-15+000399999V0201701N006019999999Y009900599+01001+00501999999ADDMA1102401999999REMMET052METAR ZSSS 121930Z 17006MPS CAVOK 10/05 Q1024 NOSIG=
0079583670999992024021220004+31198+121336FM-15+000399999V0201701N006019999999Y009900599+01001+00501999999ADDMA1102401999999REMMET052METAR ZSSS 122000Z 17006MPS CAVOK 10/05 Q1024 NOSIG=
0079583670999992024021220304+31198+121336FM-15+000399999V0201701N005019999999Y009900599+00901+00501999999ADDMA1102401999999REMMET052METAR ZSSS 122030Z 17005MPS CAVOK 09/05 Q1024 NOSIG=
0079583670999992024021221004+31198+121336FM-15+000399999V0201701N005019999999Y009900599+00901+00501999999ADDMA1102401999999REMMET052METAR ZSSS 122100Z 17005MPS CAVOK 09/05 Q1024 NOSIG=
0079583670999992024021221304+31198+121336FM-15+000399999V0201601N005019999999Y009900599+00901+00501999999ADDMA1102401999999REMMET052METAR ZSSS 122130Z 16005MPS CAVOK 09/05 Q1024 NOSIG=
0079583670999992024021222004+31198+121336FM-15+000399999V0201601N004019999999Y009900599+00801+00501999999ADDMA1102401999999REMMET052METAR ZSSS 122200Z 16004MPS CAVOK 08/05 Q1024 NOSIG=
0079583670999992024021222304+31198+121336FM-15+000399999V0201601N004019999999Y009900599+00901+00501999999ADDMA1102401999999REMMET052METAR ZSSS 122230Z 16004MPS CAVOK 09/05 Q1024 NOSIG=
0079583670999992024021223004+31198+121336FM-15+000399999V0201601N004019999999Y009900599+00901+00501999999ADDMA1102501999999REMMET052METAR ZSSS 122300Z 16004MPS CAVOK 09/05 Q1025 NOSIG=
0079583670999992024021223304+31198+121336FM-15+000399999V0201701N004019999999Y009900599+01001+00601999999ADDMA1102501999999REMMET052METAR ZSSS 122330Z 17004MPS CAVOK 10/06 Q1025 NOSIG=
0079583670999992024021300004+31198+121336FM-15+000399999V0201701N004019999999Y009900599+01101+00601999999ADDMA1102501999999REMMET052METAR ZSSS 130000Z 17004MPS CAVOK 11/06 Q1025 NOSIG=
0079583670999992024021300304+31198+121336FM-15+000399999V0201701N006019999999Y009900599+01301+00701999999ADDMA1102501999999REMMET052METAR ZSSS 130030Z 17006MPS CAVOK 13/07 Q1025 NOSIG=
0079583670999992024021301004+31198+121336FM-15+000399999V0201801N006019999999Y009900599+01401+00801999999ADDMA1102501999999REMMET052METAR ZSSS 130100Z 18006MPS CAVOK 14/08 Q1025 NOSIG=
0079583670999992024021301304+31198+121336FM-15+000399999V0201701N006019999999Y009900599+01501+00701999999ADDMA1102501999999REMMET052METAR ZSSS 130130Z 17006MPS CAVOK 15/07 Q1025 NOSIG=
0079583670999992024021302004+31198+121336FM-15+000399999V0201701N006019999999Y009900599+01601+00801999999ADDMA1102501999999REMMET052METAR ZSSS 130200Z 17006MPS CAVOK 16/08 Q1025 NOSIG=
0079583670999992024021302304+31198+121336FM-15+000399999V0201701N007019999999Y009900599+01601+00801999999ADDMA1102501999999REMMET052METAR ZSSS 130230Z 17007MPS CAVOK 16/08 Q1025 NOSIG=
0087583670999992024021303004+31198+121336FM-15+000399999V0201701V006019999999Y009900599+01701+00801999999ADDMA1102401999999REMMET060METAR ZSSS 130300Z 17006MPS 140V200 CAVOK 17/08 Q1024 NOSIG=
0079583670999992024021303304+31198+121336FM-15+000399999V0201701N007019999999Y009900599+01701+00801999999ADDMA1102401999999REMMET052METAR ZSSS 130330Z 17007MPS CAVOK 17/08 Q1024 NOSIG=
0079583670999992024021304004+31198+121336FM-15+000399999V0201801N006019999999Y009900599+01801+00901999999ADDMA1102301999999REMMET052METAR ZSSS 130400Z 18006MPS CAVOK 18/09 Q1023 NOSIG=
0079583670999992024021304304+31198+121336FM-15+000399999V0201801N005019999999Y009900599+02001+00901999999ADDMA1102201999999REMMET052METAR ZSSS 130430Z 18005MPS CAVOK 20/09 Q1022 NOSIG=
0079583670999992024021305004+31198+121336FM-15+000399999V0201701N006019999999Y009900599+02001+00901999999ADDMA1102201999999REMMET052METAR ZSSS 130500Z 17006MPS CAVOK 20/09 Q1022 NOSIG=
0087583670999992024021305304+31198+121336FM-15+000399999V0201801V006019999999Y009900599+01901+00901999999ADDMA1102101999999REMMET060METAR ZSSS 130530Z 18006MPS 150V210 CAVOK 19/09 Q1021 NOSIG=
0079583670999992024021306004+31198+121336FM-15+000399999V0201801N006019999999Y009900599+01901+00901999999ADDMA1102101999999REMMET052METAR ZSSS 130600Z 18006MPS CAVOK 19/09 Q1021 NOSIG=
0079583670999992024021306304+31198+121336FM-15+000399999V0201901N005019999999Y009900599+02001+01001999999ADDMA1102101999999REMMET052METAR ZSSS 130630Z 19005MPS CAVOK 20/10 Q1021 NOSIG=
0087583670999992024021307004+31198+121336FM-15+000399999V0201901V005019999999Y009900599+01901+00901999999ADDMA1102101999999REMMET060METAR ZSSS 130700Z 19005MPS 160V220 CAVOK 19/09 Q1021 NOSIG=
0079583670999992024021307304+31198+121336FM-15+000399999V0201901N006019999999Y009900599+01901+00901999999ADDMA1102001999999REMMET052METAR ZSSS 130730Z 19006MPS CAVOK 19/09 Q1020 NOSIG=
0079583670999992024021308004+31198+121336FM-15+000399999V0201601N005019999999Y009900599+01901+01001999999ADDMA1102001999999REMMET052METAR ZSSS 130800Z 16005MPS CAVOK 19/10 Q1020 NOSIG=
0079583670999992024021308304+31198+121336FM-15+000399999V0201501N005019999999Y009900599+01801+01001999999ADDMA1102001999999REMMET052METAR ZSSS 130830Z 15005MPS CAVOK 18/10 Q1020 NOSIG=
0079583670999992024021309004+31198+121336FM-15+000399999V0201501N004019999999Y009900599+01801+01001999999ADDMA1102001999999REMMET052METAR ZSSS 130900Z 15004MPS CAVOK 18/10 Q1020 NOSIG=
0079583670999992024021309304+31198+121336FM-15+000399999V0201501N005019999999Y009900599+01701+01001999999ADDMA1102001999999REMMET052METAR ZSSS 130930Z 15005MPS CAVOK 17/10 Q1020 NOSIG=
0079583670999992024021310004+31198+121336FM-15+000399999V0201501N003019999999Y009900599+01601+01001999999ADDMA1102001999999REMMET052METAR ZSSS 131000Z 15003MPS CAVOK 16/10 Q1020 NOSIG=
0079583670999992024021310304+31198+121336FM-15+000399999V0201501N003019999999Y009900599+01501+01001999999ADDMA1102101999999REMMET052METAR ZSSS 131030Z 15003MPS CAVOK 15/10 Q1021 NOSIG=
0079583670999992024021311004+31198+121336FM-15+000399999V0201501N004019999999Y009900599+01501+01001999999ADDMA1102101999999REMMET052METAR ZSSS 131100Z 15004MPS CAVOK 15/10 Q1021 NOSIG=
0079583670999992024021311304+31198+121336FM-15+000399999V0201501N003019999999Y009900599+01501+01001999999ADDMA1102101999999REMMET052METAR ZSSS 131130Z 15003MPS CAVOK 15/10 Q1021 NOSIG=
0087583670999992024021312004+31198+121336FM-15+000399999V0201501V003019999999Y009900599+01401+01001999999ADDMA1102101999999REMMET060METAR ZSSS 131200Z 15003MPS 120V190 CAVOK 14/10 Q1021 NOSIG=
0079583670999992024021312304+31198+121336FM-15+000399999V0201501N004019999999Y009900599+01401+01001999999ADDMA1102101999999REMMET052METAR ZSSS 131230Z 15004MPS CAVOK 14/10 Q1021 NOSIG=
0079583670999992024021313004+31198+121336FM-15+000399999V0201501N004019999999Y009900599+01501+01001999999ADDMA1102101999999REMMET052METAR ZSSS 131300Z 15004MPS CAVOK 15/10 Q1021 NOSIG=
0079583670999992024021313304+31198+121336FM-15+000399999V0201501N004019999999Y009900599+01401+01001999999ADDMA1102101999999REMMET052METAR ZSSS 131330Z 15004MPS CAVOK 14/10 Q1021 NOSIG=
0079583670999992024021314004+31198+121336FM-15+000399999V0201801N003019999999Y009900599+01501+01001999999ADDMA1102101999999REMMET052METAR ZSSS 131400Z 18003MPS CAVOK 15/10 Q1021 NOSIG=
0079583670999992024021314304+31198+121336FM-15+000399999V0201701N004019999999Y009900599+01501+01001999999ADDMA1102101999999REMMET052METAR ZSSS 131430Z 17004MPS CAVOK 15/10 Q1021 NOSIG=
0079583670999992024021315004+31198+121336FM-15+000399999V0201801N004019999999Y009900599+01401+01001999999ADDMA1102101999999REMMET052METAR ZSSS 131500Z 18004MPS CAVOK 14/10 Q1021 NOSIG=
0079583670999992024021315304+31198+121336FM-15+000399999V0201801N003019999999Y009900599+01401+01001999999ADDMA1102101999999REMMET052METAR ZSSS 131530Z 18003MPS CAVOK 14/10 Q1021 NOSIG=
0079583670999992024021316004+31198+121336FM-15+000399999V0201801N003019999999Y009900599+01301+00901999999ADDMA1102101999999REMMET052METAR ZSSS 131600Z 18003MPS CAVOK 13/09 Q1021 NOSIG=
0079583670999992024021316304+31198+121336FM-15+000399999V0201801N002019999999Y009900599+01301+00901999999ADDMA1102101999999REMMET052METAR ZSSS 131630Z 18002MPS CAVOK 13/09 Q1021 NOSIG=
0079583670999992024021317004+31198+121336FM-15+000399999V0202101N002019999999Y009900599+01301+01001999999ADDMA1102101999999REMMET052METAR ZSSS 131700Z 21002MPS CAVOK 13/10 Q1021 NOSIG=
0079583670999992024021317304+31198+121336FM-15+000399999V0202001N002019999999Y009900599+01201+00901999999ADDMA1102101999999REMMET052METAR ZSSS 131730Z 20002MPS CAVOK 12/09 Q1021 NOSIG=
0079583670999992024021318004+31198+121336FM-15+000399999V0202001N002019999999Y009900599+01301+00901999999ADDMA1102101999999REMMET052METAR ZSSS 131800Z 20002MPS CAVOK 13/09 Q1021 NOSIG=
0079583670999992024021318304+31198+121336FM-15+000399999V0201701N002019999999Y009900599+01101+00901999999ADDMA1102101999999REMMET052METAR ZSSS 131830Z 17002MPS CAVOK 11/09 Q1021 NOSIG=
0079583670999992024021319004+31198+121336FM-15+000399999V0201701N001019999999Y009900599+01201+00901999999ADDMA1102001999999REMMET052METAR ZSSS 131900Z 17001MPS CAVOK 12/09 Q1020 NOSIG=
0079583670999992024021319304+31198+121336FM-15+000399999V0201301N001019999999Y009900599+01101+00901999999ADDMA1102001999999REMMET052METAR ZSSS 131930Z 13001MPS CAVOK 11/09 Q1020 NOSIG=
0079583670999992024021320004+31198+121336FM-15+000399999V0201801N002019999999Y009900599+01101+00901999999ADDMA1102001999999REMMET052METAR ZSSS 132000Z 18002MPS CAVOK 11/09 Q1020 NOSIG=
0108583670999992024021320304+31198+121336FM-15+000399999V0202001N002012200019N006000199+01101+00901999999ADDGF100991999999999999999999MA1102001999999REMMET055METAR ZSSS 132030Z 20002MPS 6000 NSC 11/09 Q1020 NOSIG=
0108583670999992024021321004+31198+121336FM-15+000399999V0202301N002012200019N006000199+01101+00901999999ADDGF100991999999999999999999MA1102001999999REMMET055METAR ZSSS 132100Z 23002MPS 6000 NSC 11/09 Q1020 NOSIG=
0108583670999992024021321304+31198+121336FM-15+000399999V0201801N001012200019N006000199+01001+00901999999ADDGF100991999999999999999999MA1102001999999REMMET055METAR ZSSS 132130Z 18001MPS 6000 NSC 10/09 Q1020 NOSIG=
0117583670999992024021322004+31198+121336FM-15+000399999V0201601N002012200019N005000199+00901+00801999999ADDGF100991999999999999999999MA1102001999999MW1101REMMET058METAR ZSSS 132200Z 16002MPS 5000 BR NSC 09/08 Q1020 NOSIG=
0117583670999992024021322304+31198+121336FM-15+000399999V0201701N001012200019N002500199+01001+00901999999ADDGF100991999999999999999999MA1102001999999MW1101REMMET058METAR ZSSS 132230Z 17001MPS 2500 BR NSC 10/09 Q1020 NOSIG=
0140583670999992024021323004+31198+121336FM-15+000399999V0209999V001012200019N002800199+00901+00801999999ADDGF100991999999999999999999MA1102101999999MW1101MW2111REMMET075METAR ZSSS 132300Z VRB01MPS 2800 BCFG BR NSC 09/08 Q1021 BECMG TL0040 3500=
0117583670999992024021323304+31198+121336FM-15+000399999V0201301N001012200019N003500199+01001+00901999999ADDGF100991999999999999999999MA1102101999999MW1101REMMET058METAR ZSSS 132330Z 13001MPS 3500 BR NSC 10/09 Q1021 NOSIG=
0117583670999992024021400004+31198+121336FM-15+000399999V0209999V001012200019N005000199+01301+01201999999ADDGF100991999999999999999999MA1102101999999MW1101REMMET058METAR ZSSS 140000Z VRB01MPS 5000 BR NSC 13/12 Q1021 NOSIG=
0108583670999992024021400304+31198+121336FM-15+000399999V0209999V001012200019N008000199+01401+01101999999ADDGF100991999999999999999999MA1102101999999REMMET055METAR ZSSS 140030Z VRB01MPS 8000 NSC 14/11 Q1021 NOSIG=
0087583670999992024021401004+31198+121336FM-15+000399999V0202001V002019999999Y009900599+01601+01001999999ADDMA1102101999999REMMET060METAR ZSSS 140100Z 20002MPS 090V250 CAVOK 16/10 Q1021 NOSIG=
0087583670999992024021401304+31198+121336FM-15+000399999V0202201V002019999999Y009900599+01801+01001999999ADDMA1102101999999REMMET060METAR ZSSS 140130Z 22002MPS 190V260 CAVOK 18/10 Q1021 NOSIG=
0079583670999992024021402004+31198+121336FM-15+000399999V0209999V002019999999Y009900599+01801+01001999999ADDMA1102101999999REMMET052METAR ZSSS 140200Z VRB02MPS CAVOK 18/10 Q1021 NOSIG=
0087583670999992024021402304+31198+121336FM-15+000399999V0202301V002019999999Y009900599+01901+01001999999ADDMA1102101999999REMMET060METAR ZSSS 140230Z 23002MPS 170V300 CAVOK 19/10 Q1021 NOSIG=
0087583670999992024021403004+31198+121336FM-15+000399999V0202101V002019999999Y009900599+02001+01001999999ADDMA1102101999999REMMET060METAR ZSSS 140300Z 21002MPS 170V260 CAVOK 20/10 Q1021 NOSIG=
0087583670999992024021403304+31198+121336FM-15+000399999V0202301V002019999999Y009900599+02101+01001999999ADDMA1102001999999REMMET060METAR ZSSS 140330Z 23002MPS 150V300 CAVOK 21/10 Q1020 NOSIG=
0087583670999992024021404004+31198+121336FM-15+000399999V0202001V002019999999Y009900599+02201+01001999999ADDMA1102001999999REMMET060METAR ZSSS 140400Z 20002MPS 130V290 CAVOK 22/10 Q1020 NOSIG=
0079583670999992024021404304+31198+121336FM-15+000399999V0209999V001019999999Y009900599+02301+01001999999ADDMA1101901999999REMMET052METAR ZSSS 140430Z VRB01MPS CAVOK 23/10 Q1019 NOSIG=
0087583670999992024021405004+31198+121336FM-15+000399999V0202301V002019999999Y009900599+02301+00901999999ADDMA1101801999999REMMET060METAR ZSSS 140500Z 23002MPS 170V340 CAVOK 23/09 Q1018 NOSIG=
0079583670999992024021405304+31198+121336FM-15+000399999V0209999V002019999999Y009900599+02301+01001999999ADDMA1101701999999REMMET052METAR ZSSS 140530Z VRB02MPS CAVOK 23/10 Q1017 NOSIG=
0087583670999992024021406004+31198+121336FM-15+000399999V0202101V003019999999Y009900599+02301+01001999999ADDMA1101701999999REMMET060METAR ZSSS 140600Z 21003MPS 160V260 CAVOK 23/10 Q1017 NOSIG=
0087583670999992024021406304+31198+121336FM-15+000399999V0201801V003019999999Y009900599+02301+01001999999ADDMA1101701999999REMMET060METAR ZSSS 140630Z 18003MPS 110V220 CAVOK 23/10 Q1017 NOSIG=
0079583670999992024021407004+31198+121336FM-15+000399999V0209999V002019999999Y009900599+02401+01001999999ADDMA1101701999999REMMET052METAR ZSSS 140700Z VRB02MPS CAVOK 24/10 Q1017 NOSIG=
0087583670999992024021407304+31198+121336FM-15+000399999V0202001V002019999999Y009900599+02301+01001999999ADDMA1101701999999REMMET060METAR ZSSS 140730Z 20002MPS 100V270 CAVOK 23/10 Q1017 NOSIG=
0087583670999992024021408004+31198+121336FM-15+000399999V0202201V003019999999Y009900599+02201+01001999999ADDMA1101701999999REMMET060METAR ZSSS 140800Z 22003MPS 170V270 CAVOK 22/10 Q1017 NOSIG=
0087583670999992024021408304+31198+121336FM-15+000399999V0202401V003019999999Y009900599+02301+01001999999ADDMA1101701999999REMMET060METAR ZSSS 140830Z 24003MPS 180V280 CAVOK 23/10 Q1017 NOSIG=
0090583670999992024021409004+31198+121336FM-15+000399999V0209999V002019999999Y009900599+02201+01001999999ADDMA1101701999999OC100701REMMET055METAR ZSSS 140900Z VRB02G07MPS CAVOK 22/10 Q1017 NOSIG=
0087583670999992024021409304+31198+121336FM-15+000399999V0202201V003019999999Y009900599+02001+01101999999ADDMA1101701999999REMMET060METAR ZSSS 140930Z 22003MPS 170V280 CAVOK 20/11 Q1017 NOSIG=
0079583670999992024021410004+31198+121336FM-15+000399999V0201901N003019999999Y009900599+01901+01101999999ADDMA1101701999999REMMET052METAR ZSSS 141000Z 19003MPS CAVOK 19/11 Q1017 NOSIG=
0079583670999992024021410304+31198+121336FM-15+000399999V0201401N002019999999Y009900599+02001+01101999999ADDMA1101801999999REMMET052METAR ZSSS 141030Z 14002MPS CAVOK 20/11 Q1018 NOSIG=
0079583670999992024021411004+31198+121336FM-15+000399999V0201701N002019999999Y009900599+01901+01101999999ADDMA1101801999999REMMET052METAR ZSSS 141100Z 17002MPS CAVOK 19/11 Q1018 NOSIG=
0087583670999992024021411304+31198+121336FM-15+000399999V0201501V002019999999Y009900599+01901+01101999999ADDMA1101801999999REMMET060METAR ZSSS 141130Z 15002MPS 120V190 CAVOK 19/11 Q1018 NOSIG=
0079583670999992024021412004+31198+121336FM-15+000399999V0201101N001019999999Y009900599+01801+01001999999ADDMA1101801999999REMMET052METAR ZSSS 141200Z 11001MPS CAVOK 18/10 Q1018 NOSIG=
0079583670999992024021413004+31198+121336FM-15+000399999V0201701N003019999999Y009900599+01601+01101999999ADDMA1101901999999REMMET052METAR ZSSS 141300Z 17003MPS CAVOK 16/11 Q1019 NOSIG=
0079583670999992024021413304+31198+121336FM-15+000399999V0201601N003019999999Y009900599+01601+01101999999ADDMA1101901999999REMMET052METAR ZSSS 141330Z 16003MPS CAVOK 16/11 Q1019 NOSIG=
0108583670999992024021414004+31198+121336FM-15+000399999V0201701N003012200019N008000199+01501+01101999999ADDGF100991999999999999999999MA1101901999999REMMET055METAR ZSSS 141400Z 17003MPS 8000 NSC 15/11 Q1019 NOSIG=
0108583670999992024021414304+31198+121336FM-15+000399999V0201701N002012200019N008000199+01401+01001999999ADDGF100991999999999999999999MA1101901999999REMMET055METAR ZSSS 141430Z 17002MPS 8000 NSC 14/10 Q1019 NOSIG=
0108583670999992024021415004+31198+121336FM-15+000399999V0201601N003012200019N008000199+01501+01001999999ADDGF100991999999999999999999MA1101901999999REMMET055METAR ZSSS 141500Z 16003MPS 8000 NSC 15/10 Q1019 NOSIG=
0116583670999992024021415304+31198+121336FM-15+000399999V0201601V003012200019N008000199+01401+01001999999ADDGF100991999999999999999999MA1101901999999REMMET063METAR ZSSS 141530Z 16003MPS 130V190 8000 NSC 14/10 Q1019 NOSIG=
0108583670999992024021416004+31198+121336FM-15+000399999V0201401N001012200019N008000199+01401+01001999999ADDGF100991999999999999999999MA1101901999999REMMET055METAR ZSSS 141600Z 14001MPS 8000 NSC 14/10 Q1019 NOSIG=
0108583670999992024021416304+31198+121336FM-15+000399999V0209999V001012200019N008000199+01401+01001999999ADDGF100991999999999999999999MA1101801999999REMMET055METAR ZSSS 141630Z VRB01MPS 8000 NSC 14/10 Q1018 NOSIG=
0108583670999992024021417004+31198+121336FM-15+000399999V0209999C000012200019N008000199+01401+01001999999ADDGF100991999999999999999999MA1101801999999REMMET055METAR ZSSS 141700Z 00000MPS 8000 NSC 14/10 Q1018 NOSIG=
0108583670999992024021417304+31198+121336FM-15+000399999V0209999V001012200019N008000199+01301+01001999999ADDGF100991999999999999999999MA1101801999999REMMET055METAR ZSSS 141730Z VRB01MPS 8000 NSC 13/10 Q1018 NOSIG=
0108583670999992024021418004+31198+121336FM-15+000399999V0209999V001012200019N008000199+01301+00901999999ADDGF100991999999999999999999MA1101801999999REMMET055METAR ZSSS 141800Z VRB01MPS 8000 NSC 13/09 Q1018 NOSIG=
0108583670999992024021418304+31198+121336FM-15+000399999V0209999V001012200019N008000199+01401+01001999999ADDGF100991999999999999999999MA1101801999999REMMET055METAR ZSSS 141830Z VRB01MPS 8000 NSC 14/10 Q1018 NOSIG=
0108583670999992024021419004+31198+121336FM-15+000399999V0209999C000012200019N008000199+01301+01001999999ADDGF100991999999999999999999MA1101701999999REMMET055METAR ZSSS 141900Z 00000MPS 8000 NSC 13/10 Q1017 NOSIG=
0108583670999992024021419304+31198+121336FM-15+000399999V0200701N001012200019N008000199+01301+01001999999ADDGF100991999999999999999999MA1101701999999REMMET055METAR ZSSS 141930Z 07001MPS 8000 NSC 13/10 Q1017 NOSIG=
0108583670999992024021420004+31198+121336FM-15+000399999V0209999V001012200019N008000199+01401+01001999999ADDGF100991999999999999999999MA1101701999999REMMET055METAR ZSSS 142000Z VRB01MPS 8000 NSC 14/10 Q1017 NOSIG=
0108583670999992024021420304+31198+121336FM-15+000399999V0202101N002012200019N008000199+01201+00901999999ADDGF100991999999999999999999MA1101701999999REMMET055METAR ZSSS 142030Z 21002MPS 8000 NSC 12/09 Q1017 NOSIG=
0108583670999992024021421004+31198+121336FM-15+000399999V0209999V001012200019N009000199+01301+00901999999ADDGF100991999999999999999999MA1101701999999REMMET055METAR ZSSS 142100Z VRB01MPS 9000 NSC 13/09 Q1017 NOSIG=
0108583670999992024021421304+31198+121336FM-15+000399999V0209999V001012200019N009000199+01301+00901999999ADDGF100991999999999999999999MA1101701999999REMMET055METAR ZSSS 142130Z VRB01MPS 9000 NSC 13/09 Q1017 NOSIG=
0124583670999992024021422004+31198+121336FM-15+000399999V0209999V001012200019N008000199+01201+00901999999ADDGF100991999999999999999999MA1101701999999REMMET071METAR ZSSS 142200Z VRB01MPS 8000 NSC 12/09 Q1017 BECMG TL2330 35008MPS=
0108583670999992024021422304+31198+121336FM-15+000399999V0203501N006012200019N008000199+01301+01001999999ADDGF100991999999999999999999MA1101901999999REMMET055METAR ZSSS 142230Z 35006MPS 8000 NSC 13/10 Q1019 NOSIG=
0108583670999992024021423004+31198+121336FM-15+000399999V0203601N008012200019N007000199+01401+01001999999ADDGF100991999999999999999999MA1102001999999REMMET055METAR ZSSS 142300Z 36008MPS 7000 NSC 14/10 Q1020 NOSIG=
0117583670999992024021423304+31198+121336FM-15+000399999V0203601N009012200019N005000199+01101+00901999999ADDGF100991999999999999999999MA1102101999999MW1101REMMET058METAR ZSSS 142330Z 36009MPS 5000 BR NSC 11/09 Q1021 NOSIG=
0172583670999992024021500004+31198+121336FM-15+000399999V0200101N012019999999N005000199+00901+00701999999ADDGA1041+003661999GE19AGL   +99999+99999GF199999041999003661999999MA1102201999999MW1101REMMET075METAR ZSSS 150000Z 01012MPS 5000 BR SCT012 09/07 Q1022 BECMG TL0130 BKN009=
0168583670999992024021500304+31198+121336FM-15+000399999V0203601N01101002131CN005000199+00901+00701999999ADDGA1071+002131999GE19AGL   +99999+99999GF199999071999002131999999MA1102301999999MW1101MW2611REMMET065METAR ZSSS 150030Z 36011MPS 5000 -RA BR BKN007 09/07 Q1023 NOSIG=
0158583670999992024021501004+31198+121336FM-15+000399999V0200101N01301002131CN005000199+00801+00601999999ADDGA1071+002131999GE19AGL   +99999+99999GF199999071999002131999999MA1102301999999MW1101REMMET061METAR ZSSS 150100Z 01013MPS 5000 BR BKN007 08/06 Q1023 NOSIG=
0158583670999992024021501304+31198+121336FM-15+000399999V0200101N01201002131CN005000199+00801+00501999999ADDGA1071+002131999GE19AGL   +99999+99999GF199999071999002131999999MA1102401999999MW1101REMMET061METAR ZSSS 150130Z 01012MPS 5000 BR BKN007 08/05 Q1024 NOSIG=
0160583670999992024021502004+31198+121336FM-15+000399999V0200101N01101002741CN006000199+00801+00501999999ADDGA1071+002741999GE19AGL   +99999+99999GF199999071999002741999999MA1102501999999OC101601REMMET061METAR ZSSS 150200Z 01011G16MPS 6000 BKN009 08/05 Q1025 NOSIG=
0159583670999992024021502304+31198+121336FM-15+000399999V0200101N01201003351CN008000199+00701+00401999999ADDGA1071+003351999GE19AGL   +99999+99999GF199999071999003351999999MA1102501999999MW1611REMMET062METAR ZSSS 150230Z 01012MPS 8000 -RA BKN011 07/04 Q1025 NOSIG=
0173583670999992024021503004+31198+121336FM-15+000399999V0203601N01101003961CN008000199+00701+00401999999ADDGA1071+003961999GE19AGL   +99999+99999GF199999071999003961999999MA1102601999999MW1611REMMET076METAR ZSSS 150300Z 36011MPS 8000 -RA BKN013 07/04 Q1026 BECMG TL0440 BKN015=
0159583670999992024021503304+31198+121336FM-15+000399999V0203601N01101003961CN007000199+00701+00401999999ADDGA1071+003961999GE19AGL   +99999+99999GF199999071999003961999999MA1102601999999MW1611REMMET062METAR ZSSS 150330Z 36011MPS 7000 -RA BKN013 07/04 Q1026 NOSIG=
0184583670999992024021504004+31198+121336FM-15+000399999V0200101N00901003961CN007000199+00701+00401999999ADDGA1071+003961999GE19AGL   +99999+99999GF199999071999003961999999MA1102601999999MW1611OC101401REMMET079METAR ZSSS 150400Z 01009G14MPS 7000 -RA BKN013 07/04 Q1026 BECMG TL0450 BKN015=
0159583670999992024021504304+31198+121336FM-15+000399999V0200101N01101003961CN009999199+00601+00401999999ADDGA1071+003961999GE19AGL   +99999+99999GF199999071999003961999999MA1102601999999MW1611REMMET062METAR ZSSS 150430Z 01011MPS 9999 -RA BKN013 06/04 Q1026 NOSIG=
0159583670999992024021505004+31198+121336FM-15+000399999V0203601N01101003961CN009999199+00601+00401999999ADDGA1071+003961999GE19AGL   +99999+99999GF199999071999003961999999MA1102601999999MW1611REMMET062METAR ZSSS 150500Z 36011MPS 9999 -RA BKN013 06/04 Q1026 NOSIG=
0159583670999992024021505304+31198+121336FM-15+000399999V0203601N00901003961CN009999199+00601+00301999999ADDGA1071+003961999GE19AGL   +99999+99999GF199999071999003961999999MA1102701999999MW1611REMMET062METAR ZSSS 150530Z 36009MPS 9999 -RA BKN013 06/03 Q1027 NOSIG=
0173583670999992024021506004+31198+121336FM-15+000399999V0200101N00801003961CN009999199+00601+00301999999ADDGA1071+003961999GE19AGL   +99999+99999GF199999071999003961999999MA1102701999999MW1611REMMET076METAR ZSSS 150600Z 01008MPS 9999 -RA BKN013 06/03 Q1027 BECMG TL0650 BKN015=
0159583670999992024021506304+31198+121336FM-15+000399999V0200201N00701004571CN009999199+00601+00401999999ADDGA1071+004571999GE19AGL   +99999+99999GF199999071999004571999999MA1102701999999MW1611REMMET062METAR ZSSS 150630Z 02007MPS 9999 -RA BKN015 06/04 Q1027 NOSIG=
0149583670999992024021507004+31198+121336FM-15+000399999V0200101N00701004881CN009999199+00601+00301999999ADDGA1071+004881999GE19AGL   +99999+99999GF199999071999004881999999MA1102701999999REMMET058METAR ZSSS 150700Z 01007MPS 9999 BKN016 06/03 Q1027 NOSIG=
0149583670999992024021507304+31198+121336FM-15+000399999V0203601N008019999999N009999199+00601+00301999999ADDGA1041+004881999GE19AGL   +99999+99999GF199999041999004881999999MA1102801999999REMMET058METAR ZSSS 150730Z 36008MPS 9999 SCT016 06/03 Q1028 NOSIG=
0159583670999992024021508004+31198+121336FM-15+000399999V0203601N008019999999N009999199+00601+00201999999ADDGA1041+006101999GE19AGL   +99999+99999GF199999041999006101999999MA1102801999999MW1611REMMET062METAR ZSSS 150800Z 36008MPS 9999 -RA SCT020 06/02 Q1028 NOSIG=
0149583670999992024021508304+31198+121336FM-15+000399999V0200101N007019999999N009999199+00601+00101999999ADDGA1041+006101999GE19AGL   +99999+99999GF199999041999006101999999MA1102801999999REMMET058METAR ZSSS 150830Z 01007MPS 9999 SCT020 06/01 Q1028 NOSIG=
0149583670999992024021509004+31198+121336FM-15+000399999V0203601N007019999999N009999199+00601+00101999999ADDGA1041+007011999GE19AGL   +99999+99999GF199999041999007011999999MA1102801999999REMMET058METAR ZSSS 150900Z 36007MPS 9999 SCT023 06/01 Q1028 NOSIG=
0149583670999992024021509304+31198+121336FM-15+000399999V0203601N006019999999N009999199+00601+00101999999ADDGA1041+007011999GE19AGL   +99999+99999GF199999041999007011999999MA1102901999999REMMET058METAR ZSSS 150930Z 36006MPS 9999 SCT023 06/01 Q1029 NOSIG=
0149583670999992024021510004+31198+121336FM-15+000399999V0203601N006019999999N009999199+00601+00101999999ADDGA1041+007011999GE19AGL   +99999+99999GF199999041999007011999999MA1102901999999REMMET058METAR ZSSS 151000Z 36006MPS 9999 SCT023 06/01 Q1029 NOSIG=
0150583670999992024021510304+31198+121336FM-15+000399999V0203601N007019999999N009999199+00601-00101999999ADDGA1021+007921999GE19AGL   +99999+99999GF199999021999007921999999MA1103001999999REMMET059METAR ZSSS 151030Z 36007MPS 9999 FEW026 06/M01 Q1030 NOSIG=
0080583670999992024021511004+31198+121336FM-15+000399999V0203601N007019999999Y009900599+00601-00201999999ADDMA1103001999999REMMET053METAR ZSSS 151100Z 36007MPS CAVOK 06/M02 Q1030 NOSIG=
0080583670999992024021511304+31198+121336FM-15+000399999V0203601N007019999999Y009900599+00601-00201999999ADDMA1103001999999REMMET053METAR ZSSS 151130Z 36007MPS CAVOK 06/M02 Q1030 NOSIG=
0080583670999992024021512004+31198+121336FM-15+000399999V0203601N007019999999Y009900599+00601-00201999999ADDMA1103101999999REMMET053METAR ZSSS 151200Z 36007MPS CAVOK 06/M02 Q1031 NOSIG=
0080583670999992024021512304+31198+121336FM-15+000399999V0203601N007019999999Y009900599+00601-00301999999ADDMA1103101999999REMMET053METAR ZSSS 151230Z 36007MPS CAVOK 06/M03 Q1031 NOSIG=
0080583670999992024021513004+31198+121336FM-15+000399999V0200101N007019999999Y009900599+00601-00301999999ADDMA1103101999999REMMET053METAR ZSSS 151300Z 01007MPS CAVOK 06/M03 Q1031 NOSIG=
0080583670999992024021513304+31198+121336FM-15+000399999V0200101N006019999999Y009900599+00501-00201999999ADDMA1103101999999REMMET053METAR ZSSS 151330Z 01006MPS CAVOK 05/M02 Q1031 NOSIG=
0080583670999992024021514004+31198+121336FM-15+000399999V0203601N006019999999Y009900599+00501-00201999999ADDMA1103101999999REMMET053METAR ZSSS 151400Z 36006MPS CAVOK 05/M02 Q1031 NOSIG=
0080583670999992024021514304+31198+121336FM-15+000399999V0203601N006019999999Y009900599+00501-00201999999ADDMA1103001999999REMMET053METAR ZSSS 151430Z 36006MPS CAVOK 05/M02 Q1030 NOSIG=
0080583670999992024021515004+31198+121336FM-15+000399999V0203601N006019999999Y009900599+00501-00201999999ADDMA1103001999999REMMET053METAR ZSSS 151500Z 36006MPS CAVOK 05/M02 Q1030 NOSIG=
0080583670999992024021516004+31198+121336FM-15+000399999V0203501N004019999999Y009900599+00501-00201999999ADDMA1103001999999REMMET053METAR ZSSS 151600Z 35004MPS CAVOK 05/M02 Q1030 NOSIG=
0080583670999992024021516304+31198+121336FM-15+000399999V0200101N005019999999Y009900599+00501-00201999999ADDMA1103001999999REMMET053METAR ZSSS 151630Z 01005MPS CAVOK 05/M02 Q1030 NOSIG=
0150583670999992024021517004+31198+121336FM-15+000399999V0203501N005019999999N009999199+00401-00201999999ADDGA1021+010061999GE19AGL   +99999+99999GF199999021999010061999999MA1103001999999REMMET059METAR ZSSS 151700Z 35005MPS 9999 FEW033 04/M02 Q1030 NOSIG=
0150583670999992024021517304+31198+121336FM-15+000399999V0203601N004019999999N009999199+00401-00201999999ADDGA1021+010061999GE19AGL   +99999+99999GF199999021999010061999999MA1103001999999REMMET059METAR ZSSS 151730Z 36004MPS 9999 FEW033 04/M02 Q1030 NOSIG=
0080583670999992024021518004+31198+121336FM-15+000399999V0200101N004019999999Y009900599+00401-00301999999ADDMA1102901999999REMMET053METAR ZSSS 151800Z 01004MPS CAVOK 04/M03 Q1029 NOSIG=
0080583670999992024021518304+31198+121336FM-15+000399999V0203601N004019999999Y009900599+00401-00201999999ADDMA1102901999999REMMET053METAR ZSSS 151830Z 36004MPS CAVOK 04/M02 Q1029 NOSIG=
0080583670999992024021519004+31198+121336FM-15+000399999V0203601N004019999999Y009900599+00401-00301999999ADDMA1102901999999REMMET053METAR ZSSS 151900Z 36004MPS CAVOK 04/M03 Q1029 NOSIG=
0080583670999992024021519304+31198+121336FM-15+000399999V0203501N003019999999Y009900599+00401-00201999999ADDMA1102901999999REMMET053METAR ZSSS 151930Z 35003MPS CAVOK 04/M02 Q1029 NOSIG=
0080583670999992024021520004+31198+121336FM-15+000399999V0203501N003019999999Y009900599+00401-00201999999ADDMA1102901999999REMMET053METAR ZSSS 152000Z 35003MPS CAVOK 04/M02 Q1029 NOSIG=
0080583670999992024021520304+31198+121336FM-15+000399999V0203401N003019999999Y009900599+00301-00201999999ADDMA1102901999999REMMET053METAR ZSSS 152030Z 34003MPS CAVOK 03/M02 Q1029 NOSIG=
0080583670999992024021521004+31198+121336FM-15+000399999V0203401N003019999999Y009900599+00301-00201999999ADDMA1102801999999REMMET053METAR ZSSS 152100Z 34003MPS CAVOK 03/M02 Q1028 NOSIG=
0080583670999992024021521304+31198+121336FM-15+000399999V0203301N002019999999Y009900599+00201-00201999999ADDMA1102801999999REMMET053METAR ZSSS 152130Z 33002MPS CAVOK 02/M02 Q1028 NOSIG=
0080583670999992024021522004+31198+121336FM-15+000399999V0203501N003019999999Y009900599+00301-00201999999ADDMA1102801999999REMMET053METAR ZSSS 152200Z 35003MPS CAVOK 03/M02 Q1028 NOSIG=
0080583670999992024021522304+31198+121336FM-15+000399999V0200101N002019999999Y009900599+00301-00201999999ADDMA1102801999999REMMET053METAR ZSSS 152230Z 01002MPS CAVOK 03/M02 Q1028 NOSIG=
0080583670999992024021523004+31198+121336FM-15+000399999V0200201N002019999999Y009900599+00301-00201999999ADDMA1102801999999REMMET053METAR ZSSS 152300Z 02002MPS CAVOK 03/M02 Q1028 NOSIG=
0080583670999992024021523304+31198+121336FM-15+000399999V0200201N003019999999Y009900599+00301-00201999999ADDMA1102901999999REMMET053METAR ZSSS 152330Z 02003MPS CAVOK 03/M02 Q1029 NOSIG=
0088583670999992024021600004+31198+121336FM-15+000399999V0200101V003019999999Y009900599+00501-00201999999ADDMA1102901999999REMMET061METAR ZSSS 160000Z 01003MPS 340V040 CAVOK 05/M02 Q1029 NOSIG=
0088583670999992024021600304+31198+121336FM-15+000399999V0200101V003019999999Y009900599+00501-00201999999ADDMA1102901999999REMMET061METAR ZSSS 160030Z 01003MPS 340V040 CAVOK 05/M02 Q1029 NOSIG=
0088583670999992024021601004+31198+121336FM-15+000399999V0200201V003019999999Y009900599+00501-00201999999ADDMA1102901999999REMMET061METAR ZSSS 160100Z 02003MPS 300V070 CAVOK 05/M02 Q1029 NOSIG=
0080583670999992024021601304+31198+121336FM-15+000399999V0209999V001019999999Y009900599+00601-00201999999ADDMA1102901999999REMMET053METAR ZSSS 160130Z VRB01MPS CAVOK 06/M02 Q1029 NOSIG=
0080583670999992024021602004+31198+121336FM-15+000399999V0209999V001019999999Y009900599+00701-00201999999ADDMA1102901999999REMMET053METAR ZSSS 160200Z VRB01MPS CAVOK 07/M02 Q1029 NOSIG=
0088583670999992024021602304+31198+121336FM-15+000399999V0203001V002019999999Y009900599+00801-00301999999ADDMA1102801999999REMMET061METAR ZSSS 160230Z 30002MPS 260V340 CAVOK 08/M03 Q1028 NOSIG=
0088583670999992024021603004+31198+121336FM-15+000399999V0203201V002019999999Y009900599+00901-00301999999ADDMA1102801999999REMMET061METAR ZSSS 160300Z 32002MPS 250V030 CAVOK 09/M03 Q1028 NOSIG=
0080583670999992024021603304+31198+121336FM-15+000399999V0209999V002019999999Y009900599+00901-00301999999ADDMA1102701999999REMMET053METAR ZSSS 160330Z VRB02MPS CAVOK 09/M03 Q1027 NOSIG=
0080583670999992024021604004+31198+121336FM-15+000399999V0209999V001019999999Y009900599+00901-00301999999ADDMA1102701999999REMMET053METAR ZSSS 160400Z VRB01MPS CAVOK 09/M03 Q1027 NOSIG=
0088583670999992024021604304+31198+121336FM-15+000399999V0200301V002019999999Y009900599+00901-00501999999ADDMA1102601999999REMMET061METAR ZSSS 160430Z 03002MPS 330V080 CAVOK 09/M05 Q1026 NOSIG=
0088583670999992024021605004+31198+121336FM-15+000399999V0202401V002019999999Y009900599+01001-00401999999ADDMA1102501999999REMMET061METAR ZSSS 160500Z 24002MPS 170V320 CAVOK 10/M04 Q1025 NOSIG=
0080583670999992024021605304+31198+121336FM-15+000399999V0209999V002019999999Y009900599+01201-00301999999ADDMA1102501999999REMMET053METAR ZSSS 160530Z VRB02MPS CAVOK 12/M03 Q1025 NOSIG=
0080583670999992024021606004+31198+121336FM-15+000399999V0209999V002019999999Y009900599+01101-00401999999ADDMA1102401999999REMMET053METAR ZSSS 160600Z VRB02MPS CAVOK 11/M04 Q1024 NOSIG=
0080583670999992024021606304+31198+121336FM-15+000399999V0209999V002019999999Y009900599+01101-00401999999ADDMA1102401999999REMMET053METAR ZSSS 160630Z VRB02MPS CAVOK 11/M04 Q1024 NOSIG=
0088583670999992024021607004+31198+121336FM-15+000399999V0201401V002019999999Y009900599+01201-00201999999ADDMA1102301999999REMMET061METAR ZSSS 160700Z 14002MPS 060V230 CAVOK 12/M02 Q1023 NOSIG=
0088583670999992024021607304+31198+121336FM-15+000399999V0201801V003019999999Y009900599+01201-00301999999ADDMA1102301999999REMMET061METAR ZSSS 160730Z 18003MPS 130V250 CAVOK 12/M03 Q1023 NOSIG=
0088583670999992024021608004+31198+121336FM-15+000399999V0201301V002019999999Y009900599+01101-00201999999ADDMA1102301999999REMMET061METAR ZSSS 160800Z 13002MPS 050V210 CAVOK 11/M02 Q1023 NOSIG=
0080583670999992024021608304+31198+121336FM-15+000399999V0201801N003019999999Y009900599+01101-00301999999ADDMA1102301999999REMMET053METAR ZSSS 160830Z 18003MPS CAVOK 11/M03 Q1023 NOSIG=
0080583670999992024021609004+31198+121336FM-15+000399999V0201701N005019999999Y009900599+01001+00001999999ADDMA1102301999999REMMET053METAR ZSSS 160900Z 17005MPS CAVOK 10/M00 Q1023 NOSIG=
0080583670999992024021609304+31198+121336FM-15+000399999V0201501N005019999999Y009900599+00901+00001999999ADDMA1102301999999REMMET053METAR ZSSS 160930Z 15005MPS CAVOK 09/M00 Q1023 NOSIG=
0080583670999992024021610004+31198+121336FM-15+000399999V0201501N005019999999Y009900599+00801+00001999999ADDMA1102301999999REMMET053METAR ZSSS 161000Z 15005MPS CAVOK 08/M00 Q1023 NOSIG=
0080583670999992024021610304+31198+121336FM-15+000399999V0201501N006019999999Y009900599+00701+00001999999ADDMA1102301999999REMMET053METAR ZSSS 161030Z 15006MPS CAVOK 07/M00 Q1023 NOSIG=
0079583670999992024021611004+31198+121336FM-15+000399999V0201601N005019999999Y009900599+00601+00001999999ADDMA1102301999999REMMET052METAR ZSSS 161100Z 16005MPS CAVOK 06/00 Q1023 NOSIG=
0079583670999992024021611304+31198+121336FM-15+000399999V0201601N005019999999Y009900599+00601+00001999999ADDMA1102301999999REMMET052METAR ZSSS 161130Z 16005MPS CAVOK 06/00 Q1023 NOSIG=
0080583670999992024021612004+31198+121336FM-15+000399999V0201501N005019999999Y009900599+00601+00001999999ADDMA1102301999999REMMET053METAR ZSSS 161200Z 15005MPS CAVOK 06/M00 Q1023 NOSIG=
0088583670999992024021612304+31198+121336FM-15+000399999V0201401V004019999999Y009900599+00501+00001999999ADDMA1102301999999REMMET061METAR ZSSS 161230Z 14004MPS 110V170 CAVOK 05/M00 Q1023 NOSIG=
0080583670999992024021613004+31198+121336FM-15+000399999V0201501N004019999999Y009900599+00501+00001999999ADDMA1102301999999REMMET053METAR ZSSS 161300Z 15004MPS CAVOK 05/M00 Q1023 NOSIG=
0080583670999992024021613304+31198+121336FM-15+000399999V0201301N004019999999Y009900599+00501+00001999999ADDMA1102301999999REMMET053METAR ZSSS 161330Z 13004MPS CAVOK 05/M00 Q1023 NOSIG=
0088583670999992024021614004+31198+121336FM-15+000399999V0201401V004019999999Y009900599+00501+00001999999ADDMA1102301999999REMMET061METAR ZSSS 161400Z 14004MPS 110V170 CAVOK 05/M00 Q1023 NOSIG=
0088583670999992024021614304+31198+121336FM-15+000399999V0201401V004019999999Y009900599+00501+00001999999ADDMA1102201999999REMMET061METAR ZSSS 161430Z 14004MPS 110V170 CAVOK 05/M00 Q1022 NOSIG=
0087583670999992024021615004+31198+121336FM-15+000399999V0201401V003019999999Y009900599+00501+00101999999ADDMA1102201999999REMMET060METAR ZSSS 161500Z 14003MPS 110V170 CAVOK 05/01 Q1022 NOSIG=
0079583670999992024021615304+31198+121336FM-15+000399999V0201501N004019999999Y009900599+00501+00101999999ADDMA1102201999999REMMET052METAR ZSSS 161530Z 15004MPS CAVOK 05/01 Q1022 NOSIG=
0079583670999992024021616004+31198+121336FM-15+000399999V0201501N004019999999Y009900599+00501+00101999999ADDMA1102201999999REMMET052METAR ZSSS 161600Z 15004MPS CAVOK 05/01 Q1022 NOSIG=
0079583670999992024021616304+31198+121336FM-15+000399999V0201501N003019999999Y009900599+00501+00101999999ADDMA1102101999999REMMET052METAR ZSSS 161630Z 15003MPS CAVOK 05/01 Q1021 NOSIG=
0079583670999992024021617004+31198+121336FM-15+000399999V0201401N003019999999Y009900599+00501+00101999999ADDMA1102101999999REMMET052METAR ZSSS 161700Z 14003MPS CAVOK 05/01 Q1021 NOSIG=
0079583670999992024021617304+31198+121336FM-15+000399999V0201401N003019999999Y009900599+00501+00101999999ADDMA1102101999999REMMET052METAR ZSSS 161730Z 14003MPS CAVOK 05/01 Q1021 NOSIG=
0079583670999992024021618004+31198+121336FM-15+000399999V0201501N003019999999Y009900599+00501+00101999999ADDMA1102001999999REMMET052METAR ZSSS 161800Z 15003MPS CAVOK 05/01 Q1020 NOSIG=
0079583670999992024021618304+31198+121336FM-15+000399999V0201501N004019999999Y009900599+00501+00101999999ADDMA1102001999999REMMET052METAR ZSSS 161830Z 15004MPS CAVOK 05/01 Q1020 NOSIG=
0079583670999992024021619004+31198+121336FM-15+000399999V0201501N002019999999Y009900599+00501+00201999999ADDMA1102001999999REMMET052METAR ZSSS 161900Z 15002MPS CAVOK 05/02 Q1020 NOSIG=
0079583670999992024021619304+31198+121336FM-15+000399999V0201501N003019999999Y009900599+00501+00201999999ADDMA1101901999999REMMET052METAR ZSSS 161930Z 15003MPS CAVOK 05/02 Q1019 NOSIG=
0079583670999992024021620004+31198+121336FM-15+000399999V0201501N003019999999Y009900599+00501+00201999999ADDMA1101901999999REMMET052METAR ZSSS 162000Z 15003MPS CAVOK 05/02 Q1019 NOSIG=
0079583670999992024021620304+31198+121336FM-15+000399999V0201401N002019999999Y009900599+00501+00201999999ADDMA1101901999999REMMET052METAR ZSSS 162030Z 14002MPS CAVOK 05/02 Q1019 NOSIG=
0079583670999992024021621004+31198+121336FM-15+000399999V0201501N003019999999Y009900599+00501+00201999999ADDMA1101901999999REMMET052METAR ZSSS 162100Z 15003MPS CAVOK 05/02 Q1019 NOSIG=
0079583670999992024021621304+31198+121336FM-15+000399999V0201401N004019999999Y009900599+00601+00301999999ADDMA1101901999999REMMET052METAR ZSSS 162130Z 14004MPS CAVOK 06/03 Q1019 NOSIG=
0079583670999992024021622004+31198+121336FM-15+000399999V0201401N003019999999Y009900599+00601+00301999999ADDMA1101901999999REMMET052METAR ZSSS 162200Z 14003MPS CAVOK 06/03 Q1019 NOSIG=
0079583670999992024021622304+31198+121336FM-15+000399999V0201401N003019999999Y009900599+00601+00301999999ADDMA1101901999999REMMET052METAR ZSSS 162230Z 14003MPS CAVOK 06/03 Q1019 NOSIG=
0079583670999992024021623004+31198+121336FM-15+000399999V0201501N003019999999Y009900599+00601+00301999999ADDMA1102001999999REMMET052METAR ZSSS 162300Z 15003MPS CAVOK 06/03 Q1020 NOSIG=
0079583670999992024021623304+31198+121336FM-15+000399999V0201501N004019999999Y009900599+00701+00301999999ADDMA1102001999999REMMET052METAR ZSSS 162330Z 15004MPS CAVOK 07/03 Q1020 NOSIG=
0079583670999992024021700004+31198+121336FM-15+000399999V0201501N005019999999Y009900599+00701+00401999999ADDMA1102001999999REMMET052METAR ZSSS 170000Z 15005MPS CAVOK 07/04 Q1020 NOSIG=
0079583670999992024021700304+31198+121336FM-15+000399999V0201501N005019999999Y009900599+00901+00401999999ADDMA1102001999999REMMET052METAR ZSSS 170030Z 15005MPS CAVOK 09/04 Q1020 NOSIG=
0079583670999992024021701004+31198+121336FM-15+000399999V0201501N005019999999Y009900599+00901+00401999999ADDMA1102001999999REMMET052METAR ZSSS 170100Z 15005MPS CAVOK 09/04 Q1020 NOSIG=
0079583670999992024021701304+31198+121336FM-15+000399999V0201501N004019999999Y009900599+01001+00401999999ADDMA1102001999999REMMET052METAR ZSSS 170130Z 15004MPS CAVOK 10/04 Q1020 NOSIG=
0079583670999992024021702004+31198+121336FM-15+000399999V0201301N005019999999Y009900599+01101+00401999999ADDMA1101901999999REMMET052METAR ZSSS 170200Z 13005MPS CAVOK 11/04 Q1019 NOSIG=
0087583670999992024021702304+31198+121336FM-15+000399999V0201401V004019999999Y009900599+01201+00501999999ADDMA1101901999999REMMET060METAR ZSSS 170230Z 14004MPS 100V180 CAVOK 12/05 Q1019 NOSIG=
0079583670999992024021703004+31198+121336FM-15+000399999V0201501N005019999999Y009900599+01301+00501999999ADDMA1101801999999REMMET052METAR ZSSS 170300Z 15005MPS CAVOK 13/05 Q1018 NOSIG=
0087583670999992024021703304+31198+121336FM-15+000399999V0201501V005019999999Y009900599+01301+00501999999ADDMA1101801999999REMMET060METAR ZSSS 170330Z 15005MPS 110V190 CAVOK 13/05 Q1018 NOSIG=
0087583670999992024021704004+31198+121336FM-15+000399999V0201701V004019999999Y009900599+01401+00501999999ADDMA1101801999999REMMET060METAR ZSSS 170400Z 17004MPS 110V190 CAVOK 14/05 Q1018 NOSIG=
0087583670999992024021704304+31198+121336FM-15+000399999V0201501V004019999999Y009900599+01401+00501999999ADDMA1101701999999REMMET060METAR ZSSS 170430Z 15004MPS 120V190 CAVOK 14/05 Q1017 NOSIG=
0079583670999992024021705004+31198+121336FM-15+000399999V0201601N005019999999Y009900599+01501+00601999999ADDMA1101601999999REMMET052METAR ZSSS 170500Z 16005MPS CAVOK 15/06 Q1016 NOSIG=
0087583670999992024021705304+31198+121336FM-15+000399999V0201401V004019999999Y009900599+01501+00501999999ADDMA1101601999999REMMET060METAR ZSSS 170530Z 14004MPS 120V180 CAVOK 15/05 Q1016 NOSIG=
0087583670999992024021706004+31198+121336FM-15+000399999V0201401V005019999999Y009900599+01501+00601999999ADDMA1101501999999REMMET060METAR ZSSS 170600Z 14005MPS 100V180 CAVOK 15/06 Q1015 NOSIG=
0079583670999992024021706304+31198+121336FM-15+000399999V0201501N005019999999Y009900599+01601+00601999999ADDMA1101501999999REMMET052METAR ZSSS 170630Z 15005MPS CAVOK 16/06 Q1015 NOSIG=
0079583670999992024021707004+31198+121336FM-15+000399999V0201501N005019999999Y009900599+01601+00601999999ADDMA1101501999999REMMET052METAR ZSSS 170700Z 15005MPS CAVOK 16/06 Q1015 NOSIG=
0079583670999992024021707304+31198+121336FM-15+000399999V0201401N005019999999Y009900599+01601+00601999999ADDMA1101501999999REMMET052METAR ZSSS 170730Z 14005MPS CAVOK 16/06 Q1015 NOSIG=
0079583670999992024021708004+31198+121336FM-15+000399999V0201401N005019999999Y009900599+01601+00601999999ADDMA1101501999999REMMET052METAR ZSSS 170800Z 14005MPS CAVOK 16/06 Q1015 NOSIG=
0079583670999992024021708304+31198+121336FM-15+000399999V0201501N005019999999Y009900599+01501+00701999999ADDMA1101501999999REMMET052METAR ZSSS 170830Z 15005MPS CAVOK 15/07 Q1015 NOSIG=
0079583670999992024021709004+31198+121336FM-15+000399999V0201501N005019999999Y009900599+01401+00701999999ADDMA1101501999999REMMET052METAR ZSSS 170900Z 15005MPS CAVOK 14/07 Q1015 NOSIG=
0079583670999992024021709304+31198+121336FM-15+000399999V0201501N005019999999Y009900599+01401+00701999999ADDMA1101501999999REMMET052METAR ZSSS 170930Z 15005MPS CAVOK 14/07 Q1015 NOSIG=
0079583670999992024021710004+31198+121336FM-15+000399999V0201401N004019999999Y009900599+01401+00701999999ADDMA1101501999999REMMET052METAR ZSSS 171000Z 14004MPS CAVOK 14/07 Q1015 NOSIG=
0087583670999992024021710304+31198+121336FM-15+000399999V0201401V003019999999Y009900599+01301+00701999999ADDMA1101501999999REMMET060METAR ZSSS 171030Z 14003MPS 110V170 CAVOK 13/07 Q1015 NOSIG=
0079583670999992024021711004+31198+121336FM-15+000399999V0201401N004019999999Y009900599+01301+00801999999ADDMA1101501999999REMMET052METAR ZSSS 171100Z 14004MPS CAVOK 13/08 Q1015 NOSIG=
0079583670999992024021711304+31198+121336FM-15+000399999V0201501N004019999999Y009900599+01301+00801999999ADDMA1101501999999REMMET052METAR ZSSS 171130Z 15004MPS CAVOK 13/08 Q1015 NOSIG=
0087583670999992024021712004+31198+121336FM-15+000399999V0201501V004019999999Y009900599+01301+00801999999ADDMA1101501999999REMMET060METAR ZSSS 171200Z 15004MPS 120V180 CAVOK 13/08 Q1015 NOSIG=
0079583670999992024021712304+31198+121336FM-15+000399999V0201501N005019999999Y009900599+01301+00901999999ADDMA1101501999999REMMET052METAR ZSSS 171230Z 15005MPS CAVOK 13/09 Q1015 NOSIG=
0079583670999992024021713004+31198+121336FM-15+000399999V0201501N006019999999Y009900599+01301+00901999999ADDMA1101501999999REMMET052METAR ZSSS 171300Z 15006MPS CAVOK 13/09 Q1015 NOSIG=
0079583670999992024021713304+31198+121336FM-15+000399999V0201501N006019999999Y009900599+01301+00901999999ADDMA1101501999999REMMET052METAR ZSSS 171330Z 15006MPS CAVOK 13/09 Q1015 NOSIG=
0079583670999992024021714004+31198+121336FM-15+000399999V0201601N005019999999Y009900599+01301+00901999999ADDMA1101501999999REMMET052METAR ZSSS 171400Z 16005MPS CAVOK 13/09 Q1015 NOSIG=
0079583670999992024021714304+31198+121336FM-15+000399999V0201501N005019999999Y009900599+01301+01001999999ADDMA1101501999999REMMET052METAR ZSSS 171430Z 15005MPS CAVOK 13/10 Q1015 NOSIG=
0079583670999992024021715004+31198+121336FM-15+000399999V0201501N005019999999Y009900599+01301+01001999999ADDMA1101501999999REMMET052METAR ZSSS 171500Z 15005MPS CAVOK 13/10 Q1015 NOSIG=
0079583670999992024021715304+31198+121336FM-15+000399999V0201501N005019999999Y009900599+01301+01001999999ADDMA1101501999999REMMET052METAR ZSSS 171530Z 15005MPS CAVOK 13/10 Q1015 NOSIG=
0079583670999992024021716004+31198+121336FM-15+000399999V0201601N005019999999Y009900599+01301+01001999999ADDMA1101501999999REMMET052METAR ZSSS 171600Z 16005MPS CAVOK 13/10 Q1015 NOSIG=
0079583670999992024021716304+31198+121336FM-15+000399999V0201601N005019999999Y009900599+01301+01101999999ADDMA1101401999999REMMET052METAR ZSSS 171630Z 16005MPS CAVOK 13/11 Q1014 NOSIG=
0079583670999992024021717004+31198+121336FM-15+000399999V0201501N005019999999Y009900599+01401+01101999999ADDMA1101401999999REMMET052METAR ZSSS 171700Z 15005MPS CAVOK 14/11 Q1014 NOSIG=
0079583670999992024021717304+31198+121336FM-15+000399999V0201501N005019999999Y009900599+01301+01101999999ADDMA1101401999999REMMET052METAR ZSSS 171730Z 15005MPS CAVOK 13/11 Q1014 NOSIG=
0079583670999992024021718004+31198+121336FM-15+000399999V0201501N004019999999Y009900599+01301+01101999999ADDMA1101401999999REMMET052METAR ZSSS 171800Z 15004MPS CAVOK 13/11 Q1014 NOSIG=
0079583670999992024021718304+31198+121336FM-15+000399999V0201401N004019999999Y009900599+01301+01101999999ADDMA1101401999999REMMET052METAR ZSSS 171830Z 14004MPS CAVOK 13/11 Q1014 NOSIG=
0079583670999992024021719004+31198+121336FM-15+000399999V0201401N003019999999Y009900599+01301+01101999999ADDMA1101301999999REMMET052METAR ZSSS 171900Z 14003MPS CAVOK 13/11 Q1013 NOSIG=
0079583670999992024021719304+31198+121336FM-15+000399999V0201401N003019999999Y009900599+01301+01101999999ADDMA1101301999999REMMET052METAR ZSSS 171930Z 14003MPS CAVOK 13/11 Q1013 NOSIG=
0079583670999992024021720004+31198+121336FM-15+000399999V0201601N003019999999Y009900599+01301+01101999999ADDMA1101301999999REMMET052METAR ZSSS 172000Z 16003MPS CAVOK 13/11 Q1013 NOSIG=
0079583670999992024021720304+31198+121336FM-15+000399999V0201501N003019999999Y009900599+01301+01101999999ADDMA1101301999999REMMET052METAR ZSSS 172030Z 15003MPS CAVOK 13/11 Q1013 NOSIG=
0079583670999992024021721004+31198+121336FM-15+000399999V0201501N003019999999Y009900599+01301+01101999999ADDMA1101301999999REMMET052METAR ZSSS 172100Z 15003MPS CAVOK 13/11 Q1013 NOSIG=
0079583670999992024021721304+31198+121336FM-15+000399999V0201501N004019999999Y009900599+01201+01101999999ADDMA1101301999999REMMET052METAR ZSSS 172130Z 15004MPS CAVOK 12/11 Q1013 NOSIG=
0079583670999992024021722004+31198+121336FM-15+000399999V0201501N004019999999Y009900599+01301+01201999999ADDMA1101201999999REMMET052METAR ZSSS 172200Z 15004MPS CAVOK 13/12 Q1012 NOSIG=
0079583670999992024021722304+31198+121336FM-15+000399999V0201401N003019999999Y009900599+01301+01101999999ADDMA1101201999999REMMET052METAR ZSSS 172230Z 14003MPS CAVOK 13/11 Q1012 NOSIG=
0079583670999992024021723004+31198+121336FM-15+000399999V0201601N004019999999Y009900599+01301+01201999999ADDMA1101301999999REMMET052METAR ZSSS 172300Z 16004MPS CAVOK 13/12 Q1013 NOSIG=
0079583670999992024021723304+31198+121336FM-15+000399999V0201501N004019999999Y009900599+01401+01201999999ADDMA1101201999999REMMET052METAR ZSSS 172330Z 15004MPS CAVOK 14/12 Q1012 NOSIG=
0079583670999992024021800004+31198+121336FM-15+000399999V0201601N004019999999Y009900599+01401+01201999999ADDMA1101301999999REMMET052METAR ZSSS 180000Z 16004MPS CAVOK 14/12 Q1013 NOSIG=
0079583670999992024021800304+31198+121336FM-15+000399999V0201501N004019999999Y009900599+01601+01301999999ADDMA1101301999999REMMET052METAR ZSSS 180030Z 15004MPS CAVOK 16/13 Q1013 NOSIG=
0079583670999992024021801004+31198+121336FM-15+000399999V0201501N004019999999Y009900599+01701+01301999999ADDMA1101301999999REMMET052METAR ZSSS 180100Z 15004MPS CAVOK 17/13 Q1013 NOSIG=
0079583670999992024021801304+31198+121336FM-15+000399999V0201601N004019999999Y009900599+01801+01301999999ADDMA1101201999999REMMET052METAR ZSSS 180130Z 16004MPS CAVOK 18/13 Q1012 NOSIG=
0079583670999992024021802004+31198+121336FM-15+000399999V0201601N005019999999Y009900599+01901+01301999999ADDMA1101201999999REMMET052METAR ZSSS 180200Z 16005MPS CAVOK 19/13 Q1012 NOSIG=
0079583670999992024021802304+31198+121336FM-15+000399999V0201801N005019999999Y009900599+01801+01201999999ADDMA1101201999999REMMET052METAR ZSSS 180230Z 18005MPS CAVOK 18/12 Q1012 NOSIG=
0079583670999992024021803004+31198+121336FM-15+000399999V0201701N003019999999Y009900599+01801+01301999999ADDMA1101201999999REMMET052METAR ZSSS 180300Z 17003MPS CAVOK 18/13 Q1012 NOSIG=
0079583670999992024021803304+31198+121336FM-15+000399999V0201401N003019999999Y009900599+01801+01301999999ADDMA1101101999999REMMET052METAR ZSSS 180330Z 14003MPS CAVOK 18/13 Q1011 NOSIG=
0079583670999992024021804004+31198+121336FM-15+000399999V0201501N004019999999Y009900599+01901+01301999999ADDMA1101101999999REMMET052METAR ZSSS 180400Z 15004MPS CAVOK 19/13 Q1011 NOSIG=
0079583670999992024021804304+31198+121336FM-15+000399999V0201701N005019999999Y009900599+02101+01301999999ADDMA1101001999999REMMET052METAR ZSSS 180430Z 17005MPS CAVOK 21/13 Q1010 NOSIG=
0079583670999992024021805004+31198+121336FM-15+000399999V0201701N005019999999Y009900599+02301+01301999999ADDMA1101001999999REMMET052METAR ZSSS 180500Z 17005MPS CAVOK 23/13 Q1010 NOSIG=
0087583670999992024021805304+31198+121336FM-15+000399999V0201601V004019999999Y009900599+02301+01301999999ADDMA1100901999999REMMET060METAR ZSSS 180530Z 16004MPS 130V190 CAVOK 23/13 Q1009 NOSIG=
0079583670999992024021806004+31198+121336FM-15+000399999V0201601N004019999999Y009900599+02401+01401999999ADDMA1100901999999REMMET052METAR ZSSS 180600Z 16004MPS CAVOK 24/14 Q1009 NOSIG=
0087583670999992024021806304+31198+121336FM-15+000399999V0202001V007019999999Y009900599+02501+01401999999ADDMA1100801999999REMMET060METAR ZSSS 180630Z 20007MPS 160V220 CAVOK 25/14 Q1008 NOSIG=
0079583670999992024021807004+31198+121336FM-15+000399999V0201901N006019999999Y009900599+02401+01401999999ADDMA1100801999999REMMET052METAR ZSSS 180700Z 19006MPS CAVOK 24/14 Q1008 NOSIG=
0079583670999992024021807304+31198+121336FM-15+000399999V0201801N006019999999Y009900599+02401+01401999999ADDMA1100801999999REMMET052METAR ZSSS 180730Z 18006MPS CAVOK 24/14 Q1008 NOSIG=
0079583670999992024021808004+31198+121336FM-15+000399999V0201701N006019999999Y009900599+02301+01301999999ADDMA1100801999999REMMET052METAR ZSSS 180800Z 17006MPS CAVOK 23/13 Q1008 NOSIG=
0079583670999992024021808304+31198+121336FM-15+000399999V0201601N005019999999Y009900599+02301+01301999999ADDMA1100801999999REMMET052METAR ZSSS 180830Z 16005MPS CAVOK 23/13 Q1008 NOSIG=
0079583670999992024021809004+31198+121336FM-15+000399999V0201501N004019999999Y009900599+02201+01301999999ADDMA1100801999999REMMET052METAR ZSSS 180900Z 15004MPS CAVOK 22/13 Q1008 NOSIG=
0079583670999992024021809304+31198+121336FM-15+000399999V0201501N004019999999Y009900599+02001+01301999999ADDMA1100901999999REMMET052METAR ZSSS 180930Z 15004MPS CAVOK 20/13 Q1009 NOSIG=
0079583670999992024021810004+31198+121336FM-15+000399999V0201601N004019999999Y009900599+01901+01301999999ADDMA1100801999999REMMET052METAR ZSSS 181000Z 16004MPS CAVOK 19/13 Q1008 NOSIG=
0079583670999992024021810304+31198+121336FM-15+000399999V0201601N004019999999Y009900599+01901+01301999999ADDMA1100901999999REMMET052METAR ZSSS 181030Z 16004MPS CAVOK 19/13 Q1009 NOSIG=
0079583670999992024021811004+31198+121336FM-15+000399999V0201401N003019999999Y009900599+01801+01201999999ADDMA1100901999999REMMET052METAR ZSSS 181100Z 14003MPS CAVOK 18/12 Q1009 NOSIG=
0079583670999992024021811304+31198+121336FM-15+000399999V0201501N003019999999Y009900599+01801+01201999999ADDMA1100901999999REMMET052METAR ZSSS 181130Z 15003MPS CAVOK 18/12 Q1009 NOSIG=
0079583670999992024021812004+31198+121336FM-15+000399999V0201501N002019999999Y009900599+01701+01201999999ADDMA1100901999999REMMET052METAR ZSSS 181200Z 15002MPS CAVOK 17/12 Q1009 NOSIG=
0079583670999992024021812304+31198+121336FM-15+000399999V0201701N003019999999Y009900599+01601+01201999999ADDMA1100901999999REMMET052METAR ZSSS 181230Z 17003MPS CAVOK 16/12 Q1009 NOSIG=
0079583670999992024021813004+31198+121336FM-15+000399999V0201701N005019999999Y009900599+01801+01301999999ADDMA1100901999999REMMET052METAR ZSSS 181300Z 17005MPS CAVOK 18/13 Q1009 NOSIG=
0079583670999992024021813304+31198+121336FM-15+000399999V0201801N007019999999Y009900599+01801+01201999999ADDMA1100801999999REMMET052METAR ZSSS 181330Z 18007MPS CAVOK 18/12 Q1008 NOSIG=
0087583670999992024021814004+31198+121336FM-15+000399999V0201901V003019999999Y009900599+01701+01201999999ADDMA1100901999999REMMET060METAR ZSSS 181400Z 19003MPS 170V230 CAVOK 17/12 Q1009 NOSIG=
0087583670999992024021814304+31198+121336FM-15+000399999V0201801V002019999999Y009900599+01701+01201999999ADDMA1100901999999REMMET060METAR ZSSS 181430Z 18002MPS 120V200 CAVOK 17/12 Q1009 NOSIG=
0079583670999992024021815004+31198+121336FM-15+000399999V0209999V001019999999Y009900599+01601+01201999999ADDMA1101001999999REMMET052METAR ZSSS 181500Z VRB01MPS CAVOK 16/12 Q1010 NOSIG=
0079583670999992024021815304+31198+121336FM-15+000399999V0209999V002019999999Y009900599+01701+01201999999ADDMA1101001999999REMMET052METAR ZSSS 181530Z VRB02MPS CAVOK 17/12 Q1010 NOSIG=
0100583670999992024021816004+31198+121336FM-15+000399999V0209999V001019999999Y009900599+01601+01301999999ADDMA1101101999999REMMET073METAR ZSSS 181600Z VRB01MPS CAVOK 16/13 Q1011 BECMG TL1740 26005MPS SHRA=
0087583670999992024021816304+31198+121336FM-15+000399999V0202401V002019999999Y009900599+01701+01201999999ADDMA1101101999999REMMET060METAR ZSSS 181630Z 24002MPS 210V280 CAVOK 17/12 Q1011 NOSIG=
0118583670999992024021817004+31198+121336FM-15+000399999V0202101N002012200019N009999199+01601+01301999999ADDGF100991999999999999999999MA1101101999999MW1611REMMET059METAR ZSSS 181700Z 21002MPS 9999 -RA NSC 16/13 Q1011 NOSIG=
0087583670999992024021817304+31198+121336FM-15+000399999V0202401V002019999999Y009900599+01701+01301999999ADDMA1101101999999REMMET060METAR ZSSS 181730Z 24002MPS 210V270 CAVOK 17/13 Q1011 NOSIG=
0079583670999992024021818004+31198+121336FM-15+000399999V0201801N001019999999Y009900599+01601+01301999999ADDMA1101101999999REMMET052METAR ZSSS 181800Z 18001MPS CAVOK 16/13 Q1011 NOSIG=
0079583670999992024021818304+31198+121336FM-15+000399999V0209999V001019999999Y009900599+01601+01301999999ADDMA1101101999999REMMET052METAR ZSSS 181830Z VRB01MPS CAVOK 16/13 Q1011 NOSIG=
0079583670999992024021819004+31198+121336FM-15+000399999V0209999V001019999999Y009900599+01501+01301999999ADDMA1101101999999REMMET052METAR ZSSS 181900Z VRB01MPS CAVOK 15/13 Q1011 NOSIG=
0079583670999992024021819304+31198+121336FM-15+000399999V0209999C000019999999Y009900599+01501+01301999999ADDMA1101101999999REMMET052METAR ZSSS 181930Z 00000MPS CAVOK 15/13 Q1011 NOSIG=
0079583670999992024021820004+31198+121336FM-15+000399999V0202101N001019999999Y009900599+01401+01201999999ADDMA1101101999999REMMET052METAR ZSSS 182000Z 21001MPS CAVOK 14/12 Q1011 NOSIG=
0079583670999992024021820304+31198+121336FM-15+000399999V0202001N002019999999Y009900599+01401+01201999999ADDMA1101201999999REMMET052METAR ZSSS 182030Z 20002MPS CAVOK 14/12 Q1012 NOSIG=
0079583670999992024021821004+31198+121336FM-15+000399999V0209999V001019999999Y009900599+01401+01201999999ADDMA1101201999999REMMET052METAR ZSSS 182100Z VRB01MPS CAVOK 14/12 Q1012 NOSIG=
0079583670999992024021821304+31198+121336FM-15+000399999V0201801N002019999999Y009900599+01501+01301999999ADDMA1101201999999REMMET052METAR ZSSS 182130Z 18002MPS CAVOK 15/13 Q1012 NOSIG=
0079583670999992024021822004+31198+121336FM-15+000399999V0201801N002019999999Y009900599+01301+01201999999ADDMA1101301999999REMMET052METAR ZSSS 182200Z 18002MPS CAVOK 13/12 Q1013 NOSIG=
0108583670999992024021822304+31198+121336FM-15+000399999V0202001N001012200019N007000199+01401+01301999999ADDGF100991999999999999999999MA1101301999999REMMET055METAR ZSSS 182230Z 20001MPS 7000 NSC 14/13 Q1013 NOSIG=
0108583670999992024021823004+31198+121336FM-15+000399999V0201901N002012200019N007000199+01401+01401999999ADDGF100991999999999999999999MA1101301999999REMMET055METAR ZSSS 182300Z 19002MPS 7000 NSC 14/14 Q1013 NOSIG=
0108583670999992024021823304+31198+121336FM-15+000399999V0201901N002012200019N008000199+01501+01401999999ADDGF100991999999999999999999MA1101401999999REMMET055METAR ZSSS 182330Z 19002MPS 8000 NSC 15/14 Q1014 NOSIG=
0079583670999992024021900004+31198+121336FM-15+000399999V0209999V001019999999Y009900599+01701+01501999999ADDMA1101401999999REMMET052METAR ZSSS 190000Z VRB01MPS CAVOK 17/15 Q1014 NOSIG=
0087583670999992024021900304+31198+121336FM-15+000399999V0203301V002019999999Y009900599+02001+01601999999ADDMA1101501999999REMMET060METAR ZSSS 190030Z 33002MPS 270V080 CAVOK 20/16 Q1015 NOSIG=
0087583670999992024021901004+31198+121336FM-15+000399999V0203201V003019999999Y009900599+02101+01601999999ADDMA1101501999999REMMET060METAR ZSSS 190100Z 32003MPS 290V010 CAVOK 21/16 Q1015 NOSIG=
0079583670999992024021901304+31198+121336FM-15+000399999V0203401N005019999999Y009900599+02201+01601999999ADDMA1101501999999REMMET052METAR ZSSS 190130Z 34005MPS CAVOK 22/16 Q1015 NOSIG=
0079583670999992024021902004+31198+121336FM-15+000399999V0203301N006019999999Y009900599+02201+01701999999ADDMA1101501999999REMMET052METAR ZSSS 190200Z 33006MPS CAVOK 22/17 Q1015 NOSIG=
0149583670999992024021902304+31198+121336FM-15+000399999V0203401N00601004881CN009999199+02101+01601999999ADDGA1071+004881999GE19AGL   +99999+99999GF199999071999004881999999MA1101601999999REMMET058METAR ZSSS 190230Z 34006MPS 9999 BKN016 21/16 Q1016 NOSIG=
0149583670999992024021903004+31198+121336FM-15+000399999V0203601N00601004881CN009999199+02001+01601999999ADDGA1071+004881999GE19AGL   +99999+99999GF199999071999004881999999MA1101601999999REMMET058METAR ZSSS 190300Z 36006MPS 9999 BKN016 20/16 Q1016 NOSIG=
0149583670999992024021903304+31198+121336FM-15+000399999V0203501N005019999999N009999199+02101+01601999999ADDGA1041+007011999GE19AGL   +99999+99999GF199999041999007011999999MA1101601999999REMMET058METAR ZSSS 190330Z 35005MPS 9999 SCT023 21/16 Q1016 NOSIG=
0157583670999992024021904004+31198+121336FM-15+000399999V0203601V004019999999N009999199+02201+01601999999ADDGA1041+007011999GE19AGL   +99999+99999GF199999041999007011999999MA1101501999999REMMET066METAR ZSSS 190400Z 36004MPS 320V030 9999 SCT023 22/16 Q1015 NOSIG=
0149583670999992024021904304+31198+121336FM-15+000399999V0200101N004019999999N009999199+02301+01601999999ADDGA1041+007011999GE19AGL   +99999+99999GF199999041999007011999999MA1101401999999REMMET058METAR ZSSS 190430Z 01004MPS 9999 SCT023 23/16 Q1014 NOSIG=
0149583670999992024021905004+31198+121336FM-15+000399999V0200101N007019999999N009999199+02201+01601999999ADDGA1041+007011999GE19AGL   +99999+99999GF199999041999007011999999MA1101401999999REMMET058METAR ZSSS 190500Z 01007MPS 9999 SCT023 22/16 Q1014 NOSIG=
0158583670999992024021905304+31198+121336FM-15+000399999V0200301N007019999999N005000199+01801+01301999999ADDGA1041+007011999GE19AGL   +99999+99999GF199999041999007011999999MA1101401999999MW1101REMMET061METAR ZSSS 190530Z 03007MPS 5000 BR SCT023 18/13 Q1014 NOSIG=
0195583670999992024021906004+31198+121336FM-15+000399999V0200101N008010070119N005000199+01701+01201999999ADDGA1021+003051999GA2071+007011999GE19AGL   +99999+99999GF199999021999003051999999MA1101401999999MW1101REMMET082METAR ZSSS 190600Z 01008MPS 5000 BR FEW010 BKN023 17/12 Q1014 BECMG TL0730 BKN010=
0181583670999992024021906304+31198+121336FM-15+000399999V0200301N00701003051CN005000199+01501+01101999999ADDGA1071+003051999GA2071+007011999GE19AGL   +99999+99999GF199999071999003051999999MA1101401999999MW1101REMMET068METAR ZSSS 190630Z 03007MPS 5000 BR BKN010 BKN023 15/11 Q1014 NOSIG=
0181583670999992024021907004+31198+121336FM-15+000399999V0200501N00701003961CN005000199+01401+01001999999ADDGA1071+003961999GA2071+007011999GE19AGL   +99999+99999GF199999071999003961999999MA1101501999999MW1101REMMET068METAR ZSSS 190700Z 05007MPS 5000 BR BKN013 BKN023 14/10 Q1015 NOSIG=
0181583670999992024021907304+31198+121336FM-15+000399999V0200401N00801003961CN005000199+01301+00901999999ADDGA1071+003961999GA2071+007011999GE19AGL   +99999+99999GF199999071999003961999999MA1101601999999MW1101REMMET068METAR ZSSS 190730Z 04008MPS 5000 BR BKN013 BKN023 13/09 Q1016 NOSIG=
0181583670999992024021908004+31198+121336FM-15+000399999V0200401N00801003961CN005000199+01201+00801999999ADDGA1071+003961999GA2071+007011999GE19AGL   +99999+99999GF199999071999003961999999MA1101601999999MW1101REMMET068METAR ZSSS 190800Z 04008MPS 5000 BR BKN013 BKN023 12/08 Q1016 NOSIG=
0180583670999992024021908304+31198+121336FM-15+000399999V0200301V00801003961CN006000199+01101+00801999999ADDGA1071+003961999GA2071+007011999GE19AGL   +99999+99999GF199999071999003961999999MA1101601999999REMMET073METAR ZSSS 190830Z 03008MPS 360V060 6000 BKN013 BKN023 11/08 Q1016 NOSIG=
0186583670999992024021909004+31198+121336FM-15+000399999V0200301N00701003351CN006000199+01001+00701999999ADDGA1071+003351999GA2071+007011999GE19AGL   +99999+99999GF199999071999003351999999MA1101601999999REMMET079METAR ZSSS 190900Z 03007MPS 6000 BKN011 BKN023 10/07 Q1016 BECMG TL1010 BKN009=
0172583670999992024021909304+31198+121336FM-15+000399999V0200401N00601002741CN009999199+01001+00701999999ADDGA1071+002741999GA2071+007011999GE19AGL   +99999+99999GF199999071999002741999999MA1101701999999REMMET065METAR ZSSS 190930Z 04006MPS 9999 BKN009 BKN023 10/07 Q1017 NOSIG=
0172583670999992024021910004+31198+121336FM-15+000399999V0200301N00701002741CN009999199+00901+00701999999ADDGA1071+002741999GA2071+007011999GE19AGL   +99999+99999GF199999071999002741999999MA1101801999999REMMET065METAR ZSSS 191000Z 03007MPS 9999 BKN009 BKN023 09/07 Q1018 NOSIG=
0172583670999992024021910304+31198+121336FM-15+000399999V0200201N00801002131CN007000199+00901+00701999999ADDGA1071+002131999GA2081+010061999GE19AGL   +99999+99999GF199999071999002131999999MA1101801999999REMMET065METAR ZSSS 191030Z 02008MPS 7000 BKN007 OVC033 09/07 Q1018 NOSIG=
0172583670999992024021911004+31198+121336FM-15+000399999V0200301N00701002131CN008000199+00901+00701999999ADDGA1071+002131999GA2081+010061999GE19AGL   +99999+99999GF199999071999002131999999MA1101801999999REMMET065METAR ZSSS 191100Z 03007MPS 8000 BKN007 OVC033 09/07 Q1018 NOSIG=
0172583670999992024021911304+31198+121336FM-15+000399999V0200501N00601002131CN008000199+00901+00701999999ADDGA1071+002131999GA2081+010061999GE19AGL   +99999+99999GF199999071999002131999999MA1101901999999REMMET065METAR ZSSS 191130Z 05006MPS 8000 BKN007 OVC033 09/07 Q1019 NOSIG=
0172583670999992024021912004+31198+121336FM-15+000399999V0200301N00601002441CN008000199+00901+00701999999ADDGA1071+002441999GA2081+010061999GE19AGL   +99999+99999GF199999071999002441999999MA1101901999999REMMET065METAR ZSSS 191200Z 03006MPS 8000 BKN008 OVC033 09/07 Q1019 NOSIG=
0172583670999992024021912304+31198+121336FM-15+000399999V0200401N00801002741CN009999199+00901+00601999999ADDGA1071+002741999GA2081+010061999GE19AGL   +99999+99999GF199999071999002741999999MA1102001999999REMMET065METAR ZSSS 191230Z 04008MPS 9999 BKN009 OVC033 09/06 Q1020 NOSIG=
0186583670999992024021913004+31198+121336FM-15+000399999V0200401N00801002741CN009999199+00901+00601999999ADDGA1071+002741999GA2081+010061999GE19AGL   +99999+99999GF199999071999002741999999MA1102001999999REMMET079METAR ZSSS 191300Z 04008MPS 9999 BKN009 OVC033 09/06 Q1020 BECMG TL1430 BKN011=
0172583670999992024021913304+31198+121336FM-15+000399999V0200401N00701002741CN009999199+00901+00601999999ADDGA1071+002741999GA2081+010061999GE19AGL   +99999+99999GF199999071999002741999999MA1101901999999REMMET065METAR ZSSS 191330Z 04007MPS 9999 BKN009 OVC033 09/06 Q1019 NOSIG=
0194583670999992024021914004+31198+121336FM-15+000399999V0200401V00501003051CN009999199+00901+00601999999ADDGA1071+003051999GA2081+010061999GE19AGL   +99999+99999GF199999071999003051999999MA1102001999999REMMET087METAR ZSSS 191400Z 04005MPS 360V060 9999 BKN010 OVC033 09/06 Q1020 BECMG TL1440 BKN009=
0184583670999992024021914304+31198+121336FM-15+000399999V0200401N00601002741CN009999199+00901+00701999999ADDGA1071+002741999GA2081+010061999GE19AGL   +99999+99999GF199999071999002741999999MA1102001999999MW1801REMMET071METAR ZSSS 191430Z 04006MPS 9999 -SHRA BKN009 OVC033 09/07 Q1020 NOSIG=
0184583670999992024021915004+31198+121336FM-15+000399999V0200401N00601002741CN009999199+00901+00701999999ADDGA1071+002741999GA2081+010061999GE19AGL   +99999+99999GF199999071999002741999999MA1102001999999MW1801REMMET071METAR ZSSS 191500Z 04006MPS 9999 -SHRA BKN009 OVC033 09/07 Q1020 NOSIG=
0184583670999992024021915304+31198+121336FM-15+000399999V0200401N00401002441CN009999199+00901+00701999999ADDGA1071+002441999GA2081+010061999GE19AGL   +99999+99999GF199999071999002441999999MA1102001999999MW1801REMMET071METAR ZSSS 191530Z 04004MPS 9999 -SHRA BKN008 OVC033 09/07 Q1020 NOSIG=
0201583670999992024021916004+31198+121336FM-15+000399999V0200501V00401002441CN005000199+00901+00701999999ADDGA1071+002441999GA2081+010061999GE19AGL   +99999+99999GF199999071999002441999999MA1102001999999MW1101MW2801REMMET082METAR ZSSS 191600Z 05004MPS 020V090 5000 -SHRA BR BKN008 OVC033 09/07 Q1020 NOSIG=
0193583670999992024021916304+31198+121336FM-15+000399999V0200501N00601002441CN005000199+00901+00701999999ADDGA1071+002441999GA2081+010061999GE19AGL   +99999+99999GF199999071999002441999999MA1102001999999MW1101MW2801REMMET074METAR ZSSS 191630Z 05006MPS 5000 -SHRA BR BKN008 OVC033 09/07 Q1020 NOSIG=
0193583670999992024021917004+31198+121336FM-15+000399999V0200301N00601002441CN005000199+00901+00701999999ADDGA1071+002441999GA2081+010061999GE19AGL   +99999+99999GF199999071999002441999999MA1102001999999MW1101MW2801REMMET074METAR ZSSS 191700Z 03006MPS 5000 -SHRA BR BKN008 OVC033 09/07 Q1020 NOSIG=
0193583670999992024021917304+31198+121336FM-15+000399999V0200401N00601002441CN005000199+00801+00701999999ADDGA1071+002441999GA2081+010061999GE19AGL   +99999+99999GF199999071999002441999999MA1102001999999MW1101MW2801REMMET074METAR ZSSS 191730Z 04006MPS 5000 -SHRA BR BKN008 OVC033 08/07 Q1020 NOSIG=
0193583670999992024021918004+31198+121336FM-15+000399999V0200401N00601002441CN005000199+00801+00701999999ADDGA1071+002441999GA2081+010061999GE19AGL   +99999+99999GF199999071999002441999999MA1102001999999MW1101MW2801REMMET074METAR ZSSS 191800Z 04006MPS 5000 -SHRA BR BKN008 OVC033 08/07 Q1020 NOSIG=
0184583670999992024021918304+31198+121336FM-15+000399999V0200501N00501002441CN006000199+00801+00701999999ADDGA1071+002441999GA2081+010061999GE19AGL   +99999+99999GF199999071999002441999999MA1102001999999MW1801REMMET071METAR ZSSS 191830Z 05005MPS 6000 -SHRA BKN008 OVC033 08/07 Q1020 NOSIG=
0172583670999992024021919004+31198+121336FM-15+000399999V0200401N00501002441CN006000199+00801+00701999999ADDGA1071+002441999GA2081+010061999GE19AGL   +99999+99999GF199999071999002441999999MA1102001999999REMMET065METAR ZSSS 191900Z 04005MPS 6000 BKN008 OVC033 08/07 Q1020 NOSIG=
0172583670999992024021919304+31198+121336FM-15+000399999V0200401N00601002441CN008000199+00801+00701999999ADDGA1071+002441999GA2081+010061999GE19AGL   +99999+99999GF199999071999002441999999MA1102001999999REMMET065METAR ZSSS 191930Z 04006MPS 8000 BKN008 OVC033 08/07 Q1020 NOSIG=
0172583670999992024021920004+31198+121336FM-15+000399999V0200401N00601002441CN008000199+00801+00701999999ADDGA1071+002441999GA2081+010061999GE19AGL   +99999+99999GF199999071999002441999999MA1102001999999REMMET065METAR ZSSS 192000Z 04006MPS 8000 BKN008 OVC033 08/07 Q1020 NOSIG=
0184583670999992024021920304+31198+121336FM-15+000399999V0200501N00501002441CN008000199+00801+00701999999ADDGA1071+002441999GA2081+010061999GE19AGL   +99999+99999GF199999071999002441999999MA1101901999999MW1801REMMET071METAR ZSSS 192030Z 05005MPS 8000 -SHRA BKN008 OVC033 08/07 Q1019 NOSIG=
0172583670999992024021921004+31198+121336FM-15+000399999V0200401N00501002441CN008000199+00801+00701999999ADDGA1071+002441999GA2081+010061999GE19AGL   +99999+99999GF199999071999002441999999MA1102001999999REMMET065METAR ZSSS 192100Z 04005MPS 8000 BKN008 OVC033 08/07 Q1020 NOSIG=
0197583670999992024021921304+31198+121336FM-15+000399999V0200401N00601002441CN008000199+00801+00701999999ADDGA1071+002441999GA2021+009141091GA3071+010061999GE19AGL   +99999+99999GF199999071999002441999999MA1102001999999REMMET074METAR ZSSS 192130Z 04006MPS 8000 BKN008 FEW030CB BKN033 08/07 Q1020 NOSIG=
0186583670999992024021922004+31198+121336FM-15+000399999V0200401N00501002441CN006000199+00801+00701999999ADDGA1071+002441999GA2021+009141091GE19AGL   +99999+99999GF199999071999002441999999MA1102001999999MW1801REMMET073METAR ZSSS 192200Z 04005MPS 6000 -SHRA BKN008 FEW030CB 08/07 Q1020 NOSIG=
0194583670999992024021922304+31198+121336FM-15+000399999V0200501V00501002441CN006000199+00801+00701999999ADDGA1071+002441999GA2021+009141091GE19AGL   +99999+99999GF199999071999002441999999MA1102001999999MW1801REMMET081METAR ZSSS 192230Z 05005MPS 030V090 6000 -SHRA BKN008 FEW030CB 08/07 Q1020 NOSIG=
0228583670999992024021923004+31198+121336FM-15+000399999V0200301V00401002441CN006000199+00801+00701999999ADDGA1071+002441999GA2021+009141091GE19AGL   +99999+99999GF199999071999002441999999MA1102001999999MW1801REMMET115METAR ZSSS 192300Z 03004MPS 010V070 6000 -SHRA BKN008 FEW030CB 08/07 Q1020 BECMG TL2310 2500 +TSRA BKN004 SCT030CB=
0195583670999992024021923304+31198+121336FM-15+000399999V0200601N00501002441CN005000199+00801+00701999999ADDGA1071+002441999GA2071+009141091GE19AGL   +99999+99999GF199999071999002441999999MA1102101999999MW1101MW2971REMMET076METAR ZSSS 192330Z 06005MPS 5000 +TSRA BR BKN008 BKN030CB 08/07 Q1021 NOSIG=
0168583670999992024022000004+31198+121336FM-15+000399999V0200701N00501002441CN008000199+00801+00701999999ADDGA1071+002441999GE19AGL   +99999+99999GF199999071999002441999999MA1102001999999MW1801REMMET071METAR ZSSS 200000Z 07005MPS 8000 -SHRA BKN008 08/07 Q1020 RETSRA NOSIG=
0157583670999992024022000304+31198+121336FM-15+000399999V0200401V00301002741CN009999199+00801+00701999999ADDGA1071+002741999GE19AGL   +99999+99999GF199999071999002741999999MA1102101999999REMMET066METAR ZSSS 200030Z 04003MPS 010V080 9999 BKN009 08/07 Q1021 NOSIG=
0171583670999992024022001004+31198+121336FM-15+000399999V0200501V00401003351CN009999199+00901+00701999999ADDGA1071+003351999GE19AGL   +99999+99999GF199999071999003351999999MA1102101999999REMMET080METAR ZSSS 200100Z 05004MPS 020V080 9999 BKN011 09/07 Q1021 BECMG TL0240 BKN015=
0161583670999992024022001304+31198+121336FM-15+000399999V0200601N00301003351CN009999199+00901+00701999999ADDGA1071+003351999GE19AGL   +99999+99999GF199999071999003351999999MA1102101999999MW1801REMMET064METAR ZSSS 200130Z 06003MPS 9999 -SHRA BKN011 09/07 Q1021 NOSIG=
0157583670999992024022002004+31198+121336FM-15+000399999V0200401V00501003661CN009999199+00901+00701999999ADDGA1071+003661999GE19AGL   +99999+99999GF199999071999003661999999MA1102101999999REMMET066METAR ZSSS 200200Z 04005MPS 010V070 9999 BKN012 09/07 Q1021 NOSIG=
0149583670999992024022002304+31198+121336FM-15+000399999V0200401N00501003051CN009999199+00801+00601999999ADDGA1071+003051999GE19AGL   +99999+99999GF199999071999003051999999MA1102101999999REMMET058METAR ZSSS 200230Z 04005MPS 9999 BKN010 08/06 Q1021 NOSIG=
0163583670999992024022003004+31198+121336FM-15+000399999V0200401N00601003051CN009999199+00801+00701999999ADDGA1071+003051999GE19AGL   +99999+99999GF199999071999003051999999MA1102101999999REMMET072METAR ZSSS 200300Z 04006MPS 9999 BKN010 08/07 Q1021 BECMG TL0430 BKN009=
0149583670999992024022003304+31198+121336FM-15+000399999V0200401N00601002741CN009999199+00901+00701999999ADDGA1071+002741999GE19AGL   +99999+99999GF199999071999002741999999MA1102101999999REMMET058METAR ZSSS 200330Z 04006MPS 9999 BKN009 09/07 Q1021 NOSIG=
0163583670999992024022004004+31198+121336FM-15+000399999V0200501N00501002741CN009999199+00901+00701999999ADDGA1071+002741999GE19AGL   +99999+99999GF199999071999002741999999MA1102001999999REMMET072METAR ZSSS 200400Z 05005MPS 9999 BKN009 09/07 Q1020 BECMG TL0540 BKN010=
0157583670999992024022004304+31198+121336FM-15+000399999V0200501V00701003051CN009999199+00901+00701999999ADDGA1071+003051999GE19AGL   +99999+99999GF199999071999003051999999MA1101901999999REMMET066METAR ZSSS 200430Z 05007MPS 020V090 9999 BKN010 09/07 Q1019 NOSIG=
0157583670999992024022005004+31198+121336FM-15+000399999V0200601V00501003051CN009999199+00901+00701999999ADDGA1071+003051999GE19AGL   +99999+99999GF199999071999003051999999MA1101901999999REMMET066METAR ZSSS 200500Z 06005MPS 030V100 9999 BKN010 09/07 Q1019 NOSIG=
0149583670999992024022005304+31198+121336FM-15+000399999V0200601N00501003051CN009999199+00901+00701999999ADDGA1071+003051999GE19AGL   +99999+99999GF199999071999003051999999MA1101901999999REMMET058METAR ZSSS 200530Z 06005MPS 9999 BKN010 09/07 Q1019 NOSIG=
0149583670999992024022006004+31198+121336FM-15+000399999V0200501N00501003051CN009999199+00901+00701999999ADDGA1071+003051999GE19AGL   +99999+99999GF199999071999003051999999MA1101801999999REMMET058METAR ZSSS 200600Z 05005MPS 9999 BKN010 09/07 Q1018 NOSIG=
0159583670999992024022006304+31198+121336FM-15+000399999V0200301N00401003051CN009999199+00801+00701999999ADDGA1071+003051999GE19AGL   +99999+99999GF199999071999003051999999MA1101801999999MW1611REMMET062METAR ZSSS 200630Z 03004MPS 9999 -RA BKN010 08/07 Q1018 NOSIG=
0167583670999992024022007004+31198+121336FM-15+000399999V0200401V00501003051CN009999199+00901+00701999999ADDGA1071+003051999GE19AGL   +99999+99999GF199999071999003051999999MA1101801999999MW1611REMMET070METAR ZSSS 200700Z 04005MPS 020V080 9999 -RA BKN010 09/07 Q1018 NOSIG=
0159583670999992024022007304+31198+121336FM-15+000399999V0200501N00501003051CN009999199+00801+00701999999ADDGA1071+003051999GE19AGL   +99999+99999GF199999071999003051999999MA1101801999999MW1611REMMET062METAR ZSSS 200730Z 05005MPS 9999 -RA BKN010 08/07 Q1018 NOSIG=
0173583670999992024022008004+31198+121336FM-15+000399999V0200601N00401003051CN009999199+00801+00701999999ADDGA1071+003051999GE19AGL   +99999+99999GF199999071999003051999999MA1101801999999MW1611REMMET076METAR ZSSS 200800Z 06004MPS 9999 -RA BKN010 08/07 Q1018 BECMG TL0930 BKN009=
0159583670999992024022008304+31198+121336FM-15+000399999V0200501N00501002741CN009999199+00901+00701999999ADDGA1071+002741999GE19AGL   +99999+99999GF199999071999002741999999MA1101801999999MW1611REMMET062METAR ZSSS 200830Z 05005MPS 9999 -RA BKN009 09/07 Q1018 NOSIG=
0173583670999992024022009004+31198+121336FM-15+000399999V0200501N00601002741CN009999199+00901+00601999999ADDGA1071+002741999GE19AGL   +99999+99999GF199999071999002741999999MA1101801999999MW1611REMMET076METAR ZSSS 200900Z 05006MPS 9999 -RA BKN009 09/06 Q1018 BECMG TL0950 BKN010=
0149583670999992024022009304+31198+121336FM-15+000399999V0200501N00401003351CN009999199+00901+00601999999ADDGA1071+003351999GE19AGL   +99999+99999GF199999071999003351999999MA1101801999999REMMET058METAR ZSSS 200930Z 05004MPS 9999 BKN011 09/06 Q1018 NOSIG=
0159583670999992024022010004+31198+121336FM-15+000399999V0200501N00601003351CN009999199+00801+00601999999ADDGA1071+003351999GE19AGL   +99999+99999GF199999071999003351999999MA1101801999999MW1611REMMET062METAR ZSSS 201000Z 05006MPS 9999 -RA BKN011 08/06 Q1018 NOSIG=
0149583670999992024022010304+31198+121336FM-15+000399999V0200401N00501003051CN009999199+00801+00601999999ADDGA1071+003051999GE19AGL   +99999+99999GF199999071999003051999999MA1101801999999REMMET058METAR ZSSS 201030Z 04005MPS 9999 BKN010 08/06 Q1018 NOSIG=
0163583670999992024022011004+31198+121336FM-15+000399999V0200601N00601003051CN009999199+00801+00601999999ADDGA1071+003051999GE19AGL   +99999+99999GF199999071999003051999999MA1101801999999REMMET072METAR ZSSS 201100Z 06006MPS 9999 BKN010 08/06 Q1018 BECMG TL1240 BKN009=
0149583670999992024022011304+31198+121336FM-15+000399999V0200601N00401002741CN009999199+00801+00601999999ADDGA1071+002741999GE19AGL   +99999+99999GF199999071999002741999999MA1101801999999REMMET058METAR ZSSS 201130Z 06004MPS 9999 BKN009 08/06 Q1018 NOSIG=
0149583670999992024022012004+31198+121336FM-15+000399999V0200601N00401002741CN009999199+00801+00601999999ADDGA1071+002741999GE19AGL   +99999+99999GF199999071999002741999999MA1101901999999REMMET058METAR ZSSS 201200Z 06004MPS 9999 BKN009 08/06 Q1019 NOSIG=
0149583670999992024022012304+31198+121336FM-15+000399999V0200701N00401002741CN009999199+00801+00701999999ADDGA1071+002741999GE19AGL   +99999+99999GF199999071999002741999999MA1101801999999REMMET058METAR ZSSS 201230Z 07004MPS 9999 BKN009 08/07 Q1018 NOSIG=
0149583670999992024022013004+31198+121336FM-15+000399999V0200601N00401002741CN009999199+00801+00701999999ADDGA1071+002741999GE19AGL   +99999+99999GF199999071999002741999999MA1101801999999REMMET058METAR ZSSS 201300Z 06004MPS 9999 BKN009 08/07 Q1018 NOSIG=
0149583670999992024022013304+31198+121336FM-15+000399999V0200601N00301002441CN009999199+00801+00701999999ADDGA1071+002441999GE19AGL   +99999+99999GF199999071999002441999999MA1101801999999REMMET058METAR ZSSS 201330Z 06003MPS 9999 BKN008 08/07 Q1018 NOSIG=
0159583670999992024022014004+31198+121336FM-15+000399999V0200801N00301002441CN009999199+00801+00701999999ADDGA1071+002441999GE19AGL   +99999+99999GF199999071999002441999999MA1101801999999MW1611REMMET062METAR ZSSS 201400Z 08003MPS 9999 -RA BKN008 08/07 Q1018 NOSIG=
0159583670999992024022014304+31198+121336FM-15+000399999V0200701N00301002131CN007000199+00801+00701999999ADDGA1071+002131999GE19AGL   +99999+99999GF199999071999002131999999MA1101801999999MW1611REMMET062METAR ZSSS 201430Z 07003MPS 7000 -RA BKN007 08/07 Q1018 NOSIG=
0190583670999992024022015004+31198+121336FM-15+000399999V0200201V00301001831CN005000199+00801+00701999999ADDGA1071+001831999GE19AGL   +99999+99999GF199999071999001831999999MA1101801999999MW1101MW2611REMMET087METAR ZSSS 201500Z 02003MPS 360V060 5000 -RA BR BKN006 08/07 Q1018 BECMG TL1650 BKN004=
0168583670999992024022015304+31198+121336FM-15+000399999V0200701N00301001221CN003000199+00801+00801999999ADDGA1071+001221999GE19AGL   +99999+99999GF199999071999001221999999MA1101701999999MW1101MW2611REMMET065METAR ZSSS 201530Z 07003MPS 3000 -RA BR BKN004 08/08 Q1017 NOSIG=
0190583670999992024022016004+31198+121336FM-15+000399999V0200901V00201001221CN004000199+00801+00801999999ADDGA1071+001221999GE19AGL   +99999+99999GF199999071999001221999999MA1101601999999MW1101MW2611REMMET087METAR ZSSS 201600Z 09002MPS 060V120 4000 -RA BR BKN004 08/08 Q1016 BECMG TL1750 BKN005=
0168583670999992024022016304+31198+121336FM-15+000399999V0209999V00101001521CN005000199+00901+00801999999ADDGA1071+001521999GE19AGL   +99999+99999GF199999071999001521999999MA1101601999999MW1101MW2611REMMET065METAR ZSSS 201630Z VRB01MPS 5000 -RA BR BKN005 09/08 Q1016 NOSIG=
0187583670999992024022017004+31198+121336FM-15+000399999V0203401N00301001521CN003000199+00901+00801999999ADDGA1071+001521999GE19AGL   +99999+99999GF199999071999001521999999MA1101701999999MW1101MW2611REMMET084METAR ZSSS 201700Z 34003MPS 3000 -RA BR BKN005 09/08 Q1017 BECMG TL1740 2800 BKN004=
0168583670999992024022017304+31198+121336FM-15+000399999V0203601N00401001221CN002800199+00801+00801999999ADDGA1071+001221999GE19AGL   +99999+99999GF199999071999001221999999MA1101701999999MW1101MW2611REMMET065METAR ZSSS 201730Z 36004MPS 2800 -RA BR BKN004 08/08 Q1017 NOSIG=
0182583670999992024022018004+31198+121336FM-15+000399999V0200101N00501001221CN003500199+00801+00801999999ADDGA1071+001221999GE19AGL   +99999+99999GF199999071999001221999999MA1101701999999MW1101MW2611REMMET079METAR ZSSS 201800Z 01005MPS 3500 -RA BR BKN004 08/08 Q1017 BECMG TL1940 BKN005=
0168583670999992024022018304+31198+121336FM-15+000399999V0200101N00501001221CN004000199+00801+00701999999ADDGA1071+001221999GE19AGL   +99999+99999GF199999071999001221999999MA1101601999999MW1101MW2611REMMET065METAR ZSSS 201830Z 01005MPS 4000 -RA BR BKN004 08/07 Q1016 NOSIG=
0182583670999992024022019004+31198+121336FM-15+000399999V0200201N00501001521CN005000199+00801+00801999999ADDGA1071+001521999GE19AGL   +99999+99999GF199999071999001521999999MA1101601999999MW1101MW2611REMMET079METAR ZSSS 201900Z 02005MPS 5000 -RA BR BKN005 08/08 Q1016 BECMG TL1950 BKN004=
0168583670999992024022019304+31198+121336FM-15+000399999V0203601N00301001221CN005000199+00801+00801999999ADDGA1071+001221999GE19AGL   +99999+99999GF199999071999001221999999MA1101601999999MW1101MW2611REMMET065METAR ZSSS 201930Z 36003MPS 5000 -RA BR BKN004 08/08 Q1016 NOSIG=
0181583670999992024022020004+31198+121336FM-15+000399999V0200201V00401001221CN006000199+00801+00801999999ADDGA1071+001221999GE19AGL   +99999+99999GF199999071999001221999999MA1101601999999MW1611REMMET084METAR ZSSS 202000Z 02004MPS 330V050 6000 -RA BKN004 08/08 Q1016 BECMG TL2050 BKN005=
0168583670999992024022020304+31198+121336FM-15+000399999V0203401N00601001221CN005000199+00801+00801999999ADDGA1071+001221999GE19AGL   +99999+99999GF199999071999001221999999MA1101701999999MW1101MW2611REMMET065METAR ZSSS 202030Z 34006MPS 5000 -RA BR BKN004 08/08 Q1017 NOSIG=
0217583670999992024022021004+31198+121336FM-15+000399999V0200601V00501001521CN006000199+00801+00701999999ADDGA1071+001521999GA2021+009141091GE19AGL   +99999+99999GF199999071999001521999999MA1101501999999MW1951OC101001REMMET096METAR ZSSS 202100Z 06005G10MPS 020V130 6000 -TSRA BKN005 FEW030CB 08/07 Q1015 BECMG TL2150 TSRA=
0193583670999992024022021304+31198+121336FM-15+000399999V0203601N00501001831CN008000199+00801+00701999999ADDGA1071+001831999GA2021+009141091GE19AGL   +99999+99999GF199999071999001831999999MA1101601999999MW1951REMMET080METAR ZSSS 202130Z 36005MPS 8000 -TSRA BKN006 FEW030CB 08/07 Q1016 RESHRA NOSIG=
0194583670999992024022022004+31198+121336FM-15+000399999V0203601N00401002441CN008000199+00801+00701999999ADDGA1071+002441999GE19AGL   +99999+99999GF199999071999002441999999MA1101701999999MW1801REMMET097METAR ZSSS 202200Z 36004MPS 8000 -SHRA BKN008 08/07 Q1017 RETS BECMG TL2330 TSRA BKN010 SCT030CB=
0161583670999992024022022304+31198+121336FM-15+000399999V0200101N00501002441CN009999199+00801+00701999999ADDGA1071+002441999GE19AGL   +99999+99999GF199999071999002441999999MA1101801999999MW1801REMMET064METAR ZSSS 202230Z 01005MPS 9999 -SHRA BKN008 08/07 Q1018 NOSIG=
0173583670999992024022023004+31198+121336FM-15+000399999V0200101N00701002441CN009999199+00701+00601999999ADDGA1071+002441999GE19AGL   +99999+99999GF199999071999002441999999MA1101801999999MW1801REMMET076METAR ZSSS 202300Z 01007MPS 9999 -SHRA BKN008 07/06 Q1018 BECMG TL2350 SHRA=
0161583670999992024022023304+31198+121336FM-15+000399999V0203601N00601002441CN009999199+00701+00601999999ADDGA1071+002441999GE19AGL   +99999+99999GF199999071999002441999999MA1101801999999MW1801REMMET064METAR ZSSS 202330Z 36006MPS 9999 -SHRA BKN008 07/06 Q1018 NOSIG=
0175583670999992024022100004+31198+121336FM-15+000399999V0203601N00701002441CN009999199+00701+00501999999ADDGA1071+002441999GE19AGL   +99999+99999GF199999071999002441999999MA1101901999999MW1801REMMET078METAR ZSSS 210000Z 36007MPS 9999 -SHRA BKN008 07/05 Q1019 BECMG TL0140 BKN010=
0161583670999992024022100304+31198+121336FM-15+000399999V0203601N00701003051CN009999199+00701+00501999999ADDGA1071+003051999GE19AGL   +99999+99999GF199999071999003051999999MA1101901999999MW1801REMMET064METAR ZSSS 210030Z 36007MPS 9999 -SHRA BKN010 07/05 Q1019 NOSIG=
0175583670999992024022101004+31198+121336FM-15+000399999V0200101N00601003051CN009999199+00601+00501999999ADDGA1071+003051999GE19AGL   +99999+99999GF199999071999003051999999MA1102001999999MW1801REMMET078METAR ZSSS 210100Z 01006MPS 9999 -SHRA BKN010 06/05 Q1020 BECMG TL0140 BKN009=
0161583670999992024022101304+31198+121336FM-15+000399999V0203501N00701002741CN009999199+00601+00501999999ADDGA1071+002741999GE19AGL   +99999+99999GF199999071999002741999999MA1102001999999MW1801REMMET064METAR ZSSS 210130Z 35007MPS 9999 -SHRA BKN009 06/05 Q1020 NOSIG=
0163583670999992024022102004+31198+121336FM-15+000399999V0203601N00601002741CN009999199+00601+00501999999ADDGA1071+002741999GE19AGL   +99999+99999GF199999071999002741999999MA1102001999999REMMET072METAR ZSSS 210200Z 36006MPS 9999 BKN009 06/05 Q1020 BECMG TL0320 BKN010=
0149583670999992024022102304+31198+121336FM-15+000399999V0203601N00801003051CN009999199+00601+00401999999ADDGA1071+003051999GE19AGL   +99999+99999GF199999071999003051999999MA1101901999999REMMET058METAR ZSSS 210230Z 36008MPS 9999 BKN010 06/04 Q1019 NOSIG=
0149583670999992024022103004+31198+121336FM-15+000399999V0203601N00801003051CN009999199+00501+00301999999ADDGA1071+003051999GE19AGL   +99999+99999GF199999071999003051999999MA1101901999999REMMET058METAR ZSSS 210300Z 36008MPS 9999 BKN010 05/03 Q1019 NOSIG=
0149583670999992024022103304+31198+121336FM-15+000399999V0203601N00801003351CN009999199+00501+00301999999ADDGA1071+003351999GE19AGL   +99999+99999GF199999071999003351999999MA1101901999999REMMET058METAR ZSSS 210330Z 36008MPS 9999 BKN011 05/03 Q1019 NOSIG=
0204583670999992024022104004+31198+121336FM-15+000399999V0203401N00601003351CN008000199+00501+00301999999ADDGA1071+003351999GA2021+010061091GE19AGL   +99999+99999GF199999071999003351999999MA1102001999999MW1951REMMET091METAR ZSSS 210400Z 34006MPS 8000 -TSRA BKN011 FEW033CB 05/03 Q1020 RESHRA BECMG TL0540 NSW=
0191583670999992024022104304+31198+121336FM-15+000399999V0200101N00501003351CN009999199+00501+00301999999ADDGA1071+003351999GA2021+010061091GE19AGL   +99999+99999GF199999071999003351999999MA1101901999999MW1801REMMET078METAR ZSSS 210430Z 01005MPS 9999 -SHRA BKN011 FEW033CB 05/03 Q1019 RETS NOSIG=
0186583670999992024022105004+31198+121336FM-15+000399999V0203601N00601003351CN008000199+00501+00301999999ADDGA1071+003351999GA2021+010061091GE19AGL   +99999+99999GF199999071999003351999999MA1101901999999MW1801REMMET073METAR ZSSS 210500Z 36006MPS 8000 -SHRA BKN011 FEW033CB 05/03 Q1019 NOSIG=
0186583670999992024022105304+31198+121336FM-15+000399999V0203401N00701003351CN009999199+00501+00301999999ADDGA1071+003351999GA2021+010061091GE19AGL   +99999+99999GF199999071999003351999999MA1101901999999MW1801REMMET073METAR ZSSS 210530Z 34007MPS 9999 -SHRA BKN011 FEW033CB 05/03 Q1019 NOSIG=
0206583670999992024022106004+31198+121336FM-15+000399999V0203401V00501003351CN005000199+00501+00301999999ADDGA1071+003351999GA2041+010061091GE19AGL   +99999+99999GF199999071999003351999999MA1101901999999MW1811REMMET093METAR ZSSS 210600Z 34005MPS 290V360 5000 SHRA BKN011 SCT033CB 05/03 Q1019 BECMG TL0630 -SHRA=
0193583670999992024022106304+31198+121336FM-15+000399999V0203501N00701003351CN009999199+00501+00301999999ADDGA1071+003351999GA2021+010061091GE19AGL   +99999+99999GF199999071999003351999999MA1101901999999MW1801REMMET080METAR ZSSS 210630Z 35007MPS 9999 -SHRA BKN011 FEW033CB 05/03 Q1019 RESHRA NOSIG=
0208583670999992024022107004+31198+121336FM-15+000399999V0203101V00501003351CN009999199+00501+00401999999ADDGA1071+003351999GA2021+010061091GE19AGL   +99999+99999GF199999071999003351999999MA1102001999999MW1801REMMET095METAR ZSSS 210700Z 31005MPS 260V340 9999 -SHRA BKN011 FEW033CB 05/04 Q1020 BECMG TL0750 BKN009=
0186583670999992024022107304+31198+121336FM-15+000399999V0203401N00601003351CN009999199+00501+00301999999ADDGA1071+003351999GA2021+010061091GE19AGL   +99999+99999GF199999071999003351999999MA1101901999999MW1801REMMET073METAR ZSSS 210730Z 34006MPS 9999 -SHRA BKN011 FEW033CB 05/03 Q1019 NOSIG=
0194583670999992024022108004+31198+121336FM-15+000399999V0203301V00601003351CN009999199+00401+00301999999ADDGA1071+003351999GA2021+010061091GE19AGL   +99999+99999GF199999071999003351999999MA1102001999999MW1801REMMET081METAR ZSSS 210800Z 33006MPS 290V350 9999 -SHRA BKN011 FEW033CB 04/03 Q1020 NOSIG=
0186583670999992024022108304+31198+121336FM-15+000399999V0203601N00601003351CN009999199+00401+00301999999ADDGA1071+003351999GA2021+010061091GE19AGL   +99999+99999GF199999071999003351999999MA1101901999999MW1801REMMET073METAR ZSSS 210830Z 36006MPS 9999 -SHRA BKN011 FEW033CB 04/03 Q1019 NOSIG=
0200583670999992024022109004+31198+121336FM-15+000399999V0203401N00601003351CN009999199+00401+00301999999ADDGA1071+003351999GA2021+010061091GE19AGL   +99999+99999GF199999071999003351999999MA1102101999999MW1801REMMET087METAR ZSSS 210900Z 34006MPS 9999 -SHRA BKN011 FEW033CB 04/03 Q1021 BECMG TL0940 BKN009=
0194583670999992024022109304+31198+121336FM-15+000399999V0203401V00501002741CN009999199+00401+00301999999ADDGA1071+002741999GA2021+010061091GE19AGL   +99999+99999GF199999071999002741999999MA1102101999999MW1801REMMET081METAR ZSSS 210930Z 34005MPS 310V010 9999 -SHRA BKN009 FEW033CB 04/03 Q1021 NOSIG=
0175583670999992024022110004+31198+121336FM-15+000399999V0203501N00601003351CN009999199+00401+00301999999ADDGA1071+003351999GE19AGL   +99999+99999GF199999071999003351999999MA1102201999999MW1801REMMET078METAR ZSSS 211000Z 35006MPS 9999 -SHRA BKN011 04/03 Q1022 BECMG TL1140 BKN015=
0161583670999992024022110304+31198+121336FM-15+000399999V0203401N00701003351CN009999199+00401+00301999999ADDGA1071+003351999GE19AGL   +99999+99999GF199999071999003351999999MA1102301999999MW1801REMMET064METAR ZSSS 211030Z 34007MPS 9999 -SHRA BKN011 04/03 Q1023 NOSIG=
0161583670999992024022111004+31198+121336FM-15+000399999V0203401N00701003961CN009999199+00401+00301999999ADDGA1071+003961999GE19AGL   +99999+99999GF199999071999003961999999MA1102301999999MW1801REMMET064METAR ZSSS 211100Z 34007MPS 9999 -SHRA BKN013 04/03 Q1023 NOSIG=
0161583670999992024022111304+31198+121336FM-15+000399999V0203501N00601003961CN009999199+00401+00201999999ADDGA1071+003961999GE19AGL   +99999+99999GF199999071999003961999999MA1102301999999MW1801REMMET064METAR ZSSS 211130Z 35006MPS 9999 -SHRA BKN013 04/02 Q1023 NOSIG=
0161583670999992024022112004+31198+121336FM-15+000399999V0203501N00701003961CN009999199+00401+00201999999ADDGA1071+003961999GE19AGL   +99999+99999GF199999071999003961999999MA1102201999999MW1801REMMET064METAR ZSSS 211200Z 35007MPS 9999 -SHRA BKN013 04/02 Q1022 NOSIG=
0161583670999992024022112304+31198+121336FM-15+000399999V0203301N00601003961CN009999199+00401+00201999999ADDGA1071+003961999GE19AGL   +99999+99999GF199999071999003961999999MA1102501999999MW1801REMMET064METAR ZSSS 211230Z 33006MPS 9999 -SHRA BKN013 04/02 Q1025 NOSIG=
0161583670999992024022113004+31198+121336FM-15+000399999V0203301N00601003961CN009999199+00401+00201999999ADDGA1071+003961999GE19AGL   +99999+99999GF199999071999003961999999MA1102501999999MW1801REMMET064METAR ZSSS 211300Z 33006MPS 9999 -SHRA BKN013 04/02 Q1025 NOSIG=
0161583670999992024022113304+31198+121336FM-15+000399999V0203401N00701003961CN009999199+00401+00201999999ADDGA1071+003961999GE19AGL   +99999+99999GF199999071999003961999999MA1102501999999MW1801REMMET064METAR ZSSS 211330Z 34007MPS 9999 -SHRA BKN013 04/02 Q1025 NOSIG=
0161583670999992024022114004+31198+121336FM-15+000399999V0203501N00701003961CN009999199+00401+00201999999ADDGA1071+003961999GE19AGL   +99999+99999GF199999071999003961999999MA1102501999999MW1801REMMET064METAR ZSSS 211400Z 35007MPS 9999 -SHRA BKN013 04/02 Q1025 NOSIG=
0161583670999992024022114304+31198+121336FM-15+000399999V0203301N00701003961CN009999199+00401+00201999999ADDGA1071+003961999GE19AGL   +99999+99999GF199999071999003961999999MA1102601999999MW1801REMMET064METAR ZSSS 211430Z 33007MPS 9999 -SHRA BKN013 04/02 Q1026 NOSIG=
0161583670999992024022115004+31198+121336FM-15+000399999V0203301N00601003351CN009999199+00301+00201999999ADDGA1071+003351999GE19AGL   +99999+99999GF199999071999003351999999MA1102601999999MW1801REMMET064METAR ZSSS 211500Z 33006MPS 9999 -SHRA BKN011 03/02 Q1026 NOSIG=
0161583670999992024022115304+31198+121336FM-15+000399999V0203301N00601003351CN009999199+00301+00201999999ADDGA1071+003351999GE19AGL   +99999+99999GF199999071999003351999999MA1102601999999MW1801REMMET064METAR ZSSS 211530Z 33006MPS 9999 -SHRA BKN011 03/02 Q1026 NOSIG=
0149583670999992024022116004+31198+121336FM-15+000399999V0203601N00701003351CN009999199+00301+00201999999ADDGA1071+003351999GE19AGL   +99999+99999GF199999071999003351999999MA1102501999999REMMET058METAR ZSSS 211600Z 36007MPS 9999 BKN011 03/02 Q1025 NOSIG=
0149583670999992024022116304+31198+121336FM-15+000399999V0203501N00601003351CN009999199+00301+00101999999ADDGA1071+003351999GE19AGL   +99999+99999GF199999071999003351999999MA1102601999999REMMET058METAR ZSSS 211630Z 35006MPS 9999 BKN011 03/01 Q1026 NOSIG=
0157583670999992024022117004+31198+121336FM-15+000399999V0203301V00501003351CN009999199+00301+00101999999ADDGA1071+003351999GE19AGL   +99999+99999GF199999071999003351999999MA1102701999999REMMET066METAR ZSSS 211700Z 33005MPS 290V360 9999 BKN011 03/01 Q1027 NOSIG=
0149583670999992024022117304+31198+121336FM-15+000399999V0203401N00801003351CN009999199+00301+00101999999ADDGA1071+003351999GE19AGL   +99999+99999GF199999071999003351999999MA1102701999999REMMET058METAR ZSSS 211730Z 34008MPS 9999 BKN011 03/01 Q1027 NOSIG=
0161583670999992024022118004+31198+121336FM-15+000399999V0203501N00701003351CN009999199+00301+00101999999ADDGA1071+003351999GE19AGL   +99999+99999GF199999071999003351999999MA1102601999999MW1801REMMET064METAR ZSSS 211800Z 35007MPS 9999 -SHRA BKN011 03/01 Q1026 NOSIG=
0161583670999992024022118304+31198+121336FM-15+000399999V0203501N00701003051CN009999199+00201+00101999999ADDGA1071+003051999GE19AGL   +99999+99999GF199999071999003051999999MA1102601999999MW1801REMMET064METAR ZSSS 211830Z 35007MPS 9999 -SHRA BKN010 02/01 Q1026 NOSIG=
0175583670999992024022119004+31198+121336FM-15+000399999V0203501N00801003051CN009999199+00201+00101999999ADDGA1071+003051999GE19AGL   +99999+99999GF199999071999003051999999MA1102601999999MW1801REMMET078METAR ZSSS 211900Z 35008MPS 9999 -SHRA BKN010 02/01 Q1026 BECMG TL1930 BKN009=
0161583670999992024022119304+31198+121336FM-15+000399999V0203301N00601002741CN009999199+00201+00101999999ADDGA1071+002741999GE19AGL   +99999+99999GF199999071999002741999999MA1102701999999MW1801REMMET064METAR ZSSS 211930Z 33006MPS 9999 -SHRA BKN009 02/01 Q1027 NOSIG=
0161583670999992024022120004+31198+121336FM-15+000399999V0203401N00601002741CN009999199+00201+00001999999ADDGA1071+002741999GE19AGL   +99999+99999GF199999071999002741999999MA1102701999999MW1801REMMET064METAR ZSSS 212000Z 34006MPS 9999 -SHRA BKN009 02/00 Q1027 NOSIG=
0161583670999992024022120304+31198+121336FM-15+000399999V0203301N00601002741CN009999199+00201+00101999999ADDGA1071+002741999GE19AGL   +99999+99999GF199999071999002741999999MA1102701999999MW1801REMMET064METAR ZSSS 212030Z 33006MPS 9999 -SHRA BKN009 02/01 Q1027 NOSIG=
0175583670999992024022121004+31198+121336FM-15+000399999V0203301N00501002741CN009999199+00201+00101999999ADDGA1071+002741999GE19AGL   +99999+99999GF199999071999002741999999MA1102701999999MW1801REMMET078METAR ZSSS 212100Z 33005MPS 9999 -SHRA BKN009 02/01 Q1027 BECMG TL2240 BKN010=
0161583670999992024022121304+31198+121336FM-15+000399999V0203501N00601002741CN009999199+00201+00001999999ADDGA1071+002741999GE19AGL   +99999+99999GF199999071999002741999999MA1102701999999MW1801REMMET064METAR ZSSS 212130Z 35006MPS 9999 -SHRA BKN009 02/00 Q1027 NOSIG=
0175583670999992024022122004+31198+121336FM-15+000399999V0203401N00601002741CN009999199+00201+00001999999ADDGA1071+002741999GE19AGL   +99999+99999GF199999071999002741999999MA1102801999999MW1801REMMET078METAR ZSSS 212200Z 34006MPS 9999 -SHRA BKN009 02/00 Q1028 BECMG TL2250 BKN011=
0161583670999992024022122304+31198+121336FM-15+000399999V0203301N00601003351CN009999199+00201+00001999999ADDGA1071+003351999GE19AGL   +99999+99999GF199999071999003351999999MA1102801999999MW1801REMMET064METAR ZSSS 212230Z 33006MPS 9999 -SHRA BKN011 02/00 Q1028 NOSIG=
0175583670999992024022123004+31198+121336FM-15+000399999V0203301N00601003351CN009999199+00201+00101999999ADDGA1071+003351999GE19AGL   +99999+99999GF199999071999003351999999MA1102801999999MW1801REMMET078METAR ZSSS 212300Z 33006MPS 9999 -SHRA BKN011 02/01 Q1028 BECMG TL2340 BKN009=
0161583670999992024022123304+31198+121336FM-15+000399999V0203401N00701002741CN009999199+00201+00001999999ADDGA1071+002741999GE19AGL   +99999+99999GF199999071999002741999999MA1102801999999MW1801REMMET064METAR ZSSS 212330Z 34007MPS 9999 -SHRA BKN009 02/00 Q1028 NOSIG=
0175583670999992024022200004+31198+121336FM-15+000399999V0203301N00701002741CN009999199+00201+00001999999ADDGA1071+002741999GE19AGL   +99999+99999GF199999071999002741999999MA1102901999999MW1801REMMET078METAR ZSSS 220000Z 33007MPS 9999 -SHRA BKN009 02/00 Q1029 BECMG TL0140 BKN011=
0161583670999992024022200304+31198+121336FM-15+000399999V0203401N00701002741CN009999199+00201+00001999999ADDGA1071+002741999GE19AGL   +99999+99999GF199999071999002741999999MA1103001999999MW1801REMMET064METAR ZSSS 220030Z 34007MPS 9999 -SHRA BKN009 02/00 Q1030 NOSIG=
0175583670999992024022201004+31198+121336FM-15+000399999V0203401N00501002741CN009999199+00201+00001999999ADDGA1071+002741999GE19AGL   +99999+99999GF199999071999002741999999MA1102901999999MW1801REMMET078METAR ZSSS 220100Z 34005MPS 9999 -SHRA BKN009 02/00 Q1029 BECMG TL0230 BKN010=
0169583670999992024022201304+31198+121336FM-15+000399999V0203301V00601002741CN009999199+00201+00001999999ADDGA1071+002741999GE19AGL   +99999+99999GF199999071999002741999999MA1102901999999MW1801REMMET072METAR ZSSS 220130Z 33006MPS 300V360 9999 -SHRA BKN009 02/00 Q1029 NOSIG=
0159583670999992024022202004+31198+121336FM-15+000399999V0203201N00501002741CN009999199+00201+00001999999ADDGA1071+002741999GE19AGL   +99999+99999GF199999071999002741999999MA1103001999999MW1611REMMET062METAR ZSSS 220200Z 32005MPS 9999 -RA BKN009 02/00 Q1030 NOSIG=
0167583670999992024022202304+31198+121336FM-15+000399999V0203101V00601002741CN009999199+00201+00001999999ADDGA1071+002741999GE19AGL   +99999+99999GF199999071999002741999999MA1103101999999MW1611REMMET070METAR ZSSS 220230Z 31006MPS 280V340 9999 -RA BKN009 02/00 Q1031 NOSIG=
0173583670999992024022203004+31198+121336FM-15+000399999V0203301N00501002741CN009999199+00201+00001999999ADDGA1071+002741999GE19AGL   +99999+99999GF199999071999002741999999MA1103001999999MW1611REMMET076METAR ZSSS 220300Z 33005MPS 9999 -RA BKN009 02/00 Q1030 BECMG TL0430 BKN010=
0159583670999992024022203304+31198+121336FM-15+000399999V0203401N00501002741CN009999199+00201+00001999999ADDGA1071+002741999GE19AGL   +99999+99999GF199999071999002741999999MA1102901999999MW1611REMMET062METAR ZSSS 220330Z 34005MPS 9999 -RA BKN009 02/00 Q1029 NOSIG=
0168583670999992024022204004+31198+121336FM-15+000399999V0203301N00501002741CN004000199+00201+00001999999ADDGA1071+002741999GE19AGL   +99999+99999GF199999071999002741999999MA1102901999999MW1101MW2611REMMET065METAR ZSSS 220400Z 33005MPS 4000 -RA BR BKN009 02/00 Q1029 NOSIG=
0168583670999992024022204304+31198+121336FM-15+000399999V0203301N00601002441CN005000199+00201+00001999999ADDGA1071+002441999GE19AGL   +99999+99999GF199999071999002441999999MA1102901999999MW1101MW2611REMMET065METAR ZSSS 220430Z 33006MPS 5000 -RA BR BKN008 02/00 Q1029 NOSIG=
0168583670999992024022205004+31198+121336FM-15+000399999V0203301N00601002131CN005000199+00201+00001999999ADDGA1071+002131999GE19AGL   +99999+99999GF199999071999002131999999MA1102901999999MW1101MW2611REMMET065METAR ZSSS 220500Z 33006MPS 5000 -RA BR BKN007 02/00 Q1029 NOSIG=
0159583670999992024022205304+31198+121336FM-15+000399999V0203301N00601002131CN007000199+00101+00001999999ADDGA1071+002131999GE19AGL   +99999+99999GF199999071999002131999999MA1102901999999MW1611REMMET062METAR ZSSS 220530Z 33006MPS 7000 -RA BKN007 01/00 Q1029 NOSIG=
0159583670999992024022206004+31198+121336FM-15+000399999V0203301N00701002441CN007000199+00201+00001999999ADDGA1071+002441999GE19AGL   +99999+99999GF199999071999002441999999MA1102901999999MW1611REMMET062METAR ZSSS 220600Z 33007MPS 7000 -RA BKN008 02/00 Q1029 NOSIG=
0159583670999992024022206304+31198+121336FM-15+000399999V0203301N00701002741CN007000199+00201+00001999999ADDGA1071+002741999GE19AGL   +99999+99999GF199999071999002741999999MA1102901999999MW1611REMMET062METAR ZSSS 220630Z 33007MPS 7000 -RA BKN009 02/00 Q1029 NOSIG=
0150583670999992024022207004+31198+121336FM-15+000399999V0203401N00701002441CN006000199+00101+00001999999ADDGA1071+002441999GE19AGL   +99999+99999GF199999071999002441999999MA1102901999999REMMET059METAR ZSSS 220700Z 34007MPS 6000 BKN008 01/M00 Q1029 NOSIG=
0150583670999992024022207304+31198+121336FM-15+000399999V0203401N00601002741CN007000199+00101+00001999999ADDGA1071+002741999GE19AGL   +99999+99999GF199999071999002741999999MA1102901999999REMMET059METAR ZSSS 220730Z 34006MPS 7000 BKN009 01/M00 Q1029 NOSIG=
0164583670999992024022208004+31198+121336FM-15+000399999V0203401N00601002741CN008000199+00201+00001999999ADDGA1071+002741999GE19AGL   +99999+99999GF199999071999002741999999MA1102901999999REMMET073METAR ZSSS 220800Z 34006MPS 8000 BKN009 02/M00 Q1029 BECMG TL0830 BKN011=
0150583670999992024022208304+31198+121336FM-15+000399999V0203401N00501003051CN009999199+00201+00001999999ADDGA1071+003051999GE19AGL   +99999+99999GF199999071999003051999999MA1102901999999REMMET059METAR ZSSS 220830Z 34005MPS 9999 BKN010 02/M00 Q1029 NOSIG=
0160583670999992024022209004+31198+121336FM-15+000399999V0203301N00501003051CN009999199+00201+00001999999ADDGA1071+003051999GE19AGL   +99999+99999GF199999071999003051999999MA1102901999999MW1611REMMET063METAR ZSSS 220900Z 33005MPS 9999 -RA BKN010 02/M00 Q1029 NOSIG=
0168583670999992024022209304+31198+121336FM-15+000399999V0203401V00501003351CN009999199+00201+00001999999ADDGA1071+003351999GE19AGL   +99999+99999GF199999071999003351999999MA1102901999999MW1611REMMET071METAR ZSSS 220930Z 34005MPS 310V010 9999 -RA BKN011 02/M00 Q1029 NOSIG=
0160583670999992024022210004+31198+121336FM-15+000399999V0203501N00601003351CN009999199+00201-00101999999ADDGA1071+003351999GE19AGL   +99999+99999GF199999071999003351999999MA1102901999999MW1611REMMET063METAR ZSSS 221000Z 35006MPS 9999 -RA BKN011 02/M01 Q1029 NOSIG=
0160583670999992024022210304+31198+121336FM-15+000399999V0203301N00601003351CN009999199+00201-00101999999ADDGA1071+003351999GE19AGL   +99999+99999GF199999071999003351999999MA1102901999999MW1611REMMET063METAR ZSSS 221030Z 33006MPS 9999 -RA BKN011 02/M01 Q1029 NOSIG=
0164583670999992024022211004+31198+121336FM-15+000399999V0203501N00601003961CN009999199+00201-00101999999ADDGA1071+003961999GE19AGL   +99999+99999GF199999071999003961999999MA1103001999999REMMET073METAR ZSSS 221100Z 35006MPS 9999 BKN013 02/M01 Q1030 BECMG TL1230 BKN015=
0150583670999992024022211304+31198+121336FM-15+000399999V0203501N00701003961CN009999199+00101-00101999999ADDGA1071+003961999GE19AGL   +99999+99999GF199999071999003961999999MA1103001999999REMMET059METAR ZSSS 221130Z 35007MPS 9999 BKN013 01/M01 Q1030 NOSIG=
0164583670999992024022212004+31198+121336FM-15+000399999V0203401N00601003961CN009999199+00101-00101999999ADDGA1071+003961999GE19AGL   +99999+99999GF199999071999003961999999MA1103001999999REMMET073METAR ZSSS 221200Z 34006MPS 9999 BKN013 01/M01 Q1030 BECMG TL1230 BKN015=
0150583670999992024022212304+31198+121336FM-15+000399999V0203301N00501004571CN009999199+00101-00101999999ADDGA1071+004571999GE19AGL   +99999+99999GF199999071999004571999999MA1103001999999REMMET059METAR ZSSS 221230Z 33005MPS 9999 BKN015 01/M01 Q1030 NOSIG=
0164583670999992024022213004+31198+121336FM-15+000399999V0203301N00601004571CN009999199+00101-00101999999ADDGA1071+004571999GE19AGL   +99999+99999GF199999071999004571999999MA1103101999999REMMET073METAR ZSSS 221300Z 33006MPS 9999 BKN015 01/M01 Q1031 BECMG TL1330 BKN013=
0150583670999992024022213304+31198+121336FM-15+000399999V0203401N00601003961CN009999199+00101-00101999999ADDGA1071+003961999GE19AGL   +99999+99999GF199999071999003961999999MA1103101999999REMMET059METAR ZSSS 221330Z 34006MPS 9999 BKN013 01/M01 Q1031 NOSIG=
0150583670999992024022214004+31198+121336FM-15+000399999V0203401N00701003961CN009999199+00101-00101999999ADDGA1071+003961999GE19AGL   +99999+99999GF199999071999003961999999MA1103001999999REMMET059METAR ZSSS 221400Z 34007MPS 9999 BKN013 01/M01 Q1030 NOSIG=
0150583670999992024022214304+31198+121336FM-15+000399999V0203301N00501003961CN009999199+00101-00101999999ADDGA1071+003961999GE19AGL   +99999+99999GF199999071999003961999999MA1103001999999REMMET059METAR ZSSS 221430Z 33005MPS 9999 BKN013 01/M01 Q1030 NOSIG=
0164583670999992024022215004+31198+121336FM-15+000399999V0203301N00501003961CN009999199+00101-00101999999ADDGA1071+003961999GE19AGL   +99999+99999GF199999071999003961999999MA1103101999999REMMET073METAR ZSSS 221500Z 33005MPS 9999 BKN013 01/M01 Q1031 BECMG TL1630 BKN015=
0150583670999992024022215304+31198+121336FM-15+000399999V0203401N00501003961CN009999199+00101-00101999999ADDGA1071+003961999GE19AGL   +99999+99999GF199999071999003961999999MA1103001999999REMMET059METAR ZSSS 221530Z 34005MPS 9999 BKN013 01/M01 Q1030 NOSIG=
0164583670999992024022216004+31198+121336FM-15+000399999V0203301N00501003961CN009999199+00101-00101999999ADDGA1071+003961999GE19AGL   +99999+99999GF199999071999003961999999MA1103001999999REMMET073METAR ZSSS 221600Z 33005MPS 9999 BKN013 01/M01 Q1030 BECMG TL1730 BKN009=
0150583670999992024022216304+31198+121336FM-15+000399999V0203301N00701003351CN009999199+00101-00101999999ADDGA1071+003351999GE19AGL   +99999+99999GF199999071999003351999999MA1103101999999REMMET059METAR ZSSS 221630Z 33007MPS 9999 BKN011 01/M01 Q1031 NOSIG=
0174583670999992024022217004+31198+121336FM-15+000399999V0203301N00601003351CN009999199+00101-00101999999ADDGA1071+003351999GE19AGL   +99999+99999GF199999071999003351999999MA1103101999999MW1611REMMET077METAR ZSSS 221700Z 33006MPS 9999 -RA BKN011 01/M01 Q1031 BECMG TL1730 BKN009=
0160583670999992024022217304+31198+121336FM-15+000399999V0203301N00701002741CN009999199+00101-00101999999ADDGA1071+002741999GE19AGL   +99999+99999GF199999071999002741999999MA1103101999999MW1611REMMET063METAR ZSSS 221730Z 33007MPS 9999 -RA BKN009 01/M01 Q1031 NOSIG=
0160583670999992024022218004+31198+121336FM-15+000399999V0203301N00601002741CN009999199+00101-00101999999ADDGA1071+002741999GE19AGL   +99999+99999GF199999071999002741999999MA1103101999999MW1611REMMET063METAR ZSSS 221800Z 33006MPS 9999 -RA BKN009 01/M01 Q1031 NOSIG=
0168583670999992024022218304+31198+121336FM-15+000399999V0203301V00501002741CN009999199+00101-00101999999ADDGA1071+002741999GE19AGL   +99999+99999GF199999071999002741999999MA1103101999999MW1611REMMET071METAR ZSSS 221830Z 33005MPS 280V360 9999 -RA BKN009 01/M01 Q1031 NOSIG=
0131583670999992024022219004+31198+121336FM-15+000399999V0203201V006019999999N009999199+00005-00205999999ADDMA1103105999999MW1615MW2795REMMET073METAR ZSSS 221900Z 32006MPS 290V350 9999 -PLRA BKN009 00/M02 Q1031 NOSIG=EQDD01      0ADE735
0160583670999992024022219304+31198+121336FM-15+000399999V0203301N00601002741CN009999199+00001-00101999999ADDGA1071+002741999GE19AGL   +99999+99999GF199999071999002741999999MA1103101999999MW1611REMMET063METAR ZSSS 221930Z 33006MPS 9999 -RA BKN009 00/M01 Q1031 NOSIG=
0175583670999992024022220004+31198+121336FM-15+000399999V0203301N00601002741CN009999199+00001-00101999999ADDGA1071+002741999GE19AGL   +99999+99999GF199999071999002741999999MA1103001999999MW1611REMMET078METAR ZSSS 222000Z 33006MPS 9999 -RA BKN009 M00/M01 Q1030 BECMG TL2130 BKN010=
0168583670999992024022220304+31198+121336FM-15+000399999V0203301V00601002741CN009999199+00001-00101999999ADDGA1071+002741999GE19AGL   +99999+99999GF199999071999002741999999MA1103001999999MW1611REMMET071METAR ZSSS 222030Z 33006MPS 290V350 9999 -RA BKN009 00/M01 Q1030 NOSIG=
0174583670999992024022221004+31198+121336FM-15+000399999V0203301N00501002741CN009999199+00001-00101999999ADDGA1071+002741999GE19AGL   +99999+99999GF199999071999002741999999MA1103001999999MW1611REMMET077METAR ZSSS 222100Z 33005MPS 9999 -RA BKN009 00/M01 Q1030 BECMG TL2130 BKN010=
0150583670999992024022221304+31198+121336FM-15+000399999V0203301N00501003051CN009999199+00001-00101999999ADDGA1071+003051999GE19AGL   +99999+99999GF199999071999003051999999MA1103101999999REMMET059METAR ZSSS 222130Z 33005MPS 9999 BKN010 00/M01 Q1031 NOSIG=
0164583670999992024022222004+31198+121336FM-15+000399999V0203201N00501003051CN009999199+00001-00101999999ADDGA1071+003051999GE19AGL   +99999+99999GF199999071999003051999999MA1103101999999REMMET073METAR ZSSS 222200Z 32005MPS 9999 BKN010 00/M01 Q1031 BECMG TL2230 BKN009=
0158583670999992024022222304+31198+121336FM-15+000399999V0203201V00501002741CN009999199+00001-00101999999ADDGA1071+002741999GE19AGL   +99999+99999GF199999071999002741999999MA1103201999999REMMET067METAR ZSSS 222230Z 32005MPS 290V350 9999 BKN009 00/M01 Q1032 NOSIG=
0164583670999992024022223004+31198+121336FM-15+000399999V0203401N00501002741CN006000199+00001-00101999999ADDGA1071+002741999GE19AGL   +99999+99999GF199999071999002741999999MA1103101999999REMMET073METAR ZSSS 222300Z 34005MPS 6000 BKN009 00/M01 Q1031 BECMG TL2350 BKN010=
0150583670999992024022223304+31198+121336FM-15+000399999V0203301N00601002741CN006000199+00001-00101999999ADDGA1071+002741999GE19AGL   +99999+99999GF199999071999002741999999MA1103201999999REMMET059METAR ZSSS 222330Z 33006MPS 6000 BKN009 00/M01 Q1032 NOSIG=
0164583670999992024022300004+31198+121336FM-15+000399999V0203401N00601002741CN006000199+00001-00101999999ADDGA1071+002741999GE19AGL   +99999+99999GF199999071999002741999999MA1103201999999REMMET073METAR ZSSS 230000Z 34006MPS 6000 BKN009 00/M01 Q1032 BECMG TL0030 BKN010=
0150583670999992024022300304+31198+121336FM-15+000399999V0203301N00501003051CN006000199+00101-00101999999ADDGA1071+003051999GE19AGL   +99999+99999GF199999071999003051999999MA1103201999999REMMET059METAR ZSSS 230030Z 33005MPS 6000 BKN010 01/M01 Q1032 NOSIG=
0158583670999992024022301004+31198+121336FM-15+000399999V0203301V00601003351CN006000199+00101-00101999999ADDGA1071+003351999GE19AGL   +99999+99999GF199999071999003351999999MA1103301999999REMMET067METAR ZSSS 230100Z 33006MPS 300V360 6000 BKN011 01/M01 Q1033 NOSIG=
0150583670999992024022301304+31198+121336FM-15+000399999V0203201N00501003351CN006000199+00101-00101999999ADDGA1071+003351999GE19AGL   +99999+99999GF199999071999003351999999MA1103301999999REMMET059METAR ZSSS 230130Z 32005MPS 6000 BKN011 01/M01 Q1033 NOSIG=
0158583670999992024022302004+31198+121336FM-15+000399999V0203401V00501003351CN008000199+00101-00101999999ADDGA1071+003351999GE19AGL   +99999+99999GF199999071999003351999999MA1103301999999REMMET067METAR ZSSS 230200Z 34005MPS 300V360 8000 BKN011 01/M01 Q1033 NOSIG=
0150583670999992024022302304+31198+121336FM-15+000399999V0203301N00601003351CN008000199+00101-00101999999ADDGA1071+003351999GE19AGL   +99999+99999GF199999071999003351999999MA1103301999999REMMET059METAR ZSSS 230230Z 33006MPS 8000 BKN011 01/M01 Q1033 NOSIG=
0150583670999992024022303004+31198+121336FM-15+000399999V0203401N00501003351CN008000199+00101-00101999999ADDGA1071+003351999GE19AGL   +99999+99999GF199999071999003351999999MA1103201999999REMMET059METAR ZSSS 230300Z 34005MPS 8000 BKN011 01/M01 Q1032 NOSIG=
0150583670999992024022303304+31198+121336FM-15+000399999V0203401N00601003351CN008000199+00101-00101999999ADDGA1071+003351999GE19AGL   +99999+99999GF199999071999003351999999MA1103201999999REMMET059METAR ZSSS 230330Z 34006MPS 8000 BKN011 01/M01 Q1032 NOSIG=
0164583670999992024022304004+31198+121336FM-15+000399999V0203401N00601003351CN008000199+00101-00101999999ADDGA1071+003351999GE19AGL   +99999+99999GF199999071999003351999999MA1103201999999REMMET073METAR ZSSS 230400Z 34006MPS 8000 BKN011 01/M01 Q1032 BECMG TL0440 BKN009=
0150583670999992024022304304+31198+121336FM-15+000399999V0203201N00601003351CN008000199+00101-00101999999ADDGA1071+003351999GE19AGL   +99999+99999GF199999071999003351999999MA1103101999999REMMET059METAR ZSSS 230430Z 32006MPS 8000 BKN011 01/M01 Q1031 NOSIG=
0164583670999992024022305004+31198+121336FM-15+000399999V0203401N00601003351CN008000199+00101-00101999999ADDGA1071+003351999GE19AGL   +99999+99999GF199999071999003351999999MA1103101999999REMMET073METAR ZSSS 230500Z 34006MPS 8000 BKN011 01/M01 Q1031 BECMG TL0610 BKN009=
0158583670999992024022305304+31198+121336FM-15+000399999V0203301V00501003351CN008000199+00201-00101999999ADDGA1071+003351999GE19AGL   +99999+99999GF199999071999003351999999MA1103101999999REMMET067METAR ZSSS 230530Z 33005MPS 280V360 8000 BKN011 02/M01 Q1031 NOSIG=
0164583670999992024022306004+31198+121336FM-15+000399999V0203301N00501002741CN008000199+00201-00101999999ADDGA1071+002741999GE19AGL   +99999+99999GF199999071999002741999999MA1103101999999REMMET073METAR ZSSS 230600Z 33005MPS 8000 BKN009 02/M01 Q1031 BECMG TL0710 BKN011=
0150583670999992024022306304+31198+121336FM-15+000399999V0203301N00601002741CN008000199+00201-00101999999ADDGA1071+002741999GE19AGL   +99999+99999GF199999071999002741999999MA1103101999999REMMET059METAR ZSSS 230630Z 33006MPS 8000 BKN009 02/M01 Q1031 NOSIG=
0150583670999992024022307004+31198+121336FM-15+000399999V0203301N00501003351CN008000199+00201-00101999999ADDGA1071+003351999GE19AGL   +99999+99999GF199999071999003351999999MA1103101999999REMMET059METAR ZSSS 230700Z 33005MPS 8000 BKN011 02/M01 Q1031 NOSIG=
0150583670999992024022307304+31198+121336FM-15+000399999V0203301N00401003961CN008000199+00201-00101999999ADDGA1071+003961999GE19AGL   +99999+99999GF199999071999003961999999MA1103101999999REMMET059METAR ZSSS 230730Z 33004MPS 8000 BKN013 02/M01 Q1031 NOSIG=
0164583670999992024022308004+31198+121336FM-15+000399999V0203301N00501003961CN008000199+00201-00101999999ADDGA1071+003961999GE19AGL   +99999+99999GF199999071999003961999999MA1103001999999REMMET073METAR ZSSS 230800Z 33005MPS 8000 BKN013 02/M01 Q1030 BECMG TL0910 BKN015=
0168583670999992024022308304+31198+121336FM-15+000399999V0203301V00501003961CN008000199+00201-00101999999ADDGA1071+003961999GE19AGL   +99999+99999GF199999071999003961999999MA1103101999999MW1611REMMET071METAR ZSSS 230830Z 33005MPS 290V350 8000 -RA BKN013 02/M01 Q1031 NOSIG=
0177583670999992024022309004+31198+121336FM-15+000399999V0203301V00501003961CN005000199+00201-00101999999ADDGA1071+003961999GE19AGL   +99999+99999GF199999071999003961999999MA1103101999999MW1101MW2611REMMET074METAR ZSSS 230900Z 33005MPS 290V350 5000 -RA BR BKN013 02/M01 Q1031 NOSIG=
0169583670999992024022309304+31198+121336FM-15+000399999V0203301N00501003961CN005000199+00201+00001999999ADDGA1071+003961999GE19AGL   +99999+99999GF199999071999003961999999MA1103101999999MW1101MW2611REMMET066METAR ZSSS 230930Z 33005MPS 5000 -RA BR BKN013 02/M00 Q1031 NOSIG=
0150583670999992024022310004+31198+121336FM-15+000399999V0203301N00401004571CN006000199+00201+00001999999ADDGA1071+004571999GE19AGL   +99999+99999GF199999071999004571999999MA1103101999999REMMET059METAR ZSSS 231000Z 33004MPS 6000 BKN015 02/M00 Q1031 NOSIG=
0150583670999992024022310304+31198+121336FM-15+000399999V0203201N00501004571CN007000199+00201-00101999999ADDGA1071+004571999GE19AGL   +99999+99999GF199999071999004571999999MA1103101999999REMMET059METAR ZSSS 231030Z 32005MPS 7000 BKN015 02/M01 Q1031 NOSIG=
0150583670999992024022311004+31198+121336FM-15+000399999V0203201N00501004571CN007000199+00201-00101999999ADDGA1071+004571999GE19AGL   +99999+99999GF199999071999004571999999MA1103201999999REMMET059METAR ZSSS 231100Z 32005MPS 7000 BKN015 02/M01 Q1032 NOSIG=
0158583670999992024022311304+31198+121336FM-15+000399999V0203201V00501004571CN007000199+00201-00101999999ADDGA1071+004571999GE19AGL   +99999+99999GF199999071999004571999999MA1103201999999REMMET067METAR ZSSS 231130Z 32005MPS 290V350 7000 BKN015 02/M01 Q1032 NOSIG=
0174583670999992024022312004+31198+121336FM-15+000399999V0203301N00501004571CN007000199+00201-00101999999ADDGA1071+004571999GE19AGL   +99999+99999GF199999071999004571999999MA1103201999999MW1611REMMET077METAR ZSSS 231200Z 33005MPS 7000 -RA BKN015 02/M01 Q1032 BECMG TL1340 BKN013=
0160583670999992024022312304+31198+121336FM-15+000399999V0203301N00501003961CN007000199+00201+00001999999ADDGA1071+003961999GE19AGL   +99999+99999GF199999071999003961999999MA1103101999999MW1611REMMET063METAR ZSSS 231230Z 33005MPS 7000 -RA BKN013 02/M00 Q1031 NOSIG=
0174583670999992024022313004+31198+121336FM-15+000399999V0203201N00501003051CN006000199+00101+00001999999ADDGA1071+003051999GE19AGL   +99999+99999GF199999071999003051999999MA1103101999999MW1611REMMET077METAR ZSSS 231300Z 32005MPS 6000 -RA BKN010 01/M00 Q1031 BECMG TL1340 BKN009=
0160583670999992024022313304+31198+121336FM-15+000399999V0203201N00501002741CN006000199+00101+00001999999ADDGA1071+002741999GE19AGL   +99999+99999GF199999071999002741999999MA1103101999999MW1611REMMET063METAR ZSSS 231330Z 32005MPS 6000 -RA BKN009 01/M00 Q1031 NOSIG=
0160583670999992024022314004+31198+121336FM-15+000399999V0203201N00501002741CN006000199+00101+00001999999ADDGA1071+002741999GE19AGL   +99999+99999GF199999071999002741999999MA1103101999999MW1611REMMET063METAR ZSSS 231400Z 32005MPS 6000 -RA BKN009 01/M00 Q1031 NOSIG=
0160583670999992024022314304+31198+121336FM-15+000399999V0203301N00501002741CN006000199+00101+00001999999ADDGA1071+002741999GE19AGL   +99999+99999GF199999071999002741999999MA1103101999999MW1611REMMET063METAR ZSSS 231430Z 33005MPS 6000 -RA BKN009 01/M00 Q1031 NOSIG=
0183583670999992024022315004+31198+121336FM-15+000399999V0203201N00501002741CN005000199+00101+00001999999ADDGA1071+002741999GE19AGL   +99999+99999GF199999071999002741999999MA1103101999999MW1101MW2611REMMET080METAR ZSSS 231500Z 32005MPS 5000 -RA BR BKN009 01/M00 Q1031 BECMG TL1640 BKN011=
0169583670999992024022315304+31198+121336FM-15+000399999V0203201N00401003051CN005000199+00101+00001999999ADDGA1071+003051999GE19AGL   +99999+99999GF199999071999003051999999MA1103101999999MW1101MW2611REMMET066METAR ZSSS 231530Z 32004MPS 5000 -RA BR BKN010 01/M00 Q1031 NOSIG=
0168583670999992024022316004+31198+121336FM-15+000399999V0203101V00501003051CN006000199+00101+00001999999ADDGA1071+003051999GE19AGL   +99999+99999GF199999071999003051999999MA1103101999999MW1611REMMET071METAR ZSSS 231600Z 31005MPS 280V340 6000 -RA BKN010 01/M00 Q1031 NOSIG=
0160583670999992024022316304+31198+121336FM-15+000399999V0203201N00401003961CN006000199+00101-00101999999ADDGA1071+003961999GE19AGL   +99999+99999GF199999071999003961999999MA1103201999999MW1611REMMET063METAR ZSSS 231630Z 32004MPS 6000 -RA BKN013 01/M01 Q1032 NOSIG=
0160583670999992024022317004+31198+121336FM-15+000399999V0203301N00401003661CN006000199+00101-00101999999ADDGA1071+003661999GE19AGL   +99999+99999GF199999071999003661999999MA1103101999999MW1611REMMET063METAR ZSSS 231700Z 33004MPS 6000 -RA BKN012 01/M01 Q1031 NOSIG=
0160583670999992024022317304+31198+121336FM-15+000399999V0203401N00501003661CN006000199+00101-00101999999ADDGA1071+003661999GE19AGL   +99999+99999GF199999071999003661999999MA1103101999999MW1611REMMET063METAR ZSSS 231730Z 34005MPS 6000 -RA BKN012 01/M01 Q1031 NOSIG=
0160583670999992024022318004+31198+121336FM-15+000399999V0203201N00401003351CN006000199+00101-00101999999ADDGA1071+003351999GE19AGL   +99999+99999GF199999071999003351999999MA1103101999999MW1611REMMET063METAR ZSSS 231800Z 32004MPS 6000 -RA BKN011 01/M01 Q1031 NOSIG=
0169583670999992024022318304+31198+121336FM-15+000399999V0203201N00401003051CN005000199+00101+00001999999ADDGA1071+003051999GE19AGL   +99999+99999GF199999071999003051999999MA1103101999999MW1101MW2611REMMET066METAR ZSSS 231830Z 32004MPS 5000 -RA BR BKN010 01/M00 Q1031 NOSIG=
0183583670999992024022319004+31198+121336FM-15+000399999V0203301N00501003051CN005000199+00101+00001999999ADDGA1071+003051999GE19AGL   +99999+99999GF199999071999003051999999MA1103001999999MW1101MW2611REMMET080METAR ZSSS 231900Z 33005MPS 5000 -RA BR BKN010 01/M00 Q1030 BECMG TL2030 BKN009=
0169583670999992024022319304+31198+121336FM-15+000399999V0203301N00501002741CN005000199+00101+00001999999ADDGA1071+002741999GE19AGL   +99999+99999GF199999071999002741999999MA1103001999999MW1101MW2611REMMET066METAR ZSSS 231930Z 33005MPS 5000 -RA BR BKN009 01/M00 Q1030 NOSIG=
0169583670999992024022320004+31198+121336FM-15+000399999V0203201N00401002131CN005000199+00101+00001999999ADDGA1071+002131999GE19AGL   +99999+99999GF199999071999002131999999MA1102901999999MW1101MW2611REMMET066METAR ZSSS 232000Z 32004MPS 5000 -RA BR BKN007 01/M00 Q1029 NOSIG=
0169583670999992024022320304+31198+121336FM-15+000399999V0203301N00401002131CN005000199+00101+00001999999ADDGA1071+002131999GE19AGL   +99999+99999GF199999071999002131999999MA1102901999999MW1101MW2611REMMET066METAR ZSSS 232030Z 33004MPS 5000 -RA BR BKN007 01/M00 Q1029 NOSIG=
0168583670999992024022321004+31198+121336FM-15+000399999V0203201N00401002131CN005000199+00101+00001999999ADDGA1071+002131999GE19AGL   +99999+99999GF199999071999002131999999MA1102901999999MW1101MW2611REMMET065METAR ZSSS 232100Z 32004MPS 5000 -RA BR BKN007 01/00 Q1029 NOSIG=
0158583670999992024022321304+31198+121336FM-15+000399999V0203301N00401002131CN005000199+00101+00001999999ADDGA1071+002131999GE19AGL   +99999+99999GF199999071999002131999999MA1102901999999MW1101REMMET061METAR ZSSS 232130Z 33004MPS 5000 BR BKN007 01/00 Q1029 NOSIG=
0158583670999992024022322004+31198+121336FM-15+000399999V0203301N00401002131CN005000199+00101+00001999999ADDGA1071+002131999GE19AGL   +99999+99999GF199999071999002131999999MA1102901999999MW1101REMMET061METAR ZSSS 232200Z 33004MPS 5000 BR BKN007 01/00 Q1029 NOSIG=
0158583670999992024022322304+31198+121336FM-15+000399999V0203301N00401002131CN005000199+00101+00001999999ADDGA1071+002131999GE19AGL   +99999+99999GF199999071999002131999999MA1103001999999MW1101REMMET061METAR ZSSS 232230Z 33004MPS 5000 BR BKN007 01/00 Q1030 NOSIG=
0182583670999992024022323004+31198+121336FM-15+000399999V0203401N00501001831CN004000199+00101+00001999999ADDGA1071+001831999GE19AGL   +99999+99999GF199999071999001831999999MA1102901999999MW1101MW2611REMMET079METAR ZSSS 232300Z 34005MPS 4000 -RA BR BKN006 01/00 Q1029 BECMG TL0040 BKN011=
0168583670999992024022323304+31198+121336FM-15+000399999V0203201N00401001831CN004000199+00201+00101999999ADDGA1071+001831999GE19AGL   +99999+99999GF199999071999001831999999MA1103001999999MW1101MW2611REMMET065METAR ZSSS 232330Z 32004MPS 4000 -RA BR BKN006 02/01 Q1030 NOSIG=
0182583670999992024022400004+31198+121336FM-15+000399999V0203201N00401002131CN005000199+00201+00001999999ADDGA1071+002131999GE19AGL   +99999+99999GF199999071999002131999999MA1103001999999MW1101MW2611REMMET079METAR ZSSS 240000Z 32004MPS 5000 -RA BR BKN007 02/00 Q1030 BECMG TL0140 BKN010=
0168583670999992024022400304+31198+121336FM-15+000399999V0203101N00401002131CN005000199+00201+00001999999ADDGA1071+002131999GE19AGL   +99999+99999GF199999071999002131999999MA1103001999999MW1101MW2611REMMET065METAR ZSSS 240030Z 31004MPS 5000 -RA BR BKN007 02/00 Q1030 NOSIG=
0168583670999992024022401004+31198+121336FM-15+000399999V0203201N00501002131CN005000199+00201+00001999999ADDGA1071+002131999GE19AGL   +99999+99999GF199999071999002131999999MA1103001999999MW1101MW2611REMMET065METAR ZSSS 240100Z 32005MPS 5000 -RA BR BKN007 02/00 Q1030 NOSIG=
0168583670999992024022401304+31198+121336FM-15+000399999V0203301N00501002131CN005000199+00101+00001999999ADDGA1071+002131999GE19AGL   +99999+99999GF199999071999002131999999MA1103001999999MW1101MW2611REMMET065METAR ZSSS 240130Z 33005MPS 5000 -RA BR BKN007 01/00 Q1030 NOSIG=
0168583670999992024022402004+31198+121336FM-15+000399999V0203301N00501002131CN004000199+00201+00001999999ADDGA1071+002131999GE19AGL   +99999+99999GF199999071999002131999999MA1103001999999MW1101MW2611REMMET065METAR ZSSS 240200Z 33005MPS 4000 -RA BR BKN007 02/00 Q1030 NOSIG=
0168583670999992024022402304+31198+121336FM-15+000399999V0203201N00401002131CN004000199+00201+00001999999ADDGA1071+002131999GE19AGL   +99999+99999GF199999071999002131999999MA1103001999999MW1101MW2611REMMET065METAR ZSSS 240230Z 32004MPS 4000 -RA BR BKN007 02/00 Q1030 NOSIG=
0167583670999992024022403004+31198+121336FM-15+000399999V0203201V00401002131CN006000199+00201+00101999999ADDGA1071+002131999GE19AGL   +99999+99999GF199999071999002131999999MA1102901999999MW1611REMMET070METAR ZSSS 240300Z 32004MPS 290V350 6000 -RA BKN007 02/01 Q1029 NOSIG=
0168583670999992024022403304+31198+121336FM-15+000399999V0203201N00401002131CN005000199+00201+00001999999ADDGA1071+002131999GE19AGL   +99999+99999GF199999071999002131999999MA1102901999999MW1101MW2611REMMET065METAR ZSSS 240330Z 32004MPS 5000 -RA BR BKN007 02/00 Q1029 NOSIG=
0182583670999992024022404004+31198+121336FM-15+000399999V0203201N00501002441CN005000199+00201+00101999999ADDGA1071+002441999GE19AGL   +99999+99999GF199999071999002441999999MA1102901999999MW1101MW2611REMMET079METAR ZSSS 240400Z 32005MPS 5000 -RA BR BKN008 02/01 Q1029 BECMG TL0550 BKN010=
0176583670999992024022404304+31198+121336FM-15+000399999V0203301V00401002441CN005000199+00201+00101999999ADDGA1071+002441999GE19AGL   +99999+99999GF199999071999002441999999MA1102901999999MW1101MW2611REMMET073METAR ZSSS 240430Z 33004MPS 290V350 5000 -RA BR BKN008 02/01 Q1029 NOSIG=
0176583670999992024022405004+31198+121336FM-15+000399999V0203301V00501002441CN005000199+00201+00101999999ADDGA1071+002441999GE19AGL   +99999+99999GF199999071999002441999999MA1102801999999MW1101MW2611REMMET073METAR ZSSS 240500Z 33005MPS 300V360 5000 -RA BR BKN008 02/01 Q1028 NOSIG=
0176583670999992024022405304+31198+121336FM-15+000399999V0203101V00501002441CN003500199+00201+00101999999ADDGA1071+002441999GE19AGL   +99999+99999GF199999071999002441999999MA1102801999999MW1101MW2611REMMET073METAR ZSSS 240530Z 31005MPS 270V340 3500 -RA BR BKN008 02/01 Q1028 NOSIG=
0168583670999992024022406004+31198+121336FM-15+000399999V0203201N00501002131CN002500199+00201+00101999999ADDGA1071+002131999GE19AGL   +99999+99999GF199999071999002131999999MA1102801999999MW1101MW2611REMMET065METAR ZSSS 240600Z 32005MPS 2500 -RA BR BKN007 02/01 Q1028 NOSIG=
0176583670999992024022406304+31198+121336FM-15+000399999V0203201V00501002131CN002500199+00201+00101999999ADDGA1071+002131999GE19AGL   +99999+99999GF199999071999002131999999MA1102801999999MW1101MW2611REMMET073METAR ZSSS 240630Z 32005MPS 290V350 2500 -RA BR BKN007 02/01 Q1028 NOSIG=
0143583670999992024022407004+31198+121336FM-15+000399999V0203101N005019999999N002500199+00205+00105999999ADDMA1102805999999MW1105MW2615MW3795REMMET079METAR ZSSS 240700Z 31005MPS 2500 -PLRA BR BKN007 02/01 Q1028 BECMG TL0820 3000=EQDD01      0ADE735
0168583670999992024022407304+31198+121336FM-15+000399999V0203201N00601001831CN003000199+00201+00101999999ADDGA1071+001831999GE19AGL   +99999+99999GF199999071999001831999999MA1102801999999MW1101MW2611REMMET065METAR ZSSS 240730Z 32006MPS 3000 -RA BR BKN006 02/01 Q1028 NOSIG=
0168583670999992024022408004+31198+121336FM-15+000399999V0203201N00601001831CN003000199+00101+00001999999ADDGA1071+001831999GE19AGL   +99999+99999GF199999071999001831999999MA1102801999999MW1101MW2611REMMET065METAR ZSSS 240800Z 32006MPS 3000 -RA BR BKN006 01/00 Q1028 NOSIG=
0166583670999992024022408304+31198+121336FM-15+000399999V0203201V00601002441CN005000199+00101+00001999999ADDGA1071+002441999GE19AGL   +99999+99999GF199999071999002441999999MA1102801999999MW1101REMMET069METAR ZSSS 240830Z 32006MPS 280V350 5000 BR BKN008 01/00 Q1028 NOSIG=
0158583670999992024022409004+31198+121336FM-15+000399999V0203201N00501002441CN005000199+00101+00001999999ADDGA1071+002441999GE19AGL   +99999+99999GF199999071999002441999999MA1102801999999MW1101REMMET061METAR ZSSS 240900Z 32005MPS 5000 BR BKN008 01/00 Q1028 NOSIG=
0158583670999992024022409304+31198+121336FM-15+000399999V0203201V00501002741CN006000199+00101+00001999999ADDGA1071+002741999GE19AGL   +99999+99999GF199999071999002741999999MA1102801999999REMMET067METAR ZSSS 240930Z 32005MPS 290V010 6000 BKN009 01/M00 Q1028 NOSIG=
0150583670999992024022410004+31198+121336FM-15+000399999V0203201N00501002741CN006000199+00101+00001999999ADDGA1071+002741999GE19AGL   +99999+99999GF199999071999002741999999MA1102801999999REMMET059METAR ZSSS 241000Z 32005MPS 6000 BKN009 01/M00 Q1028 NOSIG=
0150583670999992024022410304+31198+121336FM-15+000399999V0203201N00501002741CN007000199+00101+00001999999ADDGA1071+002741999GE19AGL   +99999+99999GF199999071999002741999999MA1102801999999REMMET059METAR ZSSS 241030Z 32005MPS 7000 BKN009 01/M00 Q1028 NOSIG=
0164583670999992024022411004+31198+121336FM-15+000399999V0203301N00501002741CN008000199+00101-00101999999ADDGA1071+002741999GE19AGL   +99999+99999GF199999071999002741999999MA1102901999999REMMET073METAR ZSSS 241100Z 33005MPS 8000 BKN009 01/M01 Q1029 BECMG TL1220 BKN010=
0150583670999992024022411304+31198+121336FM-15+000399999V0203201N00501003351CN008000199+00101-00101999999ADDGA1071+003351999GE19AGL   +99999+99999GF199999071999003351999999MA1102801999999REMMET059METAR ZSSS 241130Z 32005MPS 8000 BKN011 01/M01 Q1028 NOSIG=
0172583670999992024022412004+31198+121336FM-15+000399999V0203201V00501003961CN009999199+00101-00101999999ADDGA1071+003961999GE19AGL   +99999+99999GF199999071999003961999999MA1102901999999REMMET081METAR ZSSS 241200Z 32005MPS 280V350 9999 BKN013 01/M01 Q1029 BECMG TL1250 BKN015=
0150583670999992024022412304+31198+121336FM-15+000399999V0203201N00401004881CN009999199+00101-00201999999ADDGA1071+004881999GE19AGL   +99999+99999GF199999071999004881999999MA1102901999999REMMET059METAR ZSSS 241230Z 32004MPS 9999 BKN016 01/M02 Q1029 NOSIG=
0150583670999992024022413004+31198+121336FM-15+000399999V0203201N00501004881CN009999199+00101-00201999999ADDGA1071+004881999GE19AGL   +99999+99999GF199999071999004881999999MA1102901999999REMMET059METAR ZSSS 241300Z 32005MPS 9999 BKN016 01/M02 Q1029 NOSIG=
0150583670999992024022413304+31198+121336FM-15+000399999V0203201N00501003961CN008000199+00101-00201999999ADDGA1071+003961999GE19AGL   +99999+99999GF199999071999003961999999MA1102901999999REMMET059METAR ZSSS 241330Z 32005MPS 8000 BKN013 01/M02 Q1029 NOSIG=
0164583670999992024022414004+31198+121336FM-15+000399999V0203101N00401003961CN008000199+00101-00201999999ADDGA1071+003961999GE19AGL   +99999+99999GF199999071999003961999999MA1102901999999REMMET073METAR ZSSS 241400Z 31004MPS 8000 BKN013 01/M02 Q1029 BECMG TL1450 BKN015=
0150583670999992024022414304+31198+121336FM-15+000399999V0203101N00501004881CN008000199+00101-00201999999ADDGA1071+004881999GE19AGL   +99999+99999GF199999071999004881999999MA1102901999999REMMET059METAR ZSSS 241430Z 31005MPS 8000 BKN016 01/M02 Q1029 NOSIG=
0150583670999992024022415004+31198+121336FM-15+000399999V0203101N00601006101CN008000199+00101-00301999999ADDGA1071+006101999GE19AGL   +99999+99999GF199999071999006101999999MA1102901999999REMMET059METAR ZSSS 241500Z 31006MPS 8000 BKN020 01/M03 Q1029 NOSIG=
0168583670999992024022415304+31198+121336FM-15+000399999V0203101V00501005491CN008000199+00101-00301999999ADDGA1071+005491999GE19AGL   +99999+99999GF199999071999005491999999MA1102901999999MW1611REMMET071METAR ZSSS 241530Z 31005MPS 280V340 8000 -RA BKN018 01/M03 Q1029 NOSIG=
0158583670999992024022416004+31198+121336FM-15+000399999V0203101V00601004881CN008000199+00101-00301999999ADDGA1071+004881999GE19AGL   +99999+99999GF199999071999004881999999MA1102901999999REMMET067METAR ZSSS 241600Z 31006MPS 290V350 8000 BKN016 01/M03 Q1029 NOSIG=
0158583670999992024022416304+31198+121336FM-15+000399999V0203101V00501004881CN008000199+00101-00301999999ADDGA1071+004881999GE19AGL   +99999+99999GF199999071999004881999999MA1102901999999REMMET067METAR ZSSS 241630Z 31005MPS 270V340 8000 BKN016 01/M03 Q1029 NOSIG=
0158583670999992024022417004+31198+121336FM-15+000399999V0203201V00601004881CN008000199+00001-00301999999ADDGA1071+004881999GE19AGL   +99999+99999GF199999071999004881999999MA1102901999999REMMET067METAR ZSSS 241700Z 32006MPS 280V340 8000 BKN016 00/M03 Q1029 NOSIG=
0150583670999992024022417304+31198+121336FM-15+000399999V0203201N00701004881CN008000199+00001-00301999999ADDGA1071+004881999GE19AGL   +99999+99999GF199999071999004881999999MA1102901999999REMMET059METAR ZSSS 241730Z 32007MPS 8000 BKN016 00/M03 Q1029 NOSIG=
0150583670999992024022418004+31198+121336FM-15+000399999V0203101N00601006101CN008000199+00001-00401999999ADDGA1071+006101999GE19AGL   +99999+99999GF199999071999006101999999MA1102901999999REMMET059METAR ZSSS 241800Z 31006MPS 8000 BKN020 00/M04 Q1029 NOSIG=
0158583670999992024022418304+31198+121336FM-15+000399999V0203201V00601006101CN008000199+00001-00401999999ADDGA1071+006101999GE19AGL   +99999+99999GF199999071999006101999999MA1102901999999REMMET067METAR ZSSS 241830Z 32006MPS 280V340 8000 BKN020 00/M04 Q1029 NOSIG=
0168583670999992024022419004+31198+121336FM-15+000399999V0203101V00701007011CN008000199+00001-00501999999ADDGA1071+007011999GE19AGL   +99999+99999GF199999071999007011999999MA1102901999999MW1711REMMET071METAR ZSSS 241900Z 31007MPS 280V340 8000 -SN BKN023 00/M05 Q1029 NOSIG=
0160583670999992024022419304+31198+121336FM-15+000399999V0203201N00601007011CN009999199+00001-00401999999ADDGA1071+007011999GE19AGL   +99999+99999GF199999071999007011999999MA1102901999999MW1711REMMET063METAR ZSSS 241930Z 32006MPS 9999 -SN BKN023 00/M04 Q1029 NOSIG=
0161583670999992024022420004+31198+121336FM-15+000399999V0203201N00601007011CN009999199+00001-00301999999ADDGA1071+007011999GE19AGL   +99999+99999GF199999071999007011999999MA1102901999999MW1711REMMET064METAR ZSSS 242000Z 32006MPS 9999 -SN BKN023 M00/M03 Q1029 NOSIG=
0169583670999992024022420304+31198+121336FM-15+000399999V0203101V00601006101CN009999199+00001-00401999999ADDGA1071+006101999GE19AGL   +99999+99999GF199999071999006101999999MA1102901999999MW1711REMMET072METAR ZSSS 242030Z 31006MPS 280V340 9999 -SN BKN020 M00/M04 Q1029 NOSIG=
0161583670999992024022421004+31198+121336FM-15+000399999V0203101N00501006101CN008000199-00101-00301999999ADDGA1071+006101999GE19AGL   +99999+99999GF199999071999006101999999MA1102901999999MW1711REMMET064METAR ZSSS 242100Z 31005MPS 8000 -SN BKN020 M01/M03 Q1029 NOSIG=
0161583670999992024022421304+31198+121336FM-15+000399999V0203101N00501006101CN008000199-00101-00301999999ADDGA1071+006101999GE19AGL   +99999+99999GF199999071999006101999999MA1102901999999MW1711REMMET064METAR ZSSS 242130Z 31005MPS 8000 -SN BKN020 M01/M03 Q1029 NOSIG=
0161583670999992024022422004+31198+121336FM-15+000399999V0203001N00601006101CN008000199+00001-00301999999ADDGA1071+006101999GE19AGL   +99999+99999GF199999071999006101999999MA1102901999999MW1711REMMET064METAR ZSSS 242200Z 30006MPS 8000 -SN BKN020 M00/M03 Q1029 NOSIG=
0161583670999992024022422304+31198+121336FM-15+000399999V0203001N00501006101CN007000199-00101-00301999999ADDGA1071+006101999GE19AGL   +99999+99999GF199999071999006101999999MA1103001999999MW1711REMMET064METAR ZSSS 242230Z 30005MPS 7000 -SN BKN020 M01/M03 Q1030 NOSIG=
0169583670999992024022423004+31198+121336FM-15+000399999V0203001V00401006101CN007000199+00001-00301999999ADDGA1071+006101999GE19AGL   +99999+99999GF199999071999006101999999MA1103001999999MW1711REMMET072METAR ZSSS 242300Z 30004MPS 260V330 7000 -SN BKN020 M00/M03 Q1030 NOSIG=
0161583670999992024022423304+31198+121336FM-15+000399999V0203001N00601006101CN006000199+00001-00301999999ADDGA1071+006101999GE19AGL   +99999+99999GF199999071999006101999999MA1103001999999MW1711REMMET064METAR ZSSS 242330Z 30006MPS 6000 -SN BKN020 M00/M03 Q1030 NOSIG=
0169583670999992024022500004+31198+121336FM-15+000399999V0203001V00401006101CN006000199+00001-00301999999ADDGA1071+006101999GE19AGL   +99999+99999GF199999071999006101999999MA1103001999999MW1711REMMET072METAR ZSSS 250000Z 30004MPS 270V340 6000 -SN BKN020 M00/M03 Q1030 NOSIG=
0158583670999992024022500304+31198+121336FM-15+000399999V0202901V00401006101CN007000199+00001-00301999999ADDGA1071+006101999GE19AGL   +99999+99999GF199999071999006101999999MA1103001999999REMMET067METAR ZSSS 250030Z 29004MPS 260V320 7000 BKN020 00/M03 Q1030 NOSIG=
0150583670999992024022501004+31198+121336FM-15+000399999V0203001N00501006101CN007000199+00001-00401999999ADDGA1071+006101999GE19AGL   +99999+99999GF199999071999006101999999MA1103001999999REMMET059METAR ZSSS 250100Z 30005MPS 7000 BKN020 00/M04 Q1030 NOSIG=
0158583670999992024022501304+31198+121336FM-15+000399999V0203101V00501006101CN007000199+00101-00301999999ADDGA1071+006101999GE19AGL   +99999+99999GF199999071999006101999999MA1103001999999REMMET067METAR ZSSS 250130Z 31005MPS 280V340 7000 BKN020 01/M03 Q1030 NOSIG=
0158583670999992024022502004+31198+121336FM-15+000399999V0202901V00601006101CN007000199+00101-00301999999ADDGA1071+006101999GE19AGL   +99999+99999GF199999071999006101999999MA1103001999999REMMET067METAR ZSSS 250200Z 29006MPS 260V320 7000 BKN020 01/M03 Q1030 NOSIG=
0169583670999992024022502304+31198+121336FM-15+000399999V0203101N00501006101CN003500199+00101-00301999999ADDGA1071+006101999GE19AGL   +99999+99999GF199999071999006101999999MA1103001999999MW1101MW2711REMMET066METAR ZSSS 250230Z 31005MPS 3500 -SN BR BKN020 01/M03 Q1030 NOSIG=
0188583670999992024022503004+31198+121336FM-15+000399999V0203001N00501004881CN003000199+00001-00201999999ADDGA1071+004881999GE19AGL   +99999+99999GF199999071999004881999999MA1103001999999MW1101MW2711REMMET085METAR ZSSS 250300Z 30005MPS 3000 -SN BR BKN016 00/M02 Q1030 BECMG TL0330 2500 BKN013=
0177583670999992024022503304+31198+121336FM-15+000399999V0203101V00401003351CN002500199+00101-00101999999ADDGA1071+003351999GE19AGL   +99999+99999GF199999071999003351999999MA1103001999999MW1101MW2711REMMET074METAR ZSSS 250330Z 31004MPS 280V340 2500 -SN BR BKN011 01/M01 Q1030 NOSIG=
0188583670999992024022504004+31198+121336FM-15+000399999V0203201N00501003351CN002800199+00101-00101999999ADDGA1071+003351999GE19AGL   +99999+99999GF199999071999003351999999MA1102901999999MW1101MW2711REMMET085METAR ZSSS 250400Z 32005MPS 2800 -SN BR BKN011 01/M01 Q1029 BECMG TL0450 3500 BKN015=
0177583670999992024022504304+31198+121336FM-15+000399999V0203201V00501004571CN005000199+00201-00201999999ADDGA1071+004571999GE19AGL   +99999+99999GF199999071999004571999999MA1102901999999MW1101MW2711REMMET074METAR ZSSS 250430Z 32005MPS 290V360 5000 -SN BR BKN015 02/M02 Q1029 NOSIG=
0168583670999992024022505004+31198+121336FM-15+000399999V0203201V00501004571CN006000199+00201-00201999999ADDGA1071+004571999GE19AGL   +99999+99999GF199999071999004571999999MA1102901999999MW1711REMMET071METAR ZSSS 250500Z 32005MPS 270V360 6000 -SN BKN015 02/M02 Q1029 NOSIG=
0168583670999992024022505304+31198+121336FM-15+000399999V0203201V00401004571CN007000199+00301-00201999999ADDGA1071+004571999GE19AGL   +99999+99999GF199999071999004571999999MA1102901999999MW1711REMMET071METAR ZSSS 250530Z 32004MPS 290V360 7000 -SN BKN015 03/M02 Q1029 NOSIG=
0158583670999992024022506004+31198+121336FM-15+000399999V0203001V00501006101CN008000199+00301-00301999999ADDGA1071+006101999GE19AGL   +99999+99999GF199999071999006101999999MA1102801999999REMMET067METAR ZSSS 250600Z 30005MPS 270V330 8000 BKN020 03/M03 Q1028 NOSIG=
0158583670999992024022506304+31198+121336FM-15+000399999V0203201V00501007921CN008000199+00401-00301999999ADDGA1071+007921999GE19AGL   +99999+99999GF199999071999007921999999MA1102801999999REMMET067METAR ZSSS 250630Z 32005MPS 290V360 8000 BKN026 04/M03 Q1028 NOSIG=
0150583670999992024022507004+31198+121336FM-15+000399999V0203201N00601007921CN009999199+00401-00401999999ADDGA1071+007921999GE19AGL   +99999+99999GF199999071999007921999999MA1102801999999REMMET059METAR ZSSS 250700Z 32006MPS 9999 BKN026 04/M04 Q1028 NOSIG=
0158583670999992024022507304+31198+121336FM-15+000399999V0203301V00501010061CN009999199+00401-00401999999ADDGA1071+010061999GE19AGL   +99999+99999GF199999071999010061999999MA1102901999999REMMET067METAR ZSSS 250730Z 33005MPS 290V360 9999 BKN033 04/M04 Q1029 NOSIG=
0150583670999992024022508004+31198+121336FM-15+000399999V0203501N00601010061CN009999199+00401-00401999999ADDGA1071+010061999GE19AGL   +99999+99999GF199999071999010061999999MA1102901999999REMMET059METAR ZSSS 250800Z 35006MPS 9999 BKN033 04/M04 Q1029 NOSIG=
0158583670999992024022508304+31198+121336FM-15+000399999V0203401V00601010061CN009999199+00401-00401999999ADDGA1071+010061999GE19AGL   +99999+99999GF199999071999010061999999MA1102901999999REMMET067METAR ZSSS 250830Z 34006MPS 300V360 9999 BKN033 04/M04 Q1029 NOSIG=
0150583670999992024022509004+31198+121336FM-15+000399999V0203101N00501010061CN009999199+00401-00401999999ADDGA1071+010061999GE19AGL   +99999+99999GF199999071999010061999999MA1102901999999REMMET059METAR ZSSS 250900Z 31005MPS 9999 BKN033 04/M04 Q1029 NOSIG=
0158583670999992024022509304+31198+121336FM-15+000399999V0203301V00501010061CN009999199+00301-00401999999ADDGA1071+010061999GE19AGL   +99999+99999GF199999071999010061999999MA1102901999999REMMET067METAR ZSSS 250930Z 33005MPS 290V350 9999 BKN033 03/M04 Q1029 NOSIG=
0158583670999992024022510004+31198+121336FM-15+000399999V0203401V00401010061CN009999199+00301-00401999999ADDGA1071+010061999GE19AGL   +99999+99999GF199999071999010061999999MA1102901999999REMMET067METAR ZSSS 251000Z 34004MPS 310V010 9999 BKN033 03/M04 Q1029 NOSIG=
0150583670999992024022510304+31198+121336FM-15+000399999V0203501N00401010061CN009999199+00301-00401999999ADDGA1071+010061999GE19AGL   +99999+99999GF199999071999010061999999MA1102901999999REMMET059METAR ZSSS 251030Z 35004MPS 9999 BKN033 03/M04 Q1029 NOSIG=
0150583670999992024022511004+31198+121336FM-15+000399999V0203401N00401010061CN009999199+00301-00401999999ADDGA1071+010061999GE19AGL   +99999+99999GF199999071999010061999999MA1103001999999REMMET059METAR ZSSS 251100Z 34004MPS 9999 BKN033 03/M04 Q1030 NOSIG=
0150583670999992024022511304+31198+121336FM-15+000399999V0203501N00401010061CN009999199+00301-00401999999ADDGA1071+010061999GE19AGL   +99999+99999GF199999071999010061999999MA1103001999999REMMET059METAR ZSSS 251130Z 35004MPS 9999 BKN033 03/M04 Q1030 NOSIG=
0158583670999992024022512004+31198+121336FM-15+000399999V0203501V00401010061CN009999199+00301-00301999999ADDGA1071+010061999GE19AGL   +99999+99999GF199999071999010061999999MA1103001999999REMMET067METAR ZSSS 251200Z 35004MPS 320V020 9999 BKN033 03/M03 Q1030 NOSIG=
0150583670999992024022512304+31198+121336FM-15+000399999V0203601N00501010061CN009999199+00301-00301999999ADDGA1071+010061999GE19AGL   +99999+99999GF199999071999010061999999MA1103001999999REMMET059METAR ZSSS 251230Z 36005MPS 9999 BKN033 03/M03 Q1030 NOSIG=
0173583670999992024022513004+31198+121336FM-15+000399999V0203601N005010121919N009999199+00301-00201999999ADDGA1021+009141999GA2071+012191999GE19AGL   +99999+99999GF199999021999009141999999MA1103001999999REMMET066METAR ZSSS 251300Z 36005MPS 9999 FEW030 BKN040 03/M02 Q1030 NOSIG=
0181583670999992024022513304+31198+121336FM-15+000399999V0203501V004010121919N009999199+00301-00201999999ADDGA1021+009141999GA2071+012191999GE19AGL   +99999+99999GF199999021999009141999999MA1103101999999REMMET074METAR ZSSS 251330Z 35004MPS 320V020 9999 FEW030 BKN040 03/M02 Q1031 NOSIG=
0173583670999992024022514004+31198+121336FM-15+000399999V0203601N006010121919N009999199+00301-00201999999ADDGA1021+009141999GA2071+012191999GE19AGL   +99999+99999GF199999021999009141999999MA1103101999999REMMET066METAR ZSSS 251400Z 36006MPS 9999 FEW030 BKN040 03/M02 Q1031 NOSIG=
0173583670999992024022514304+31198+121336FM-15+000399999V0203601N005010121919N009999199+00301-00201999999ADDGA1021+009141999GA2071+012191999GE19AGL   +99999+99999GF199999021999009141999999MA1103101999999REMMET066METAR ZSSS 251430Z 36005MPS 9999 FEW030 BKN040 03/M02 Q1031 NOSIG=
0150583670999992024022515004+31198+121336FM-15+000399999V0203501N00501012191CN009999199+00301-00201999999ADDGA1071+012191999GE19AGL   +99999+99999GF199999071999012191999999MA1103101999999REMMET059METAR ZSSS 251500Z 35005MPS 9999 BKN040 03/M02 Q1031 NOSIG=
0150583670999992024022515304+31198+121336FM-15+000399999V0203501N005019999999N009999199+00201-00201999999ADDGA1021+012191999GE19AGL   +99999+99999GF199999021999012191999999MA1103001999999REMMET059METAR ZSSS 251530Z 35005MPS 9999 FEW040 02/M02 Q1030 NOSIG=
0080583670999992024022516004+31198+121336FM-15+000399999V0203301N005019999999Y009900599+00201-00301999999ADDMA1103101999999REMMET053METAR ZSSS 251600Z 33005MPS CAVOK 02/M03 Q1031 NOSIG=
0080583670999992024022516304+31198+121336FM-15+000399999V0203401N004019999999Y009900599+00201-00201999999ADDMA1103101999999REMMET053METAR ZSSS 251630Z 34004MPS CAVOK 02/M02 Q1031 NOSIG=
0080583670999992024022517004+31198+121336FM-15+000399999V0203301N004019999999Y009900599+00201-00201999999ADDMA1103001999999REMMET053METAR ZSSS 251700Z 33004MPS CAVOK 02/M02 Q1030 NOSIG=
0080583670999992024022517304+31198+121336FM-15+000399999V0203301N004019999999Y009900599+00201-00201999999ADDMA1103101999999REMMET053METAR ZSSS 251730Z 33004MPS CAVOK 02/M02 Q1031 NOSIG=
0080583670999992024022518004+31198+121336FM-15+000399999V0203401N004019999999Y009900599+00201-00201999999ADDMA1103101999999REMMET053METAR ZSSS 251800Z 34004MPS CAVOK 02/M02 Q1031 NOSIG=
0080583670999992024022518304+31198+121336FM-15+000399999V0203501N005019999999Y009900599+00201-00201999999ADDMA1103101999999REMMET053METAR ZSSS 251830Z 35005MPS CAVOK 02/M02 Q1031 NOSIG=
0080583670999992024022519004+31198+121336FM-15+000399999V0200101N006019999999Y009900599+00201-00201999999ADDMA1103001999999REMMET053METAR ZSSS 251900Z 01006MPS CAVOK 02/M02 Q1030 NOSIG=
0080583670999992024022519304+31198+121336FM-15+000399999V0203401N005019999999Y009900599+00201-00201999999ADDMA1103001999999REMMET053METAR ZSSS 251930Z 34005MPS CAVOK 02/M02 Q1030 NOSIG=
0080583670999992024022520004+31198+121336FM-15+000399999V0203401N005019999999Y009900599+00201-00201999999ADDMA1103001999999REMMET053METAR ZSSS 252000Z 34005MPS CAVOK 02/M02 Q1030 NOSIG=
0080583670999992024022520304+31198+121336FM-15+000399999V0203501N004019999999Y009900599+00201-00201999999ADDMA1103001999999REMMET053METAR ZSSS 252030Z 35004MPS CAVOK 02/M02 Q1030 NOSIG=
0080583670999992024022521004+31198+121336FM-15+000399999V0203501N005019999999Y009900599+00201-00301999999ADDMA1103001999999REMMET053METAR ZSSS 252100Z 35005MPS CAVOK 02/M03 Q1030 NOSIG=
0080583670999992024022521304+31198+121336FM-15+000399999V0203401N004019999999Y009900599+00201-00201999999ADDMA1103101999999REMMET053METAR ZSSS 252130Z 34004MPS CAVOK 02/M02 Q1031 NOSIG=
0080583670999992024022522004+31198+121336FM-15+000399999V0203401N003019999999Y009900599+00101-00201999999ADDMA1103001999999REMMET053METAR ZSSS 252200Z 34003MPS CAVOK 01/M02 Q1030 NOSIG=
0109583670999992024022522304+31198+121336FM-15+000399999V0203501N004012200019N007000199+00101-00301999999ADDGF100991999999999999999999MA1103001999999REMMET056METAR ZSSS 252230Z 35004MPS 7000 NSC 01/M03 Q1030 NOSIG=
0109583670999992024022523004+31198+121336FM-15+000399999V0200101N003012200019N007000199+00101-00201999999ADDGF100991999999999999999999MA1103001999999REMMET056METAR ZSSS 252300Z 01003MPS 7000 NSC 01/M02 Q1030 NOSIG=
0109583670999992024022523304+31198+121336FM-15+000399999V0203501N004012200019N007000199+00301-00101999999ADDGF100991999999999999999999MA1103101999999REMMET056METAR ZSSS 252330Z 35004MPS 7000 NSC 03/M01 Q1031 NOSIG=
0109583670999992024022600004+31198+121336FM-15+000399999V0203601N004012200019N007000199+00301-00101999999ADDGF100991999999999999999999MA1103101999999REMMET056METAR ZSSS 260000Z 36004MPS 7000 NSC 03/M01 Q1031 NOSIG=
0080583670999992024022600304+31198+121336FM-15+000399999V0203601N003019999999Y009900599+00401-00101999999ADDMA1103101999999REMMET053METAR ZSSS 260030Z 36003MPS CAVOK 04/M01 Q1031 NOSIG=
0080583670999992024022601004+31198+121336FM-15+000399999V0200101N004019999999Y009900599+00501-00101999999ADDMA1103101999999REMMET053METAR ZSSS 260100Z 01004MPS CAVOK 05/M01 Q1031 NOSIG=
0088583670999992024022601304+31198+121336FM-15+000399999V0203601V004019999999Y009900599+00501+00001999999ADDMA1103101999999REMMET061METAR ZSSS 260130Z 36004MPS 320V030 CAVOK 05/M00 Q1031 NOSIG=
0158583670999992024022602004+31198+121336FM-15+000399999V0200301V00401007921CN009999199+00601-00101999999ADDGA1071+007921999GE19AGL   +99999+99999GF199999071999007921999999MA1103101999999REMMET067METAR ZSSS 260200Z 03004MPS 360V070 9999 BKN026 06/M01 Q1031 NOSIG=
0150583670999992024022602304+31198+121336FM-15+000399999V0200201N00401007921CN009999199+00701+00001999999ADDGA1071+007921999GE19AGL   +99999+99999GF199999071999007921999999MA1103101999999REMMET059METAR ZSSS 260230Z 02004MPS 9999 BKN026 07/M00 Q1031 NOSIG=
0158583670999992024022603004+31198+121336FM-15+000399999V0200201V00501007921CN009999199+00801+00001999999ADDGA1071+007921999GE19AGL   +99999+99999GF199999071999007921999999MA1103001999999REMMET067METAR ZSSS 260300Z 02005MPS 350V060 9999 BKN026 08/M00 Q1030 NOSIG=
0150583670999992024022603304+31198+121336FM-15+000399999V0200401N00501007921CN009999199+00801+00001999999ADDGA1071+007921999GE19AGL   +99999+99999GF199999071999007921999999MA1103001999999REMMET059METAR ZSSS 260330Z 04005MPS 9999 BKN026 08/M00 Q1030 NOSIG=
0158583670999992024022604004+31198+121336FM-15+000399999V0200401V005019999999N009999199+00801-00201999999ADDGA1021+007921999GE19AGL   +99999+99999GF199999021999007921999999MA1103001999999REMMET067METAR ZSSS 260400Z 04005MPS 330V060 9999 FEW026 08/M02 Q1030 NOSIG=
0158583670999992024022604304+31198+121336FM-15+000399999V0200101V004019999999N009999199+00901-00101999999ADDGA1021+012191999GE19AGL   +99999+99999GF199999021999012191999999MA1103001999999REMMET067METAR ZSSS 260430Z 01004MPS 330V050 9999 FEW040 09/M01 Q1030 NOSIG=
0150583670999992024022605004+31198+121336FM-15+000399999V0200401N006019999999N009999199+00901-00201999999ADDGA1021+012191999GE19AGL   +99999+99999GF199999021999012191999999MA1102901999999REMMET059METAR ZSSS 260500Z 04006MPS 9999 FEW040 09/M02 Q1029 NOSIG=
0158583670999992024022605304+31198+121336FM-15+000399999V0200101V005019999999N009999199+00901-00201999999ADDGA1021+012191999GE19AGL   +99999+99999GF199999021999012191999999MA1102901999999REMMET067METAR ZSSS 260530Z 01005MPS 350V060 9999 FEW040 09/M02 Q1029 NOSIG=
0150583670999992024022606004+31198+121336FM-15+000399999V0203601N006019999999N009999199+00801-00301999999ADDGA1021+012191999GE19AGL   +99999+99999GF199999021999012191999999MA1102901999999REMMET059METAR ZSSS 260600Z 36006MPS 9999 FEW040 08/M03 Q1029 NOSIG=
0088583670999992024022606304+31198+121336FM-15+000399999V0200101V005019999999Y009900599+00801-00401999999ADDMA1102901999999REMMET061METAR ZSSS 260630Z 01005MPS 350V050 CAVOK 08/M04 Q1029 NOSIG=
0080583670999992024022607004+31198+121336FM-15+000399999V0200101N006019999999Y009900599+00801-00301999999ADDMA1102901999999REMMET053METAR ZSSS 260700Z 01006MPS CAVOK 08/M03 Q1029 NOSIG=
0080583670999992024022607304+31198+121336FM-15+000399999V0200201N006019999999Y009900599+00801-00201999999ADDMA1102901999999REMMET053METAR ZSSS 260730Z 02006MPS CAVOK 08/M02 Q1029 NOSIG=
0080583670999992024022608004+31198+121336FM-15+000399999V0200301N006019999999Y009900599+00701-00201999999ADDMA1102901999999REMMET053METAR ZSSS 260800Z 03006MPS CAVOK 07/M02 Q1029 NOSIG=
0080583670999992024022608304+31198+121336FM-15+000399999V0200201N007019999999Y009900599+00701-00301999999ADDMA1102901999999REMMET053METAR ZSSS 260830Z 02007MPS CAVOK 07/M03 Q1029 NOSIG=
0080583670999992024022609004+31198+121336FM-15+000399999V0200301N006019999999Y009900599+00601-00201999999ADDMA1102901999999REMMET053METAR ZSSS 260900Z 03006MPS CAVOK 06/M02 Q1029 NOSIG=
0088583670999992024022609304+31198+121336FM-15+000399999V0200301V005019999999Y009900599+00601-00201999999ADDMA1102901999999REMMET061METAR ZSSS 260930Z 03005MPS 010V070 CAVOK 06/M02 Q1029 NOSIG=
0080583670999992024022610004+31198+121336FM-15+000399999V0200501N005019999999Y009900599+00601-00201999999ADDMA1102901999999REMMET053METAR ZSSS 261000Z 05005MPS CAVOK 06/M02 Q1029 NOSIG=
0080583670999992024022610304+31198+121336FM-15+000399999V0200501N004019999999Y009900599+00601-00201999999ADDMA1102901999999REMMET053METAR ZSSS 261030Z 05004MPS CAVOK 06/M02 Q1029 NOSIG=
0080583670999992024022611004+31198+121336FM-15+000399999V0200401N004019999999Y009900599+00501-00201999999ADDMA1102901999999REMMET053METAR ZSSS 261100Z 04004MPS CAVOK 05/M02 Q1029 NOSIG=
0080583670999992024022611304+31198+121336FM-15+000399999V0200401N004019999999Y009900599+00501-00201999999ADDMA1102901999999REMMET053METAR ZSSS 261130Z 04004MPS CAVOK 05/M02 Q1029 NOSIG=
0080583670999992024022612004+31198+121336FM-15+000399999V0200101N005019999999Y009900599+00501-00101999999ADDMA1103001999999REMMET053METAR ZSSS 261200Z 01005MPS CAVOK 05/M01 Q1030 NOSIG=
0080583670999992024022612304+31198+121336FM-15+000399999V0200201N004019999999Y009900599+00501-00101999999ADDMA1103001999999REMMET053METAR ZSSS 261230Z 02004MPS CAVOK 05/M01 Q1030 NOSIG=
0080583670999992024022613004+31198+121336FM-15+000399999V0200101N006019999999Y009900599+00501+00001999999ADDMA1103001999999REMMET053METAR ZSSS 261300Z 01006MPS CAVOK 05/M00 Q1030 NOSIG=
0080583670999992024022613304+31198+121336FM-15+000399999V0200201N006019999999Y009900599+00401-00101999999ADDMA1103001999999REMMET053METAR ZSSS 261330Z 02006MPS CAVOK 04/M01 Q1030 NOSIG=
0080583670999992024022614004+31198+121336FM-15+000399999V0200201N005019999999Y009900599+00401-00101999999ADDMA1103001999999REMMET053METAR ZSSS 261400Z 02005MPS CAVOK 04/M01 Q1030 NOSIG=
0080583670999992024022614304+31198+121336FM-15+000399999V0200101N006019999999Y009900599+00401-00101999999ADDMA1103001999999REMMET053METAR ZSSS 261430Z 01006MPS CAVOK 04/M01 Q1030 NOSIG=
0080583670999992024022615004+31198+121336FM-15+000399999V0200101N005019999999Y009900599+00401-00101999999ADDMA1103001999999REMMET053METAR ZSSS 261500Z 01005MPS CAVOK 04/M01 Q1030 NOSIG=
0080583670999992024022615304+31198+121336FM-15+000399999V0200101N006019999999Y009900599+00401-00101999999ADDMA1103001999999REMMET053METAR ZSSS 261530Z 01006MPS CAVOK 04/M01 Q1030 NOSIG=
0080583670999992024022616004+31198+121336FM-15+000399999V0203601N005019999999Y009900599+00401+00001999999ADDMA1103001999999REMMET053METAR ZSSS 261600Z 36005MPS CAVOK 04/M00 Q1030 NOSIG=
0150583670999992024022616304+31198+121336FM-15+000399999V0203601N005019999999N009999199+00401+00001999999ADDGA1021+006101999GE19AGL   +99999+99999GF199999021999006101999999MA1103001999999REMMET059METAR ZSSS 261630Z 36005MPS 9999 FEW020 04/M00 Q1030 NOSIG=
0150583670999992024022617004+31198+121336FM-15+000399999V0203601N005019999999N009999199+00401+00001999999ADDGA1021+006101999GE19AGL   +99999+99999GF199999021999006101999999MA1103001999999REMMET059METAR ZSSS 261700Z 36005MPS 9999 FEW020 04/M00 Q1030 NOSIG=
0150583670999992024022617304+31198+121336FM-15+000399999V0203601N005019999999N009999199+00401+00001999999ADDGA1021+006101999GE19AGL   +99999+99999GF199999021999006101999999MA1103001999999REMMET059METAR ZSSS 261730Z 36005MPS 9999 FEW020 04/M00 Q1030 NOSIG=
0080583670999992024022618004+31198+121336FM-15+000399999V0203601N004019999999Y009900599+00401+00001999999ADDMA1103001999999REMMET053METAR ZSSS 261800Z 36004MPS CAVOK 04/M00 Q1030 NOSIG=
0080583670999992024022618304+31198+121336FM-15+000399999V0203601N004019999999Y009900599+00401+00001999999ADDMA1103001999999REMMET053METAR ZSSS 261830Z 36004MPS CAVOK 04/M00 Q1030 NOSIG=
0080583670999992024022619004+31198+121336FM-15+000399999V0203601N004019999999Y009900599+00401+00001999999ADDMA1102901999999REMMET053METAR ZSSS 261900Z 36004MPS CAVOK 04/M00 Q1029 NOSIG=
0080583670999992024022619304+31198+121336FM-15+000399999V0203601N004019999999Y009900599+00401+00001999999ADDMA1102901999999REMMET053METAR ZSSS 261930Z 36004MPS CAVOK 04/M00 Q1029 NOSIG=
0080583670999992024022620004+31198+121336FM-15+000399999V0203601N004019999999Y009900599+00301+00001999999ADDMA1102901999999REMMET053METAR ZSSS 262000Z 36004MPS CAVOK 03/M00 Q1029 NOSIG=
0080583670999992024022620304+31198+121336FM-15+000399999V0203501N004019999999Y009900599+00401+00001999999ADDMA1102901999999REMMET053METAR ZSSS 262030Z 35004MPS CAVOK 04/M00 Q1029 NOSIG=
0080583670999992024022621004+31198+121336FM-15+000399999V0203501N004019999999Y009900599+00301-00101999999ADDMA1103001999999REMMET053METAR ZSSS 262100Z 35004MPS CAVOK 03/M01 Q1030 NOSIG=
0080583670999992024022621304+31198+121336FM-15+000399999V0203401N003019999999Y009900599+00301+00001999999ADDMA1103001999999REMMET053METAR ZSSS 262130Z 34003MPS CAVOK 03/M00 Q1030 NOSIG=
0080583670999992024022622004+31198+121336FM-15+000399999V0203401N003019999999Y009900599+00301-00101999999ADDMA1103001999999REMMET053METAR ZSSS 262200Z 34003MPS CAVOK 03/M01 Q1030 NOSIG=
0080583670999992024022622304+31198+121336FM-15+000399999V0203601N002019999999Y009900599+00301-00101999999ADDMA1102901999999REMMET053METAR ZSSS 262230Z 36002MPS CAVOK 03/M01 Q1029 NOSIG=
0080583670999992024022623004+31198+121336FM-15+000399999V0203401N003019999999Y009900599+00401+00001999999ADDMA1103001999999REMMET053METAR ZSSS 262300Z 34003MPS CAVOK 04/M00 Q1030 NOSIG=
0080583670999992024022623304+31198+121336FM-15+000399999V0203301N003019999999Y009900599+00401+00001999999ADDMA1103001999999REMMET053METAR ZSSS 262330Z 33003MPS CAVOK 04/M00 Q1030 NOSIG=
0088583670999992024022700004+31198+121336FM-15+000399999V0203401V003019999999Y009900599+00501+00001999999ADDMA1103001999999REMMET061METAR ZSSS 270000Z 34003MPS 310V010 CAVOK 05/M00 Q1030 NOSIG=
0079583670999992024022700304+31198+121336FM-15+000399999V0200201N003019999999Y009900599+00501+00001999999ADDMA1103001999999REMMET052METAR ZSSS 270030Z 02003MPS CAVOK 05/00 Q1030 NOSIG=
0087583670999992024022701004+31198+121336FM-15+000399999V0200101V003019999999Y009900599+00601+00001999999ADDMA1103001999999REMMET060METAR ZSSS 270100Z 01003MPS 340V050 CAVOK 06/00 Q1030 NOSIG=
0087583670999992024022701304+31198+121336FM-15+000399999V0200301V002019999999Y009900599+00601+00101999999ADDMA1103001999999REMMET060METAR ZSSS 270130Z 03002MPS 330V070 CAVOK 06/01 Q1030 NOSIG=
0087583670999992024022702004+31198+121336FM-15+000399999V0203501V002019999999Y009900599+00701+00001999999ADDMA1103001999999REMMET060METAR ZSSS 270200Z 35002MPS 270V060 CAVOK 07/00 Q1030 NOSIG=
0149583670999992024022702304+31198+121336FM-15+000399999V0209999V001019999999N009999199+00801+00101999999ADDGA1041+009141999GE19AGL   +99999+99999GF199999041999009141999999MA1102901999999REMMET058METAR ZSSS 270230Z VRB01MPS 9999 SCT030 08/01 Q1029 NOSIG=
0149583670999992024022703004+31198+121336FM-15+000399999V0209999V001019999999N009999199+00901+00101999999ADDGA1041+010061999GE19AGL   +99999+99999GF199999041999010061999999MA1103001999999REMMET058METAR ZSSS 270300Z VRB01MPS 9999 SCT033 09/01 Q1030 NOSIG=
0149583670999992024022703304+31198+121336FM-15+000399999V0209999V00101010061CN009999199+00901+00001999999ADDGA1071+010061999GE19AGL   +99999+99999GF199999071999010061999999MA1103001999999REMMET058METAR ZSSS 270330Z VRB01MPS 9999 BKN033 09/00 Q1030 NOSIG=
0157583670999992024022704004+31198+121336FM-15+000399999V0203601V00401010061CN009999199+01001+00101999999ADDGA1071+010061999GE19AGL   +99999+99999GF199999071999010061999999MA1102901999999REMMET066METAR ZSSS 270400Z 36004MPS 300V030 9999 BKN033 10/01 Q1029 NOSIG=
0158583670999992024022704304+31198+121336FM-15+000399999V0203301V00401010061CN009999199+00901+00001999999ADDGA1071+010061999GE19AGL   +99999+99999GF199999071999010061999999MA1102901999999REMMET067METAR ZSSS 270430Z 33004MPS 290V010 9999 BKN033 09/M00 Q1029 NOSIG=
0158583670999992024022705004+31198+121336FM-15+000399999V0200101V00301010061CN009999199+00901+00001999999ADDGA1071+010061999GE19AGL   +99999+99999GF199999071999010061999999MA1102901999999REMMET067METAR ZSSS 270500Z 01003MPS 270V060 9999 BKN033 09/M00 Q1029 NOSIG=
0158583670999992024022705304+31198+121336FM-15+000399999V0203601V00201012191CN009999199+00901+00001999999ADDGA1071+012191999GE19AGL   +99999+99999GF199999071999012191999999MA1102801999999REMMET067METAR ZSSS 270530Z 36002MPS 320V070 9999 BKN040 09/M00 Q1028 NOSIG=
0158583670999992024022706004+31198+121336FM-15+000399999V0203401V003019999999N009999199+01001+00001999999ADDGA1041+012191999GE19AGL   +99999+99999GF199999041999012191999999MA1102801999999REMMET067METAR ZSSS 270600Z 34003MPS 260V060 9999 SCT040 10/M00 Q1028 NOSIG=
0158583670999992024022706304+31198+121336FM-15+000399999V0200701V002019999999N009999199+01001-00101999999ADDGA1041+012191999GE19AGL   +99999+99999GF199999041999012191999999MA1102701999999REMMET067METAR ZSSS 270630Z 07002MPS 360V130 9999 SCT040 10/M01 Q1027 NOSIG=
0158583670999992024022707004+31198+121336FM-15+000399999V0203501V00201012191CN009999199+01101-00101999999ADDGA1071+012191999GE19AGL   +99999+99999GF199999071999012191999999MA1102701999999REMMET067METAR ZSSS 270700Z 35002MPS 310V070 9999 BKN040 11/M01 Q1027 NOSIG=
0158583670999992024022707304+31198+121336FM-15+000399999V0200101V00301012191CN009999199+00901-00201999999ADDGA1071+012191999GE19AGL   +99999+99999GF199999071999012191999999MA1102701999999REMMET067METAR ZSSS 270730Z 01003MPS 330V040 9999 BKN040 09/M02 Q1027 NOSIG=
0158583670999992024022708004+31198+121336FM-15+000399999V0203601V002019999999N009999199+00901-00101999999ADDGA1041+012191999GE19AGL   +99999+99999GF199999041999012191999999MA1102701999999REMMET067METAR ZSSS 270800Z 36002MPS 320V050 9999 SCT040 09/M01 Q1027 NOSIG=
0150583670999992024022708304+31198+121336FM-15+000399999V0203601N003019999999N009999199+00901-00101999999ADDGA1021+012191999GE19AGL   +99999+99999GF199999021999012191999999MA1102601999999REMMET059METAR ZSSS 270830Z 36003MPS 9999 FEW040 09/M01 Q1026 NOSIG=
0158583670999992024022709004+31198+121336FM-15+000399999V0200801V002019999999N009999199+00901-00101999999ADDGA1021+012191999GE19AGL   +99999+99999GF199999021999012191999999MA1102601999999REMMET067METAR ZSSS 270900Z 08002MPS 020V130 9999 FEW040 09/M01 Q1026 NOSIG=
0088583670999992024022709304+31198+121336FM-15+000399999V0200501V003019999999Y009900599+00901-00101999999ADDMA1102601999999REMMET061METAR ZSSS 270930Z 05003MPS 010V070 CAVOK 09/M01 Q1026 NOSIG=
0150583670999992024022710004+31198+121336FM-15+000399999V0200601N004019999999N009999199+00801-00101999999ADDGA1021+012191999GE19AGL   +99999+99999GF199999021999012191999999MA1102701999999REMMET059METAR ZSSS 271000Z 06004MPS 9999 FEW040 08/M01 Q1027 NOSIG=
0158583670999992024022710304+31198+121336FM-15+000399999V0200601V004019999999N009999199+00801+00001999999ADDGA1021+012191999GE19AGL   +99999+99999GF199999021999012191999999MA1102701999999REMMET067METAR ZSSS 271030Z 06004MPS 040V100 9999 FEW040 08/M00 Q1027 NOSIG=
0149583670999992024022711004+31198+121336FM-15+000399999V0200601N004019999999N009999199+00801+00101999999ADDGA1021+010061999GE19AGL   +99999+99999GF199999021999010061999999MA1102701999999REMMET058METAR ZSSS 271100Z 06004MPS 9999 FEW033 08/01 Q1027 NOSIG=
0157583670999992024022711304+31198+121336FM-15+000399999V0200601V004019999999N009999199+00701+00201999999ADDGA1021+009141999GE19AGL   +99999+99999GF199999021999009141999999MA1102801999999REMMET066METAR ZSSS 271130Z 06004MPS 030V100 9999 FEW030 07/02 Q1028 NOSIG=
0149583670999992024022712004+31198+121336FM-15+000399999V0200601N004019999999N009999199+00601+00201999999ADDGA1021+009141999GE19AGL   +99999+99999GF199999021999009141999999MA1102801999999REMMET058METAR ZSSS 271200Z 06004MPS 9999 FEW030 06/02 Q1028 NOSIG=
0149583670999992024022712304+31198+121336FM-15+000399999V0200401N004019999999N009999199+00501+00101999999ADDGA1021+009141999GE19AGL   +99999+99999GF199999021999009141999999MA1102801999999REMMET058METAR ZSSS 271230Z 04004MPS 9999 FEW030 05/01 Q1028 NOSIG=
0149583670999992024022713004+31198+121336FM-15+000399999V0200501N003019999999N009999199+00501+00101999999ADDGA1021+009141999GE19AGL   +99999+99999GF199999021999009141999999MA1102801999999REMMET058METAR ZSSS 271300Z 05003MPS 9999 FEW030 05/01 Q1028 NOSIG=
0149583670999992024022713304+31198+121336FM-15+000399999V0200601N003019999999N009999199+00501+00101999999ADDGA1021+009141999GE19AGL   +99999+99999GF199999021999009141999999MA1102801999999REMMET058METAR ZSSS 271330Z 06003MPS 9999 FEW030 05/01 Q1028 NOSIG=
0149583670999992024022714004+31198+121336FM-15+000399999V0200701N002019999999N009999199+00501+00101999999ADDGA1041+010061999GE19AGL   +99999+99999GF199999041999010061999999MA1102801999999REMMET058METAR ZSSS 271400Z 07002MPS 9999 SCT033 05/01 Q1028 NOSIG=
0157583670999992024022714304+31198+121336FM-15+000399999V0200701V002019999999N009999199+00601+00101999999ADDGA1041+010061999GE19AGL   +99999+99999GF199999041999010061999999MA1102801999999REMMET066METAR ZSSS 271430Z 07002MPS 040V100 9999 SCT033 06/01 Q1028 NOSIG=
0157583670999992024022715004+31198+121336FM-15+000399999V0200301V002019999999N009999199+00601+00101999999ADDGA1041+010061999GE19AGL   +99999+99999GF199999041999010061999999MA1102801999999REMMET066METAR ZSSS 271500Z 03002MPS 350V080 9999 SCT033 06/01 Q1028 NOSIG=
0149583670999992024022715304+31198+121336FM-15+000399999V0209999V00101012191CN009999199+00501+00101999999ADDGA1071+012191999GE19AGL   +99999+99999GF199999071999012191999999MA1102801999999REMMET058METAR ZSSS 271530Z VRB01MPS 9999 BKN040 05/01 Q1028 NOSIG=
0149583670999992024022716004+31198+121336FM-15+000399999V0200101N00201012191CN009999199+00501+00101999999ADDGA1071+012191999GE19AGL   +99999+99999GF199999071999012191999999MA1102701999999REMMET058METAR ZSSS 271600Z 01002MPS 9999 BKN040 05/01 Q1027 NOSIG=
0149583670999992024022716304+31198+121336FM-15+000399999V0203601N003019999999N009999199+00401+00101999999ADDGA1021+012191999GE19AGL   +99999+99999GF199999021999012191999999MA1102701999999REMMET058METAR ZSSS 271630Z 36003MPS 9999 FEW040 04/01 Q1027 NOSIG=
0149583670999992024022717004+31198+121336FM-15+000399999V0203601N002019999999N009999199+00501+00201999999ADDGA1041+012191999GE19AGL   +99999+99999GF199999041999012191999999MA1102701999999REMMET058METAR ZSSS 271700Z 36002MPS 9999 SCT040 05/02 Q1027 NOSIG=
0149583670999992024022717304+31198+121336FM-15+000399999V0203601N00301010061CN009999199+00501+00201999999ADDGA1071+010061999GE19AGL   +99999+99999GF199999071999010061999999MA1102701999999REMMET058METAR ZSSS 271730Z 36003MPS 9999 BKN033 05/02 Q1027 NOSIG=
0149583670999992024022718004+31198+121336FM-15+000399999V0203301N00101010061CN009999199+00501+00201999999ADDGA1071+010061999GE19AGL   +99999+99999GF199999071999010061999999MA1102701999999REMMET058METAR ZSSS 271800Z 33001MPS 9999 BKN033 05/02 Q1027 NOSIG=
0149583670999992024022718304+31198+121336FM-15+000399999V0203601N00301010061CN009999199+00501+00201999999ADDGA1071+010061999GE19AGL   +99999+99999GF199999071999010061999999MA1102701999999REMMET058METAR ZSSS 271830Z 36003MPS 9999 BKN033 05/02 Q1027 NOSIG=
0149583670999992024022719004+31198+121336FM-15+000399999V0203501N00201010061CN009999199+00501+00201999999ADDGA1071+010061999GE19AGL   +99999+99999GF199999071999010061999999MA1102601999999REMMET058METAR ZSSS 271900Z 35002MPS 9999 BKN033 05/02 Q1026 NOSIG=
0149583670999992024022719304+31198+121336FM-15+000399999V0203601N00301007011CN009999199+00501+00201999999ADDGA1071+007011999GE19AGL   +99999+99999GF199999071999007011999999MA1102601999999REMMET058METAR ZSSS 271930Z 36003MPS 9999 BKN023 05/02 Q1026 NOSIG=
0159583670999992024022720004+31198+121336FM-15+000399999V0203601N00301007011CN006000199+00501+00301999999ADDGA1071+007011999GE19AGL   +99999+99999GF199999071999007011999999MA1102601999999MW1611REMMET062METAR ZSSS 272000Z 36003MPS 6000 -RA BKN023 05/03 Q1026 NOSIG=
0168583670999992024022720304+31198+121336FM-15+000399999V0203601N00301007011CN005000199+00501+00401999999ADDGA1081+007011999GE19AGL   +99999+99999GF199999081999007011999999MA1102501999999MW1101MW2611REMMET065METAR ZSSS 272030Z 36003MPS 5000 -RA BR OVC023 05/04 Q1025 NOSIG=
0205583670999992024022721004+31198+121336FM-15+000399999V0203601N002010070119N005000199+00501+00401999999ADDGA1041+003351999GA2081+007011999GE19AGL   +99999+99999GF199999041999003351999999MA1102601999999MW1101MW2611REMMET086METAR ZSSS 272100Z 36002MPS 5000 -RA BR SCT011 OVC023 05/04 Q1026 BECMG TL2210 BKN007=
0191583670999992024022721304+31198+121336FM-15+000399999V0203601N00201002131CN005000199+00501+00401999999ADDGA1071+002131999GA2081+007011999GE19AGL   +99999+99999GF199999071999002131999999MA1102501999999MW1101MW2611REMMET072METAR ZSSS 272130Z 36002MPS 5000 -RA BR BKN007 OVC023 05/04 Q1025 NOSIG=
0205583670999992024022722004+31198+121336FM-15+000399999V0200101N00301001831CN003000199+00501+00401999999ADDGA1071+001831999GA2081+007011999GE19AGL   +99999+99999GF199999071999001831999999MA1102501999999MW1101MW2611REMMET086METAR ZSSS 272200Z 01003MPS 3000 -RA BR BKN006 OVC023 05/04 Q1025 BECMG TL2310 BKN004=
0191583670999992024022722304+31198+121336FM-15+000399999V0203601N00301001221CN002500199+00501+00401999999ADDGA1071+001221999GA2081+007011999GE19AGL   +99999+99999GF199999071999001221999999MA1102401999999MW1101MW2611REMMET072METAR ZSSS 272230Z 36003MPS 2500 -RA BR BKN004 OVC023 05/04 Q1024 NOSIG=
0210583670999992024022723004+31198+121336FM-15+000399999V0200101N00301001221CN002000199+00501+00501999999ADDGA1071+001221999GA2081+007011999GE19AGL   +99999+99999GF199999071999001221999999MA1102401999999MW1101MW2611REMMET091METAR ZSSS 272300Z 01003MPS 2000 -RA BR BKN004 OVC023 05/05 Q1024 BECMG TL0040 3000 BKN005=
0191583670999992024022723304+31198+121336FM-15+000399999V0203601N00301001221CN002000199+00501+00501999999ADDGA1071+001221999GA2081+007011999GE19AGL   +99999+99999GF199999071999001221999999MA1102401999999MW1101MW2611REMMET072METAR ZSSS 272330Z 36003MPS 2000 -RA BR BKN004 OVC023 05/05 Q1024 NOSIG=
0218583670999992024022800004+31198+121336FM-15+000399999V0203501V00301001221CN001500199+00601+00501999999ADDGA1071+001221999GA2081+007011999GE19AGL   +99999+99999GF199999071999001221999999MA1102501999999MW1101MW2611REMMET099METAR ZSSS 280000Z 35003MPS 310V010 1500 -RA BR BKN004 OVC023 06/05 Q1025 BECMG TL0150 3000 BKN005=
0191583670999992024022800304+31198+121336FM-15+000399999V0203201N00301001221CN001500199+00601+00501999999ADDGA1071+001221999GA2081+007011999GE19AGL   +99999+99999GF199999071999001221999999MA1102501999999MW1101MW2611REMMET072METAR ZSSS 280030Z 32003MPS 1500 -RA BR BKN004 OVC023 06/05 Q1025 NOSIG=
0211583670999992024022801004+31198+121336FM-15+000399999V0203201V00201001221CN001800199+00601+00501999999ADDGA1071+001221999GA2081+007011999GE19AGL   +99999+99999GF199999071999001221999999MA1102501999999MW1101MW2611REMMET092METAR ZSSS 280100Z 32002MPS 290V350 1800 -RA BR BKN004 OVC023 06/05 Q1025 BECMG TL0240 3000=
0191583670999992024022801304+31198+121336FM-15+000399999V0203301N00301001221CN002500199+00601+00501999999ADDGA1071+001221999GA2081+007011999GE19AGL   +99999+99999GF199999071999001221999999MA1102501999999MW1101MW2611REMMET072METAR ZSSS 280130Z 33003MPS 2500 -RA BR BKN004 OVC023 06/05 Q1025 NOSIG=
0213583670999992024022802004+31198+121336FM-15+000399999V0203501V00301001221CN005000199+00601+00501999999ADDGA1071+001221999GA2081+007011999GE19AGL   +99999+99999GF199999071999001221999999MA1102501999999MW1101MW2611REMMET094METAR ZSSS 280200Z 35003MPS 320V020 5000 -RA BR BKN004 OVC023 06/05 Q1025 BECMG TL0330 BKN005=
0182583670999992024022802304+31198+121336FM-15+000399999V0200201N00401001221CN006000199+00601+00501999999ADDGA1071+001221999GA2081+007011999GE19AGL   +99999+99999GF199999071999001221999999MA1102401999999MW1611REMMET069METAR ZSSS 280230Z 02004MPS 6000 -RA BKN004 OVC023 06/05 Q1024 NOSIG=
0182583670999992024022803004+31198+121336FM-15+000399999V0203601N00401001521CN006000199+00601+00501999999ADDGA1071+001521999GA2081+007011999GE19AGL   +99999+99999GF199999071999001521999999MA1102401999999MW1611REMMET069METAR ZSSS 280300Z 36004MPS 6000 -RA BKN005 OVC023 06/05 Q1024 NOSIG=
0182583670999992024022803304+31198+121336FM-15+000399999V0203601N00301001521CN006000199+00701+00601999999ADDGA1071+001521999GA2081+007011999GE19AGL   +99999+99999GF199999071999001521999999MA1102401999999MW1611REMMET069METAR ZSSS 280330Z 36003MPS 6000 -RA BKN005 OVC023 07/06 Q1024 NOSIG=
0182583670999992024022804004+31198+121336FM-15+000399999V0203601N00201002131CN006000199+00701+00601999999ADDGA1071+002131999GA2081+010061999GE19AGL   +99999+99999GF199999071999002131999999MA1102401999999MW1611REMMET069METAR ZSSS 280400Z 36002MPS 6000 -RA BKN007 OVC033 07/06 Q1024 NOSIG=
0191583670999992024022804304+31198+121336FM-15+000399999V0200101N00201002131CN003000199+00801+00701999999ADDGA1071+002131999GA2081+010061999GE19AGL   +99999+99999GF199999071999002131999999MA1102301999999MW1101MW2611REMMET072METAR ZSSS 280430Z 01002MPS 3000 -RA BR BKN007 OVC033 08/07 Q1023 NOSIG=
0211583670999992024022805004+31198+121336FM-15+000399999V0203501V00201002131CN003000199+00801+00701999999ADDGA1071+002131999GA2081+010061999GE19AGL   +99999+99999GF199999071999002131999999MA1102301999999MW1101MW2611REMMET092METAR ZSSS 280500Z 35002MPS 310V030 3000 -RA BR BKN007 OVC033 08/07 Q1023 BECMG TL0530 2500=
0191583670999992024022805304+31198+121336FM-15+000399999V0209999V00101002441CN004000199+00801+00801999999ADDGA1071+002441999GA2081+010061999GE19AGL   +99999+99999GF199999071999002441999999MA1102301999999MW1101MW2611REMMET072METAR ZSSS 280530Z VRB01MPS 4000 -RA BR BKN008 OVC033 08/08 Q1023 NOSIG=
0204583670999992024022806004+31198+121336FM-15+000399999V0201101V00201002441CN008000199+00901+00801999999ADDGA1071+002441999GA2081+012191999GE19AGL   +99999+99999GF199999071999002441999999MA1102201999999MW1611REMMET091METAR ZSSS 280600Z 11002MPS 060V160 8000 -RA BKN008 OVC040 09/08 Q1022 BECMG TL0650 BKN010=
0167583670999992024022806304+31198+121336FM-15+000399999V0201201V00301003051CN006000199+00901+00801999999ADDGA1071+003051999GE19AGL   +99999+99999GF199999071999003051999999MA1102201999999MW1611REMMET070METAR ZSSS 280630Z 12003MPS 090V150 6000 -RA BKN010 09/08 Q1022 NOSIG=
0191583670999992024022807004+31198+121336FM-15+000399999V0209999V00101002441CN005000199+01001+00801999999ADDGA1071+002441999GA2081+012191999GE19AGL   +99999+99999GF199999071999002441999999MA1102201999999MW1101MW2611REMMET072METAR ZSSS 280700Z VRB01MPS 5000 -RA BR BKN008 OVC040 10/08 Q1022 NOSIG=
0199583670999992024022807304+31198+121336FM-15+000399999V0201101V00201001831CN003500199+00901+00801999999ADDGA1071+001831999GA2081+012191999GE19AGL   +99999+99999GF199999071999001831999999MA1102201999999MW1101MW2611REMMET080METAR ZSSS 280730Z 11002MPS 080V140 3500 -RA BR BKN006 OVC040 09/08 Q1022 NOSIG=
0218583670999992024022808004+31198+121336FM-15+000399999V0201201V00301001831CN003500199+00901+00801999999ADDGA1071+001831999GA2081+012191999GE19AGL   +99999+99999GF199999071999001831999999MA1102201999999MW1101MW2611REMMET099METAR ZSSS 280800Z 12003MPS 090V160 3500 -RA BR BKN006 OVC040 09/08 Q1022 BECMG TL0940 2500 BKN004=
0191583670999992024022808304+31198+121336FM-15+000399999V0201201N00201001831CN002800199+00901+00801999999ADDGA1071+001831999GA2081+012191999GE19AGL   +99999+99999GF199999071999001831999999MA1102201999999MW1101MW2611REMMET072METAR ZSSS 280830Z 12002MPS 2800 -RA BR BKN006 OVC040 09/08 Q1022 NOSIG=
0211583670999992024022809004+31198+121336FM-15+000399999V0201501V00201001831CN003500199+00901+00801999999ADDGA1071+001831999GA2081+012191999GE19AGL   +99999+99999GF199999071999001831999999MA1102201999999MW1101MW2611REMMET092METAR ZSSS 280900Z 15002MPS 120V190 3500 -RA BR BKN006 OVC040 09/08 Q1022 BECMG TL1030 2800=
0191583670999992024022809304+31198+121336FM-15+000399999V0209999V00101001831CN003000199+00901+00801999999ADDGA1071+001831999GA2081+012191999GE19AGL   +99999+99999GF199999071999001831999999MA1102201999999MW1101MW2611REMMET072METAR ZSSS 280930Z VRB01MPS 3000 -RA BR BKN006 OVC040 09/08 Q1022 NOSIG=
0205583670999992024022810004+31198+121336FM-15+000399999V0209999V00101001831CN003000199+00901+00801999999ADDGA1071+001831999GA2081+012191999GE19AGL   +99999+99999GF199999071999001831999999MA1102201999999MW1101MW2611REMMET086METAR ZSSS 281000Z VRB01MPS 3000 -RA BR BKN006 OVC040 09/08 Q1022 BECMG TL1130 BKN004=
0191583670999992024022810304+31198+121336FM-15+000399999V0209999V00101001831CN003500199+00901+00801999999ADDGA1071+001831999GA2081+012191999GE19AGL   +99999+99999GF199999071999001831999999MA1102201999999MW1101MW2611REMMET072METAR ZSSS 281030Z VRB01MPS 3500 -RA BR BKN006 OVC040 09/08 Q1022 NOSIG=
0191583670999992024022811004+31198+121336FM-15+000399999V0209999V00101001831CN004000199+00901+00801999999ADDGA1071+001831999GA2081+012191999GE19AGL   +99999+99999GF199999071999001831999999MA1102301999999MW1101MW2611REMMET072METAR ZSSS 281100Z VRB01MPS 4000 -RA BR BKN006 OVC040 09/08 Q1023 NOSIG=
0199583670999992024022811304+31198+121336FM-15+000399999V0201001V00201002441CN004000199+00901+00801999999ADDGA1071+002441999GA2081+012191999GE19AGL   +99999+99999GF199999071999002441999999MA1102301999999MW1101MW2611REMMET080METAR ZSSS 281130Z 10002MPS 080V160 4000 -RA BR BKN008 OVC040 09/08 Q1023 NOSIG=
0213583670999992024022812004+31198+121336FM-15+000399999V0201001V00201002441CN004000199+00901+00801999999ADDGA1071+002441999GA2081+012191999GE19AGL   +99999+99999GF199999071999002441999999MA1102301999999MW1101MW2611REMMET094METAR ZSSS 281200Z 10002MPS 080V140 4000 -RA BR BKN008 OVC040 09/08 Q1023 BECMG TL1230 BKN010=
0199583670999992024022812304+31198+121336FM-15+000399999V0201201V00201003051CN004000199+00901+00801999999ADDGA1071+003051999GA2081+012191999GE19AGL   +99999+99999GF199999071999003051999999MA1102301999999MW1101MW2611REMMET080METAR ZSSS 281230Z 12002MPS 080V160 4000 -RA BR BKN010 OVC040 09/08 Q1023 NOSIG=
0213583670999992024022813004+31198+121336FM-15+000399999V0201101V00201003051CN004000199+00901+00801999999ADDGA1071+003051999GA2081+012191999GE19AGL   +99999+99999GF199999071999003051999999MA1102301999999MW1101MW2611REMMET094METAR ZSSS 281300Z 11002MPS 080V150 4000 -RA BR BKN010 OVC040 09/08 Q1023 BECMG TL1440 BKN008=
0180583670999992024022813304+31198+121336FM-15+000399999V0201001V00301002131CN008000199+00901+00801999999ADDGA1071+002131999GA2081+012191999GE19AGL   +99999+99999GF199999071999002131999999MA1102301999999REMMET073METAR ZSSS 281330Z 10003MPS 060V150 8000 BKN007 OVC040 09/08 Q1023 NOSIG=
0199583670999992024022814004+31198+121336FM-15+000399999V0201001V00201001831CN005000199+00901+00801999999ADDGA1071+001831999GA2081+012191999GE19AGL   +99999+99999GF199999071999001831999999MA1102301999999MW1101MW2611REMMET080METAR ZSSS 281400Z 10002MPS 070V150 5000 -RA BR BKN006 OVC040 09/08 Q1023 NOSIG=
0199583670999992024022814304+31198+121336FM-15+000399999V0201101V00201001831CN005000199+00901+00801999999ADDGA1071+001831999GA2081+012191999GE19AGL   +99999+99999GF199999071999001831999999MA1102301999999MW1101MW2611REMMET080METAR ZSSS 281430Z 11002MPS 080V170 5000 -RA BR BKN006 OVC040 09/08 Q1023 NOSIG=
0199583670999992024022815004+31198+121336FM-15+000399999V0201101V00201001831CN005000199+00901+00801999999ADDGA1071+001831999GA2081+012191999GE19AGL   +99999+99999GF199999071999001831999999MA1102301999999MW1101MW2611REMMET080METAR ZSSS 281500Z 11002MPS 080V150 5000 -RA BR BKN006 OVC040 09/08 Q1023 NOSIG=
0199583670999992024022815304+31198+121336FM-15+000399999V0201001V00201001831CN005000199+00901+00801999999ADDGA1071+001831999GA2081+012191999GE19AGL   +99999+99999GF199999071999001831999999MA1102201999999MW1101MW2611REMMET080METAR ZSSS 281530Z 10002MPS 080V150 5000 -RA BR BKN006 OVC040 09/08 Q1022 NOSIG=
0191583670999992024022816004+31198+121336FM-15+000399999V0209999V00101001831CN005000199+00901+00801999999ADDGA1071+001831999GA2081+012191999GE19AGL   +99999+99999GF199999071999001831999999MA1102301999999MW1101MW2611REMMET072METAR ZSSS 281600Z VRB01MPS 5000 -RA BR BKN006 OVC040 09/08 Q1023 NOSIG=
0191583670999992024022816304+31198+121336FM-15+000399999V0201601N00101001831CN005000199+00901+00801999999ADDGA1071+001831999GA2081+012191999GE19AGL   +99999+99999GF199999071999001831999999MA1102301999999MW1101MW2611REMMET072METAR ZSSS 281630Z 16001MPS 5000 -RA BR BKN006 OVC040 09/08 Q1023 NOSIG=
0203583670999992024022817004+31198+121336FM-15+000399999V0202201N00201001831CN004000199+00901+00801999999ADDGA1071+001831999GA2081+012191999GE19AGL   +99999+99999GF199999071999001831999999MA1102301999999MW1101MW2611REMMET084METAR ZSSS 281700Z 22002MPS 4000 -RA BR BKN006 OVC040 09/08 Q1023 BECMG TL1840 2800=
0191583670999992024022817304+31198+121336FM-15+000399999V0202501N00201000911CN002800199+00801+00701999999ADDGA1071+000911999GA2081+012191999GE19AGL   +99999+99999GF199999071999000911999999MA1102201999999MW1101MW2611REMMET072METAR ZSSS 281730Z 25002MPS 2800 -RA BR BKN003 OVC040 08/07 Q1022 NOSIG=
0203583670999992024022818004+31198+121336FM-15+000399999V0202501N00101000611CN002800199+00801+00701999999ADDGA1071+000611999GA2081+012191999GE19AGL   +99999+99999GF199999071999000611999999MA1102101999999MW1101MW2611REMMET084METAR ZSSS 281800Z 25001MPS 2800 -RA BR BKN002 OVC040 08/07 Q1021 BECMG TL1850 3000=
0191583670999992024022818304+31198+121336FM-15+000399999V0202501N00301000611CN004000199+00701+00701999999ADDGA1071+000611999GA2081+012191999GE19AGL   +99999+99999GF199999071999000611999999MA1102101999999MW1101MW2611REMMET072METAR ZSSS 281830Z 25003MPS 4000 -RA BR BKN002 OVC040 07/07 Q1021 NOSIG=
0191583670999992024022819004+31198+121336FM-15+000399999V0202701N00301000611CN004000199+00701+00701999999ADDGA1071+000611999GA2081+012191999GE19AGL   +99999+99999GF199999071999000611999999MA1102101999999MW1101MW2611REMMET072METAR ZSSS 281900Z 27003MPS 4000 -RA BR BKN002 OVC040 07/07 Q1021 NOSIG=
0191583670999992024022819304+31198+121336FM-15+000399999V0202801N00301000911CN005000199+00701+00701999999ADDGA1071+000911999GA2081+012191999GE19AGL   +99999+99999GF199999071999000911999999MA1102001999999MW1101MW2611REMMET072METAR ZSSS 281930Z 28003MPS 5000 -RA BR BKN003 OVC040 07/07 Q1020 NOSIG=
0182583670999992024022820004+31198+121336FM-15+000399999V0202701N00301000911CN007000199+00701+00601999999ADDGA1071+000911999GA2081+012191999GE19AGL   +99999+99999GF199999071999000911999999MA1102001999999MW1611REMMET069METAR ZSSS 282000Z 27003MPS 7000 -RA BKN003 OVC040 07/06 Q1020 NOSIG=
0182583670999992024022820304+31198+121336FM-15+000399999V0202801N00401001221CN007000199+00701+00601999999ADDGA1071+001221999GA2081+012191999GE19AGL   +99999+99999GF199999071999001221999999MA1102101999999MW1611REMMET069METAR ZSSS 282030Z 28004MPS 7000 -RA BKN004 OVC040 07/06 Q1021 NOSIG=
0192583670999992024022822004+31198+121336FM-15+000399999V0202801V00301001521CN008000199+00601+00601999999ADDGA1071+001521999GA2081+012191999GE19AGL   +99999+99999GF199999071999001521999999MA1102101999999MW1801REMMET079METAR ZSSS 282200Z 28003MPS 250V310 8000 -SHRA BKN005 OVC040 06/06 Q1021 NOSIG=
0184583670999992024022822304+31198+121336FM-15+000399999V0202901N00401001831CN007000199+00601+00601999999ADDGA1071+001831999GA2081+012191999GE19AGL   +99999+99999GF199999071999001831999999MA1102101999999MW1801REMMET071METAR ZSSS 282230Z 29004MPS 7000 -SHRA BKN006 OVC040 06/06 Q1021 NOSIG=
0192583670999992024022823004+31198+121336FM-15+000399999V0202901V00401001831CN006000199+00601+00501999999ADDGA1071+001831999GA2081+012191999GE19AGL   +99999+99999GF199999071999001831999999MA1102201999999MW1801REMMET079METAR ZSSS 282300Z 29004MPS 260V330 6000 -SHRA BKN006 OVC040 06/05 Q1022 NOSIG=
0184583670999992024022823304+31198+121336FM-15+000399999V0202801N00401001831CN007000199+00601+00501999999ADDGA1071+001831999GA2081+012191999GE19AGL   +99999+99999GF199999071999001831999999MA1102201999999MW1801REMMET071METAR ZSSS 282330Z 28004MPS 7000 -SHRA BKN006 OVC040 06/05 Q1022 NOSIG=
0198583670999992024022900004+31198+121336FM-15+000399999V0203001N00501001831CN008000199+00601+00501999999ADDGA1071+001831999GA2081+012191999GE19AGL   +99999+99999GF199999071999001831999999MA1102201999999MW1801REMMET085METAR ZSSS 290000Z 30005MPS 8000 -SHRA BKN006 OVC040 06/05 Q1022 BECMG TL0140 BKN010=
0192583670999992024022900304+31198+121336FM-15+000399999V0203201V00401002441CN008000199+00601+00501999999ADDGA1071+002441999GA2081+012191999GE19AGL   +99999+99999GF199999071999002441999999MA1102201999999MW1801REMMET079METAR ZSSS 290030Z 32004MPS 280V350 8000 -SHRA BKN008 OVC040 06/05 Q1022 NOSIG=
0190583670999992024022901004+31198+121336FM-15+000399999V0203001V00401002441CN009999199+00601+00501999999ADDGA1071+002441999GA2081+012191999GE19AGL   +99999+99999GF199999071999002441999999MA1102201999999MW1611REMMET077METAR ZSSS 290100Z 30004MPS 260V330 9999 -RA BKN008 OVC040 06/05 Q1022 NOSIG=
0190583670999992024022901304+31198+121336FM-15+000399999V0203001V00401002441CN009999199+00601+00501999999ADDGA1071+002441999GA2081+012191999GE19AGL   +99999+99999GF199999071999002441999999MA1102201999999MW1611REMMET077METAR ZSSS 290130Z 30004MPS 270V340 9999 -RA BKN008 OVC040 06/05 Q1022 NOSIG=
0204583670999992024022902004+31198+121336FM-15+000399999V0203001V00501002441CN009999199+00601+00501999999ADDGA1071+002441999GA2081+012191999GE19AGL   +99999+99999GF199999071999002441999999MA1102201999999MW1611REMMET091METAR ZSSS 290200Z 30005MPS 270V330 9999 -RA BKN008 OVC040 06/05 Q1022 BECMG TL0340 BKN011=
0182583670999992024022902304+31198+121336FM-15+000399999V0203001N00501002741CN009999199+00601+00501999999ADDGA1071+002741999GA2081+012191999GE19AGL   +99999+99999GF199999071999002741999999MA1102201999999MW1611REMMET069METAR ZSSS 290230Z 30005MPS 9999 -RA BKN009 OVC040 06/05 Q1022 NOSIG=
0196583670999992024022903004+31198+121336FM-15+000399999V0202901N00501002741CN006000199+00601+00501999999ADDGA1071+002741999GA2081+012191999GE19AGL   +99999+99999GF199999071999002741999999MA1102201999999MW1611REMMET083METAR ZSSS 290300Z 29005MPS 6000 -RA BKN009 OVC040 06/05 Q1022 BECMG TL0440 BKN011=
0182583670999992024022903304+31198+121336FM-15+000399999V0202901N00501002131CN003500199+00601+00501999999ADDGA1071+002131999GA2081+012191999GE19AGL   +99999+99999GF199999071999002131999999MA1102201999999MW1611REMMET069METAR ZSSS 290330Z 29005MPS 3500 -RA BKN007 OVC040 06/05 Q1022 NOSIG=
0194583670999992024022904004+31198+121336FM-15+000399999V0202901N00501002131CN003500199+00601+00501999999ADDGA1071+002131999GA2081+012191999GE19AGL   +99999+99999GF199999071999002131999999MA1102201999999MW1611REMMET081METAR ZSSS 290400Z 29005MPS 3500 -RA BKN007 OVC040 06/05 Q1022 BECMG TL0450 2800=
0182583670999992024022904304+31198+121336FM-15+000399999V0202901N00601002131CN002800199+00501+00401999999ADDGA1071+002131999GA2081+012191999GE19AGL   +99999+99999GF199999071999002131999999MA1102201999999MW1611REMMET069METAR ZSSS 290430Z 29006MPS 2800 -RA BKN007 OVC040 05/04 Q1022 NOSIG=
0190583670999992024022905004+31198+121336FM-15+000399999V0202901V00401002131CN003500199+00501+00401999999ADDGA1071+002131999GA2081+012191999GE19AGL   +99999+99999GF199999071999002131999999MA1102201999999MW1611REMMET077METAR ZSSS 290500Z 29004MPS 260V330 3500 -RA BKN007 OVC040 05/04 Q1022 NOSIG=
0190583670999992024022905304+31198+121336FM-15+000399999V0203001V00601002131CN003500199+00501+00401999999ADDGA1071+002131999GA2081+012191999GE19AGL   +99999+99999GF199999071999002131999999MA1102201999999MW1611REMMET077METAR ZSSS 290530Z 30006MPS 270V330 3500 -RA BKN007 OVC040 05/04 Q1022 NOSIG=
0190583670999992024022906004+31198+121336FM-15+000399999V0203001V00401002131CN003000199+00501+00401999999ADDGA1071+002131999GA2081+012191999GE19AGL   +99999+99999GF199999071999002131999999MA1102201999999MW1611REMMET077METAR ZSSS 290600Z 30004MPS 280V340 3000 -RA BKN007 OVC040 05/04 Q1022 NOSIG=
0182583670999992024022906304+31198+121336FM-15+000399999V0203001N00601002131CN003000199+00501+00401999999ADDGA1071+002131999GA2081+012191999GE19AGL   +99999+99999GF199999071999002131999999MA1102201999999MW1611REMMET069METAR ZSSS 290630Z 30006MPS 3000 -RA BKN007 OVC040 05/04 Q1022 NOSIG=
0190583670999992024022907004+31198+121336FM-15+000399999V0203001V00601002131CN003500199+00501+00401999999ADDGA1071+002131999GA2081+012191999GE19AGL   +99999+99999GF199999071999002131999999MA1102201999999MW1611REMMET077METAR ZSSS 290700Z 30006MPS 270V330 3500 -RA BKN007 OVC040 05/04 Q1022 NOSIG=
0182583670999992024022907304+31198+121336FM-15+000399999V0203001N00601002131CN003500199+00501+00401999999ADDGA1071+002131999GA2081+012191999GE19AGL   +99999+99999GF199999071999002131999999MA1102201999999MW1611REMMET069METAR ZSSS 290730Z 30006MPS 3500 -RA BKN007 OVC040 05/04 Q1022 NOSIG=
0182583670999992024022908004+31198+121336FM-15+000399999V0203001N00501002131CN005000199+00501+00401999999ADDGA1071+002131999GA2081+012191999GE19AGL   +99999+99999GF199999071999002131999999MA1102201999999MW1611REMMET069METAR ZSSS 290800Z 30005MPS 5000 -RA BKN007 OVC040 05/04 Q1022 NOSIG=
0190583670999992024022908304+31198+121336FM-15+000399999V0202901V00401001831CN005000199+00501+00401999999ADDGA1071+001831999GA2081+012191999GE19AGL   +99999+99999GF199999071999001831999999MA1102201999999MW1611REMMET077METAR ZSSS 290830Z 29004MPS 250V320 5000 -RA BKN006 OVC040 05/04 Q1022 NOSIG=
0182583670999992024022909004+31198+121336FM-15+000399999V0202901N00501001831CN005000199+00501+00401999999ADDGA1071+001831999GA2081+012191999GE19AGL   +99999+99999GF199999071999001831999999MA1102301999999MW1611REMMET069METAR ZSSS 290900Z 29005MPS 5000 -RA BKN006 OVC040 05/04 Q1023 NOSIG=
0182583670999992024022909304+31198+121336FM-15+000399999V0202901N00501001831CN003000199+00501+00401999999ADDGA1071+001831999GA2081+012191999GE19AGL   +99999+99999GF199999071999001831999999MA1102301999999MW1611REMMET069METAR ZSSS 290930Z 29005MPS 3000 -RA BKN006 OVC040 05/04 Q1023 NOSIG=
0182583670999992024022910004+31198+121336FM-15+000399999V0203001N00501001831CN004000199+00501+00501999999ADDGA1071+001831999GA2081+012191999GE19AGL   +99999+99999GF199999071999001831999999MA1102401999999MW1611REMMET069METAR ZSSS 291000Z 30005MPS 4000 -RA BKN006 OVC040 05/05 Q1024 NOSIG=
0182583670999992024022910304+31198+121336FM-15+000399999V0203001N00501001831CN008000199+00601+00501999999ADDGA1071+001831999GA2081+012191999GE19AGL   +99999+99999GF199999071999001831999999MA1102401999999MW1611REMMET069METAR ZSSS 291030Z 30005MPS 8000 -RA BKN006 OVC040 06/05 Q1024 NOSIG=
0182583670999992024022911004+31198+121336FM-15+000399999V0203301N00501002441CN008000199+00601+00501999999ADDGA1071+002441999GA2081+012191999GE19AGL   +99999+99999GF199999071999002441999999MA1102501999999MW1611REMMET069METAR ZSSS 291100Z 33005MPS 8000 -RA BKN008 OVC040 06/05 Q1025 NOSIG=
0182583670999992024022911304+31198+121336FM-15+000399999V0203601N00701002441CN008000199+00601+00501999999ADDGA1071+002441999GA2081+012191999GE19AGL   +99999+99999GF199999071999002441999999MA1102501999999MW1611REMMET069METAR ZSSS 291130Z 36007MPS 8000 -RA BKN008 OVC040 06/05 Q1025 NOSIG=
0196583670999992024022912004+31198+121336FM-15+000399999V0200101N00801002741CN009999199+00601+00401999999ADDGA1071+002741999GA2081+012191999GE19AGL   +99999+99999GF199999071999002741999999MA1102601999999MW1611REMMET083METAR ZSSS 291200Z 01008MPS 9999 -RA BKN009 OVC040 06/04 Q1026 BECMG TL1350 BKN010=
0182583670999992024022912304+31198+121336FM-15+000399999V0203601N00801003051CN009999199+00601+00401999999ADDGA1071+003051999GA2081+012191999GE19AGL   +99999+99999GF199999071999003051999999MA1102601999999MW1611REMMET069METAR ZSSS 291230Z 36008MPS 9999 -RA BKN010 OVC040 06/04 Q1026 NOSIG=
0182583670999992024022913004+31198+121336FM-15+000399999V0200101N00701003351CN009999199+00601+00401999999ADDGA1071+003351999GA2081+012191999GE19AGL   +99999+99999GF199999071999003351999999MA1102701999999MW1611REMMET069METAR ZSSS 291300Z 01007MPS 9999 -RA BKN011 OVC040 06/04 Q1027 NOSIG=
0182583670999992024022913304+31198+121336FM-15+000399999V0203601N00701003351CN009999199+00501+00401999999ADDGA1071+003351999GA2081+012191999GE19AGL   +99999+99999GF199999071999003351999999MA1102701999999MW1611REMMET069METAR ZSSS 291330Z 36007MPS 9999 -RA BKN011 OVC040 05/04 Q1027 NOSIG=
0182583670999992024022914004+31198+121336FM-15+000399999V0200101N00801003661CN009999199+00501+00401999999ADDGA1071+003661999GA2081+012191999GE19AGL   +99999+99999GF199999071999003661999999MA1102701999999MW1611REMMET069METAR ZSSS 291400Z 01008MPS 9999 -RA BKN012 OVC040 05/04 Q1027 NOSIG=
0182583670999992024022914304+31198+121336FM-15+000399999V0200101N00601003661CN009999199+00501+00401999999ADDGA1071+003661999GA2081+012191999GE19AGL   +99999+99999GF199999071999003661999999MA1102801999999MW1611REMMET069METAR ZSSS 291430Z 01006MPS 9999 -RA BKN012 OVC040 05/04 Q1028 NOSIG=
0163583670999992024022915004+31198+121336FM-15+000399999V0203601N00601003961CN009999199+00501+00401999999ADDGA1071+003961999GE19AGL   +99999+99999GF199999071999003961999999MA1102801999999REMMET072METAR ZSSS 291500Z 36006MPS 9999 BKN013 05/04 Q1028 BECMG TL1650 BKN015=
0149583670999992024022915304+31198+121336FM-15+000399999V0200101N00701003961CN009999199+00501+00401999999ADDGA1071+003961999GE19AGL   +99999+99999GF199999071999003961999999MA1102801999999REMMET058METAR ZSSS 291530Z 01007MPS 9999 BKN013 05/04 Q1028 NOSIG=
0149583670999992024022916004+31198+121336FM-15+000399999V0203601N00701004571CN009999199+00501+00301999999ADDGA1071+004571999GE19AGL   +99999+99999GF199999071999004571999999MA1102901999999REMMET058METAR ZSSS 291600Z 36007MPS 9999 BKN015 05/03 Q1029 NOSIG=
0149583670999992024022916304+31198+121336FM-15+000399999V0203601N00701004571CN009999199+00501+00301999999ADDGA1071+004571999GE19AGL   +99999+99999GF199999071999004571999999MA1102901999999REMMET058METAR ZSSS 291630Z 36007MPS 9999 BKN015 05/03 Q1029 NOSIG=
0149583670999992024022917004+31198+121336FM-15+000399999V0203601N00701004881CN009999199+00501+00301999999ADDGA1071+004881999GE19AGL   +99999+99999GF199999071999004881999999MA1102901999999REMMET058METAR ZSSS 291700Z 36007MPS 9999 BKN016 05/03 Q1029 NOSIG=
0149583670999992024022917304+31198+121336FM-15+000399999V0200101N00801004881CN009999199+00501+00201999999ADDGA1071+004881999GE19AGL   +99999+99999GF199999071999004881999999MA1102901999999REMMET058METAR ZSSS 291730Z 01008MPS 9999 BKN016 05/02 Q1029 NOSIG=
0149583670999992024022918004+31198+121336FM-15+000399999V0200101N00701006101CN009999199+00501+00201999999ADDGA1071+006101999GE19AGL   +99999+99999GF199999071999006101999999MA1102901999999REMMET058METAR ZSSS 291800Z 01007MPS 9999 BKN020 05/02 Q1029 NOSIG=
0149583670999992024022918304+31198+121336FM-15+000399999V0200101N00701006101CN009999199+00401+00101999999ADDGA1071+006101999GE19AGL   +99999+99999GF199999071999006101999999MA1102801999999REMMET058METAR ZSSS 291830Z 01007MPS 9999 BKN020 04/01 Q1028 NOSIG=
0149583670999992024022919004+31198+121336FM-15+000399999V0200101N00801006101CN009999199+00401+00101999999ADDGA1071+006101999GE19AGL   +99999+99999GF199999071999006101999999MA1102801999999REMMET058METAR ZSSS 291900Z 01008MPS 9999 BKN020 04/01 Q1028 NOSIG=
0149583670999992024022919304+31198+121336FM-15+000399999V0200101N00701006101CN009999199+00401+00101999999ADDGA1071+006101999GE19AGL   +99999+99999GF199999071999006101999999MA1102801999999REMMET058METAR ZSSS 291930Z 01007MPS 9999 BKN020 04/01 Q1028 NOSIG=
0149583670999992024022920004+31198+121336FM-15+000399999V0200101N00701007011CN009999199+00401+00001999999ADDGA1071+007011999GE19AGL   +99999+99999GF199999071999007011999999MA1102901999999REMMET058METAR ZSSS 292000Z 01007MPS 9999 BKN023 04/00 Q1029 NOSIG=
0150583670999992024022920304+31198+121336FM-15+000399999V0200201N00601007011CN009999199+00401+00001999999ADDGA1071+007011999GE19AGL   +99999+99999GF199999071999007011999999MA1102901999999REMMET059METAR ZSSS 292030Z 02006MPS 9999 BKN023 04/M00 Q1029 NOSIG=
0150583670999992024022921004+31198+121336FM-15+000399999V0200101N006019999999N009999199+00401-00101999999ADDGA1041+007921999GE19AGL   +99999+99999GF199999041999007921999999MA1102901999999REMMET059METAR ZSSS 292100Z 01006MPS 9999 SCT026 04/M01 Q1029 NOSIG=
0150583670999992024022921304+31198+121336FM-15+000399999V0200201N007019999999N009999199+00401-00101999999ADDGA1021+007921999GE19AGL   +99999+99999GF199999021999007921999999MA1102901999999REMMET059METAR ZSSS 292130Z 02007MPS 9999 FEW026 04/M01 Q1029 NOSIG=
0150583670999992024022922004+31198+121336FM-15+000399999V0200101N007019999999N009999199+00301-00201999999ADDGA1021+007921999GE19AGL   +99999+99999GF199999021999007921999999MA1102901999999REMMET059METAR ZSSS 292200Z 01007MPS 9999 FEW026 03/M02 Q1029 NOSIG=
0150583670999992024022922304+31198+121336FM-15+000399999V0200101N007019999999N009999199+00301-00201999999ADDGA1021+007921999GE19AGL   +99999+99999GF199999021999007921999999MA1103001999999REMMET059METAR ZSSS 292230Z 01007MPS 9999 FEW026 03/M02 Q1030 NOSIG=
0150583670999992024022923004+31198+121336FM-15+000399999V0203601N007019999999N009999199+00301-00201999999ADDGA1021+007921999GE19AGL   +99999+99999GF199999021999007921999999MA1103101999999REMMET059METAR ZSSS 292300Z 36007MPS 9999 FEW026 03/M02 Q1031 NOSIG=
0080583670999992024022923304+31198+121336FM-15+000399999V0200101N008019999999Y009900599+00301-00201999999ADDMA1103101999999REMMET053METAR ZSSS 292330Z 01008MPS CAVOK 03/M02 Q1031 NOSIG=
0080583670999992024030100004+31198+121336FM-15+000399999V0200101N008019999999Y009900599+00301-00201999999ADDMA1103101999999REMMET053METAR ZSSS 010000Z 01008MPS CAVOK 03/M02 Q1031 NOSIG=
0080583670999992024030100304+31198+121336FM-15+000399999V0203601N007019999999Y009900599+00401-00201999999ADDMA1103101999999REMMET053METAR ZSSS 010030Z 36007MPS CAVOK 04/M02 Q1031 NOSIG=
0080583670999992024030101004+31198+121336FM-15+000399999V0203601N008019999999Y009900599+00401-00201999999ADDMA1103101999999REMMET053METAR ZSSS 010100Z 36008MPS CAVOK 04/M02 Q1031 NOSIG=
0080583670999992024030101304+31198+121336FM-15+000399999V0200101N008019999999Y009900599+00501-00301999999ADDMA1103101999999REMMET053METAR ZSSS 010130Z 01008MPS CAVOK 05/M03 Q1031 NOSIG=
0150583670999992024030102004+31198+121336FM-15+000399999V0200101N008019999999N009999199+00501-00201999999ADDGA1021+009141999GE19AGL   +99999+99999GF199999021999009141999999MA1103101999999REMMET059METAR ZSSS 010200Z 01008MPS 9999 FEW030 05/M02 Q1031 NOSIG=
0158583670999992024030102304+31198+121336FM-15+000399999V0203601V007019999999N009999199+00601-00201999999ADDGA1021+009141999GE19AGL   +99999+99999GF199999021999009141999999MA1103101999999REMMET067METAR ZSSS 010230Z 36007MPS 340V040 9999 FEW030 06/M02 Q1031 NOSIG=
0150583670999992024030103004+31198+121336FM-15+000399999V0203501N007019999999N009999199+00601-00201999999ADDGA1021+009141999GE19AGL   +99999+99999GF199999021999009141999999MA1103101999999REMMET059METAR ZSSS 010300Z 35007MPS 9999 FEW030 06/M02 Q1031 NOSIG=
0158583670999992024030103304+31198+121336FM-15+000399999V0203601V006019999999N009999199+00601-00301999999ADDGA1021+009141999GE19AGL   +99999+99999GF199999021999009141999999MA1103101999999REMMET067METAR ZSSS 010330Z 36006MPS 330V070 9999 FEW030 06/M03 Q1031 NOSIG=
0150583670999992024030104004+31198+121336FM-15+000399999V0203601N007019999999N009999199+00701-00301999999ADDGA1041+009141999GE19AGL   +99999+99999GF199999041999009141999999MA1103101999999REMMET059METAR ZSSS 010400Z 36007MPS 9999 SCT030 07/M03 Q1031 NOSIG=
0150583670999992024030104304+31198+121336FM-15+000399999V0200201N006019999999N009999199+00601-00301999999ADDGA1041+009141999GE19AGL   +99999+99999GF199999041999009141999999MA1103101999999REMMET059METAR ZSSS 010430Z 02006MPS 9999 SCT030 06/M03 Q1031 NOSIG=
0158583670999992024030105004+31198+121336FM-15+000399999V0200101V00501012191CN009999199+00601-00301999999ADDGA1071+012191999GE19AGL   +99999+99999GF199999071999012191999999MA1103001999999REMMET067METAR ZSSS 010500Z 01005MPS 340V050 9999 BKN040 06/M03 Q1030 NOSIG=
0158583670999992024030105304+31198+121336FM-15+000399999V0200101V00701012191CN009999199+00601-00401999999ADDGA1071+012191999GE19AGL   +99999+99999GF199999071999012191999999MA1103001999999REMMET067METAR ZSSS 010530Z 01007MPS 340V070 9999 BKN040 06/M04 Q1030 NOSIG=
0158583670999992024030106004+31198+121336FM-15+000399999V0200301V00601012191CN009999199+00601-00501999999ADDGA1071+012191999GE19AGL   +99999+99999GF199999071999012191999999MA1103001999999REMMET067METAR ZSSS 010600Z 03006MPS 360V060 9999 BKN040 06/M05 Q1030 NOSIG=
0150583670999992024030106304+31198+121336FM-15+000399999V0200201N008019999999N009999199+00601-00401999999ADDGA1021+012191999GE19AGL   +99999+99999GF199999021999012191999999MA1102901999999REMMET059METAR ZSSS 010630Z 02008MPS 9999 FEW040 06/M04 Q1029 NOSIG=
0150583670999992024030107004+31198+121336FM-15+000399999V0200201N007019999999N009999199+00601-00601999999ADDGA1021+012191999GE19AGL   +99999+99999GF199999021999012191999999MA1103001999999REMMET059METAR ZSSS 010700Z 02007MPS 9999 FEW040 06/M06 Q1030 NOSIG=
0080583670999992024030107304+31198+121336FM-15+000399999V0200201N007019999999Y009900599+00501-00701999999ADDMA1103001999999REMMET053METAR ZSSS 010730Z 02007MPS CAVOK 05/M07 Q1030 NOSIG=
0080583670999992024030108004+31198+121336FM-15+000399999V0200201N006019999999Y009900599+00501-00601999999ADDMA1103001999999REMMET053METAR ZSSS 010800Z 02006MPS CAVOK 05/M06 Q1030 NOSIG=
0080583670999992024030108304+31198+121336FM-15+000399999V0200201N006019999999Y009900599+00501-00801999999ADDMA1103001999999REMMET053METAR ZSSS 010830Z 02006MPS CAVOK 05/M08 Q1030 NOSIG=
0080583670999992024030109004+31198+121336FM-15+000399999V0200101N006019999999Y009900599+00401-00801999999ADDMA1103001999999REMMET053METAR ZSSS 010900Z 01006MPS CAVOK 04/M08 Q1030 NOSIG=
0080583670999992024030109304+31198+121336FM-15+000399999V0200101N005019999999Y009900599+00401-00701999999ADDMA1103001999999REMMET053METAR ZSSS 010930Z 01005MPS CAVOK 04/M07 Q1030 NOSIG=
0080583670999992024030110004+31198+121336FM-15+000399999V0200201N004019999999Y009900599+00401-00701999999ADDMA1103001999999REMMET053METAR ZSSS 011000Z 02004MPS CAVOK 04/M07 Q1030 NOSIG=
0080583670999992024030110304+31198+121336FM-15+000399999V0203601N005019999999Y009900599+00401-00701999999ADDMA1103001999999REMMET053METAR ZSSS 011030Z 36005MPS CAVOK 04/M07 Q1030 NOSIG=
0080583670999992024030111004+31198+121336FM-15+000399999V0200201N004019999999Y009900599+00401-00601999999ADDMA1103001999999REMMET053METAR ZSSS 011100Z 02004MPS CAVOK 04/M06 Q1030 NOSIG=
0080583670999992024030111304+31198+121336FM-15+000399999V0200501N004019999999Y009900599+00401-00601999999ADDMA1103101999999REMMET053METAR ZSSS 011130Z 05004MPS CAVOK 04/M06 Q1031 NOSIG=
0080583670999992024030112004+31198+121336FM-15+000399999V0200401N004019999999Y009900599+00401-00601999999ADDMA1103101999999REMMET053METAR ZSSS 011200Z 04004MPS CAVOK 04/M06 Q1031 NOSIG=
0080583670999992024030112304+31198+121336FM-15+000399999V0200401N004019999999Y009900599+00301-00601999999ADDMA1103101999999REMMET053METAR ZSSS 011230Z 04004MPS CAVOK 03/M06 Q1031 NOSIG=
0080583670999992024030113004+31198+121336FM-15+000399999V0200501N004019999999Y009900599+00301-00601999999ADDMA1103101999999REMMET053METAR ZSSS 011300Z 05004MPS CAVOK 03/M06 Q1031 NOSIG=
0080583670999992024030113304+31198+121336FM-15+000399999V0200401N003019999999Y009900599+00301-00601999999ADDMA1103101999999REMMET053METAR ZSSS 011330Z 04003MPS CAVOK 03/M06 Q1031 NOSIG=
0080583670999992024030114004+31198+121336FM-15+000399999V0200501N004019999999Y009900599+00301-00801999999ADDMA1103101999999REMMET053METAR ZSSS 011400Z 05004MPS CAVOK 03/M08 Q1031 NOSIG=
0080583670999992024030114304+31198+121336FM-15+000399999V0200101N004019999999Y009900599+00301-00801999999ADDMA1103101999999REMMET053METAR ZSSS 011430Z 01004MPS CAVOK 03/M08 Q1031 NOSIG=
0080583670999992024030115004+31198+121336FM-15+000399999V0200201N003019999999Y009900599+00201-00801999999ADDMA1103101999999REMMET053METAR ZSSS 011500Z 02003MPS CAVOK 02/M08 Q1031 NOSIG=
0088583670999992024030115304+31198+121336FM-15+000399999V0200801V002019999999Y009900599+00301-00701999999ADDMA1103101999999REMMET061METAR ZSSS 011530Z 08002MPS 040V110 CAVOK 03/M07 Q1031 NOSIG=
0080583670999992024030116004+31198+121336FM-15+000399999V0203601N002019999999Y009900599+00101-00601999999ADDMA1103101999999REMMET053METAR ZSSS 011600Z 36002MPS CAVOK 01/M06 Q1031 NOSIG=
0080583670999992024030116304+31198+121336FM-15+000399999V0209999V001019999999Y009900599+00201-00701999999ADDMA1103001999999REMMET053METAR ZSSS 011630Z VRB01MPS CAVOK 02/M07 Q1030 NOSIG=
0080583670999992024030117004+31198+121336FM-15+000399999V0200301N002019999999Y009900599+00101-00601999999ADDMA1103001999999REMMET053METAR ZSSS 011700Z 03002MPS CAVOK 01/M06 Q1030 NOSIG=
0080583670999992024030117304+31198+121336FM-15+000399999V0200301N002019999999Y009900599+00101-00601999999ADDMA1103001999999REMMET053METAR ZSSS 011730Z 03002MPS CAVOK 01/M06 Q1030 NOSIG=
0080583670999992024030118004+31198+121336FM-15+000399999V0200101N002019999999Y009900599+00101-00601999999ADDMA1103001999999REMMET053METAR ZSSS 011800Z 01002MPS CAVOK 01/M06 Q1030 NOSIG=
0080583670999992024030118304+31198+121336FM-15+000399999V0203601N001019999999Y009900599+00101-00501999999ADDMA1103001999999REMMET053METAR ZSSS 011830Z 36001MPS CAVOK 01/M05 Q1030 NOSIG=
0080583670999992024030119004+31198+121336FM-15+000399999V0203601N002019999999Y009900599+00001-00501999999ADDMA1102901999999REMMET053METAR ZSSS 011900Z 36002MPS CAVOK 00/M05 Q1029 NOSIG=
0080583670999992024030119304+31198+121336FM-15+000399999V0203501N002019999999Y009900599+00001-00501999999ADDMA1102901999999REMMET053METAR ZSSS 011930Z 35002MPS CAVOK 00/M05 Q1029 NOSIG=
0080583670999992024030120004+31198+121336FM-15+000399999V0203501N002019999999Y009900599+00001-00501999999ADDMA1102901999999REMMET053METAR ZSSS 012000Z 35002MPS CAVOK 00/M05 Q1029 NOSIG=
0080583670999992024030120304+31198+121336FM-15+000399999V0203601N001019999999Y009900599+00101-00501999999ADDMA1102901999999REMMET053METAR ZSSS 012030Z 36001MPS CAVOK 01/M05 Q1029 NOSIG=
0081583670999992024030122004+31198+121336FM-15+000399999V0201401N001019999999Y009900599+00001-00401999999ADDMA1102801999999REMMET054METAR ZSSS 012200Z 14001MPS CAVOK M00/M04 Q1028 NOSIG=
0080583670999992024030122304+31198+121336FM-15+000399999V0209999V001019999999Y009900599+00001-00401999999ADDMA1102901999999REMMET053METAR ZSSS 012230Z VRB01MPS CAVOK 00/M04 Q1029 NOSIG=
0080583670999992024030123004+31198+121336FM-15+000399999V0209999V001019999999Y009900599+00001-00401999999ADDMA1102801999999REMMET053METAR ZSSS 012300Z VRB01MPS CAVOK 00/M04 Q1028 NOSIG=
0080583670999992024030123304+31198+121336FM-15+000399999V0202001N002019999999Y009900599+00101-00301999999ADDMA1102901999999REMMET053METAR ZSSS 012330Z 20002MPS CAVOK 01/M03 Q1029 NOSIG=
0088583670999992024030200004+31198+121336FM-15+000399999V0202201V002019999999Y009900599+00301-00301999999ADDMA1102901999999REMMET061METAR ZSSS 020000Z 22002MPS 160V250 CAVOK 03/M03 Q1029 NOSIG=
0080583670999992024030200304+31198+121336FM-15+000399999V0209999V002019999999Y009900599+00401-00501999999ADDMA1102901999999REMMET053METAR ZSSS 020030Z VRB02MPS CAVOK 04/M05 Q1029 NOSIG=
0080583670999992024030201004+31198+121336FM-15+000399999V0209999V002019999999Y009900599+00501-00501999999ADDMA1102901999999REMMET053METAR ZSSS 020100Z VRB02MPS CAVOK 05/M05 Q1029 NOSIG=
0080583670999992024030201304+31198+121336FM-15+000399999V0209999V002019999999Y009900599+00501-00501999999ADDMA1102901999999REMMET053METAR ZSSS 020130Z VRB02MPS CAVOK 05/M05 Q1029 NOSIG=
0088583670999992024030202004+31198+121336FM-15+000399999V0202201V002019999999Y009900599+00601-00501999999ADDMA1102801999999REMMET061METAR ZSSS 020200Z 22002MPS 160V270 CAVOK 06/M05 Q1028 NOSIG=
0080583670999992024030202304+31198+121336FM-15+000399999V0209999V002019999999Y009900599+00701-00401999999ADDMA1102801999999REMMET053METAR ZSSS 020230Z VRB02MPS CAVOK 07/M04 Q1028 NOSIG=
0080583670999992024030203004+31198+121336FM-15+000399999V0209999V003019999999Y009900599+00601-00501999999ADDMA1102701999999REMMET053METAR ZSSS 020300Z VRB03MPS CAVOK 06/M05 Q1027 NOSIG=
0080583670999992024030203304+31198+121336FM-15+000399999V0209999V003019999999Y009900599+00801-00301999999ADDMA1102601999999REMMET053METAR ZSSS 020330Z VRB03MPS CAVOK 08/M03 Q1026 NOSIG=
0080583670999992024030204004+31198+121336FM-15+000399999V0209999V002019999999Y009900599+00701-00501999999ADDMA1102501999999REMMET053METAR ZSSS 020400Z VRB02MPS CAVOK 07/M05 Q1025 NOSIG=
0080583670999992024030204304+31198+121336FM-15+000399999V0209999V002019999999Y009900599+00801-00401999999ADDMA1102501999999REMMET053METAR ZSSS 020430Z VRB02MPS CAVOK 08/M04 Q1025 NOSIG=
0088583670999992024030205004+31198+121336FM-15+000399999V0202401V004019999999Y009900599+00801-00401999999ADDMA1102401999999REMMET061METAR ZSSS 020500Z 24004MPS 210V270 CAVOK 08/M04 Q1024 NOSIG=
0088583670999992024030205304+31198+121336FM-15+000399999V0203101V003019999999Y009900599+00901-00401999999ADDMA1102401999999REMMET061METAR ZSSS 020530Z 31003MPS 260V360 CAVOK 09/M04 Q1024 NOSIG=
0088583670999992024030206004+31198+121336FM-15+000399999V0203001V003019999999Y009900599+00901-00401999999ADDMA1102301999999REMMET061METAR ZSSS 020600Z 30003MPS 250V360 CAVOK 09/M04 Q1023 NOSIG=
0088583670999992024030206304+31198+121336FM-15+000399999V0202901V004019999999Y009900599+00901-00501999999ADDMA1102301999999REMMET061METAR ZSSS 020630Z 29004MPS 250V330 CAVOK 09/M05 Q1023 NOSIG=
0088583670999992024030207004+31198+121336FM-15+000399999V0202901V004019999999Y009900599+00901-00401999999ADDMA1102301999999REMMET061METAR ZSSS 020700Z 29004MPS 220V350 CAVOK 09/M04 Q1023 NOSIG=
0088583670999992024030207304+31198+121336FM-15+000399999V0202701V004019999999Y009900599+01001-00401999999ADDMA1102301999999REMMET061METAR ZSSS 020730Z 27004MPS 200V320 CAVOK 10/M04 Q1023 NOSIG=
0104583670999992024030208004+31198+121336FM-15+000399999V0202901V004019999999Y009900599+00901-00401999999ADDMA1102301999999REMMET077METAR ZSSS 020800Z 29004MPS 250V340 CAVOK 09/M04 Q1023 BECMG TL0940 18005MPS=
0099583670999992024030208304+31198+121336FM-15+000399999V0202901V004019999999Y009900599+00901-00401999999ADDMA1102301999999OC100901REMMET064METAR ZSSS 020830Z 29004G09MPS 250V320 CAVOK 09/M04 Q1023 NOSIG=
0104583670999992024030209004+31198+121336FM-15+000399999V0202701V003019999999Y009900599+00801-00401999999ADDMA1102301999999REMMET077METAR ZSSS 020900Z 27003MPS 230V300 CAVOK 08/M04 Q1023 BECMG TL1040 18005MPS=
0088583670999992024030209304+31198+121336FM-15+000399999V0202601V002019999999Y009900599+00801-00401999999ADDMA1102301999999REMMET061METAR ZSSS 020930Z 26002MPS 210V350 CAVOK 08/M04 Q1023 NOSIG=
0096583670999992024030210004+31198+121336FM-15+000399999V0202301N003019999999Y009900599+00701-00401999999ADDMA1102201999999REMMET069METAR ZSSS 021000Z 23003MPS CAVOK 07/M04 Q1022 BECMG TL1130 17005MPS=
0099583670999992024030210304+31198+121336FM-15+000399999V0202401V002019999999Y009900599+00701-00301999999ADDMA1102201999999OC100701REMMET064METAR ZSSS 021030Z 24002G07MPS 120V270 CAVOK 07/M03 Q1022 NOSIG=
0080583670999992024030211004+31198+121336FM-15+000399999V0201901N004019999999Y009900599+00601-00101999999ADDMA1102201999999REMMET053METAR ZSSS 021100Z 19004MPS CAVOK 06/M01 Q1022 NOSIG=
0080583670999992024030211304+31198+121336FM-15+000399999V0201901N004019999999Y009900599+00501-00101999999ADDMA1102301999999REMMET053METAR ZSSS 021130Z 19004MPS CAVOK 05/M01 Q1023 NOSIG=
0080583670999992024030212004+31198+121336FM-15+000399999V0201901N003019999999Y009900599+00401-00201999999ADDMA1102301999999REMMET053METAR ZSSS 021200Z 19003MPS CAVOK 04/M02 Q1023 NOSIG=
0080583670999992024030212304+31198+121336FM-15+000399999V0201901N004019999999Y009900599+00401-00201999999ADDMA1102301999999REMMET053METAR ZSSS 021230Z 19004MPS CAVOK 04/M02 Q1023 NOSIG=
0080583670999992024030213004+31198+121336FM-15+000399999V0202001N003019999999Y009900599+00301-00201999999ADDMA1102301999999REMMET053METAR ZSSS 021300Z 20003MPS CAVOK 03/M02 Q1023 NOSIG=
0080583670999992024030213304+31198+121336FM-15+000399999V0201901N003019999999Y009900599+00301-00201999999ADDMA1102301999999REMMET053METAR ZSSS 021330Z 19003MPS CAVOK 03/M02 Q1023 NOSIG=
0080583670999992024030214004+31198+121336FM-15+000399999V0201701N003019999999Y009900599+00401-00201999999ADDMA1102301999999REMMET053METAR ZSSS 021400Z 17003MPS CAVOK 04/M02 Q1023 NOSIG=
0080583670999992024030214304+31198+121336FM-15+000399999V0201801N002019999999Y009900599+00301-00101999999ADDMA1102401999999REMMET053METAR ZSSS 021430Z 18002MPS CAVOK 03/M01 Q1024 NOSIG=
0080583670999992024030215004+31198+121336FM-15+000399999V0201901N002019999999Y009900599+00301+00001999999ADDMA1102401999999REMMET053METAR ZSSS 021500Z 19002MPS CAVOK 03/M00 Q1024 NOSIG=
0080583670999992024030215304+31198+121336FM-15+000399999V0201901N003019999999Y009900599+00301+00001999999ADDMA1102401999999REMMET053METAR ZSSS 021530Z 19003MPS CAVOK 03/M00 Q1024 NOSIG=
0079583670999992024030216004+31198+121336FM-15+000399999V0201901N003019999999Y009900599+00401+00001999999ADDMA1102401999999REMMET052METAR ZSSS 021600Z 19003MPS CAVOK 04/00 Q1024 NOSIG=
0079583670999992024030216304+31198+121336FM-15+000399999V0201901N002019999999Y009900599+00401+00001999999ADDMA1102301999999REMMET052METAR ZSSS 021630Z 19002MPS CAVOK 04/00 Q1023 NOSIG=
0079583670999992024030217004+31198+121336FM-15+000399999V0201701N001019999999Y009900599+00401+00001999999ADDMA1102301999999REMMET052METAR ZSSS 021700Z 17001MPS CAVOK 04/00 Q1023 NOSIG=
0079583670999992024030217304+31198+121336FM-15+000399999V0201501N001019999999Y009900599+00301+00001999999ADDMA1102301999999REMMET052METAR ZSSS 021730Z 15001MPS CAVOK 03/00 Q1023 NOSIG=
0079583670999992024030218004+31198+121336FM-15+000399999V0201501N001019999999Y009900599+00301+00101999999ADDMA1102301999999REMMET052METAR ZSSS 021800Z 15001MPS CAVOK 03/01 Q1023 NOSIG=
0079583670999992024030218304+31198+121336FM-15+000399999V0201601N002019999999Y009900599+00401+00101999999ADDMA1102201999999REMMET052METAR ZSSS 021830Z 16002MPS CAVOK 04/01 Q1022 NOSIG=
0079583670999992024030219004+31198+121336FM-15+000399999V0201701N001019999999Y009900599+00301+00101999999ADDMA1102201999999REMMET052METAR ZSSS 021900Z 17001MPS CAVOK 03/01 Q1022 NOSIG=
0079583670999992024030219304+31198+121336FM-15+000399999V0201601N001019999999Y009900599+00301+00101999999ADDMA1102201999999REMMET052METAR ZSSS 021930Z 16001MPS CAVOK 03/01 Q1022 NOSIG=
0079583670999992024030220004+31198+121336FM-15+000399999V0201601N002019999999Y009900599+00301+00101999999ADDMA1102201999999REMMET052METAR ZSSS 022000Z 16002MPS CAVOK 03/01 Q1022 NOSIG=
0079583670999992024030220304+31198+121336FM-15+000399999V0201801N002019999999Y009900599+00301+00101999999ADDMA1102201999999REMMET052METAR ZSSS 022030Z 18002MPS CAVOK 03/01 Q1022 NOSIG=
0079583670999992024030221004+31198+121336FM-15+000399999V0201701N001019999999Y009900599+00301+00101999999ADDMA1102201999999REMMET052METAR ZSSS 022100Z 17001MPS CAVOK 03/01 Q1022 NOSIG=
0079583670999992024030221304+31198+121336FM-15+000399999V0201501N001019999999Y009900599+00301+00101999999ADDMA1102201999999REMMET052METAR ZSSS 022130Z 15001MPS CAVOK 03/01 Q1022 NOSIG=
0108583670999992024030222004+31198+121336FM-15+000399999V0201701N001012200019N007000199+00301+00101999999ADDGF100991999999999999999999MA1102201999999REMMET055METAR ZSSS 022200Z 17001MPS 7000 NSC 03/01 Q1022 NOSIG=
0117583670999992024030222304+31198+121336FM-15+000399999V0201901N001012200019N005000199+00201+00001999999ADDGF100991999999999999999999MA1102201999999MW1101REMMET058METAR ZSSS 022230Z 19001MPS 5000 BR NSC 02/00 Q1022 NOSIG=
0117583670999992024030223004+31198+121336FM-15+000399999V0201701N001012200019N005000199+00301+00101999999ADDGF100991999999999999999999MA1102301999999MW1101REMMET058METAR ZSSS 022300Z 17001MPS 5000 BR NSC 03/01 Q1023 NOSIG=
0108583670999992024030223304+31198+121336FM-15+000399999V0201601N001012200019N006000199+00501+00201999999ADDGF100991999999999999999999MA1102301999999REMMET055METAR ZSSS 022330Z 16001MPS 6000 NSC 05/02 Q1023 NOSIG=
0108583670999992024030300004+31198+121336FM-15+000399999V0201901N002012200019N007000199+00601+00201999999ADDGF100991999999999999999999MA1102301999999REMMET055METAR ZSSS 030000Z 19002MPS 7000 NSC 06/02 Q1023 NOSIG=
0108583670999992024030300304+31198+121336FM-15+000399999V0209999V001012200019N008000199+00801+00201999999ADDGF100991999999999999999999MA1102301999999REMMET055METAR ZSSS 030030Z VRB01MPS 8000 NSC 08/02 Q1023 NOSIG=
0108583670999992024030301004+31198+121336FM-15+000399999V0209999V001012200019N008000199+00901+00201999999ADDGF100991999999999999999999MA1102301999999REMMET055METAR ZSSS 030100Z VRB01MPS 8000 NSC 09/02 Q1023 NOSIG=
0108583670999992024030301304+31198+121336FM-15+000399999V0209999V001012200019N009000199+01001+00101999999ADDGF100991999999999999999999MA1102301999999REMMET055METAR ZSSS 030130Z VRB01MPS 9000 NSC 10/01 Q1023 NOSIG=
0079583670999992024030302004+31198+121336FM-15+000399999V0209999V001019999999Y009900599+01101+00101999999ADDMA1102301999999REMMET052METAR ZSSS 030200Z VRB01MPS CAVOK 11/01 Q1023 NOSIG=
0087583670999992024030302304+31198+121336FM-15+000399999V0202301V002019999999Y009900599+01201+00101999999ADDMA1102301999999REMMET060METAR ZSSS 030230Z 23002MPS 160V310 CAVOK 12/01 Q1023 NOSIG=
0079583670999992024030303004+31198+121336FM-15+000399999V0209999V001019999999Y009900599+01301+00101999999ADDMA1102301999999REMMET052METAR ZSSS 030300Z VRB01MPS CAVOK 13/01 Q1023 NOSIG=
0080583670999992024030303304+31198+121336FM-15+000399999V0209999V002019999999Y009900599+01301-00101999999ADDMA1102301999999REMMET053METAR ZSSS 030330Z VRB02MPS CAVOK 13/M01 Q1023 NOSIG=
0080583670999992024030304004+31198+121336FM-15+000399999V0209999V003019999999Y009900599+01401-00201999999ADDMA1102201999999REMMET053METAR ZSSS 030400Z VRB03MPS CAVOK 14/M02 Q1022 NOSIG=
0088583670999992024030304304+31198+121336FM-15+000399999V0202101V003019999999Y009900599+01401-00101999999ADDMA1102101999999REMMET061METAR ZSSS 030430Z 21003MPS 120V270 CAVOK 14/M01 Q1021 NOSIG=
0088583670999992024030305004+31198+121336FM-15+000399999V0201901V004019999999Y009900599+01401-00101999999ADDMA1102101999999REMMET061METAR ZSSS 030500Z 19004MPS 150V240 CAVOK 14/M01 Q1021 NOSIG=
0088583670999992024030305304+31198+121336FM-15+000399999V0201901V003019999999Y009900599+01401-00101999999ADDMA1102001999999REMMET061METAR ZSSS 030530Z 19003MPS 160V230 CAVOK 14/M01 Q1020 NOSIG=
0095583670999992024030306004+31198+121336FM-15+000399999V0209999V003019999999Y009900599+01501+00001999999ADDMA1101901999999REMMET068METAR ZSSS 030600Z VRB03MPS CAVOK 15/00 Q1019 BECMG TL0730 14005MPS=
0087583670999992024030306304+31198+121336FM-15+000399999V0201801V004019999999Y009900599+01501+00001999999ADDMA1101901999999REMMET060METAR ZSSS 030630Z 18004MPS 130V220 CAVOK 15/00 Q1019 NOSIG=
0088583670999992024030307004+31198+121336FM-15+000399999V0201501V004019999999Y009900599+01501+00001999999ADDMA1101901999999REMMET061METAR ZSSS 030700Z 15004MPS 110V190 CAVOK 15/M00 Q1019 NOSIG=
0080583670999992024030307304+31198+121336FM-15+000399999V0201501N005019999999Y009900599+01401-00101999999ADDMA1101901999999REMMET053METAR ZSSS 030730Z 15005MPS CAVOK 14/M01 Q1019 NOSIG=
0088583670999992024030308004+31198+121336FM-15+000399999V0201401V006019999999Y009900599+01401-00101999999ADDMA1101801999999REMMET061METAR ZSSS 030800Z 14006MPS 120V180 CAVOK 14/M01 Q1018 NOSIG=
0080583670999992024030308304+31198+121336FM-15+000399999V0201601N006019999999Y009900599+01301-00101999999ADDMA1101801999999REMMET053METAR ZSSS 030830Z 16006MPS CAVOK 13/M01 Q1018 NOSIG=
0088583670999992024030309004+31198+121336FM-15+000399999V0201601V005019999999Y009900599+01201-00201999999ADDMA1101801999999REMMET061METAR ZSSS 030900Z 16005MPS 130V190 CAVOK 12/M02 Q1018 NOSIG=
0080583670999992024030309304+31198+121336FM-15+000399999V0201601N005019999999Y009900599+01201-00101999999ADDMA1101801999999REMMET053METAR ZSSS 030930Z 16005MPS CAVOK 12/M01 Q1018 NOSIG=
0080583670999992024030310004+31198+121336FM-15+000399999V0201601N005019999999Y009900599+01101-00101999999ADDMA1101901999999REMMET053METAR ZSSS 031000Z 16005MPS CAVOK 11/M01 Q1019 NOSIG=
0079583670999992024030310304+31198+121336FM-15+000399999V0201601N004019999999Y009900599+01001+00101999999ADDMA1101901999999REMMET052METAR ZSSS 031030Z 16004MPS CAVOK 10/01 Q1019 NOSIG=
0080583670999992024030311004+31198+121336FM-15+000399999V0201501N005019999999Y009900599+01001+00001999999ADDMA1101901999999REMMET053METAR ZSSS 031100Z 15005MPS CAVOK 10/M00 Q1019 NOSIG=
0080583670999992024030311304+31198+121336FM-15+000399999V0201401N005019999999Y009900599+01001-00101999999ADDMA1101901999999REMMET053METAR ZSSS 031130Z 14005MPS CAVOK 10/M01 Q1019 NOSIG=
0080583670999992024030312004+31198+121336FM-15+000399999V0201501N006019999999Y009900599+00901-00101999999ADDMA1101901999999REMMET053METAR ZSSS 031200Z 15006MPS CAVOK 09/M01 Q1019 NOSIG=
0080583670999992024030312304+31198+121336FM-15+000399999V0201501N006019999999Y009900599+00901-00201999999ADDMA1101901999999REMMET053METAR ZSSS 031230Z 15006MPS CAVOK 09/M02 Q1019 NOSIG=
0080583670999992024030313004+31198+121336FM-15+000399999V0201401N006019999999Y009900599+00901-00201999999ADDMA1101901999999REMMET053METAR ZSSS 031300Z 14006MPS CAVOK 09/M02 Q1019 NOSIG=
0080583670999992024030313304+31198+121336FM-15+000399999V0201501N006019999999Y009900599+00801-00101999999ADDMA1101901999999REMMET053METAR ZSSS 031330Z 15006MPS CAVOK 08/M01 Q1019 NOSIG=
0080583670999992024030314004+31198+121336FM-15+000399999V0201401N005019999999Y009900599+00801+00001999999ADDMA1101901999999REMMET053METAR ZSSS 031400Z 14005MPS CAVOK 08/M00 Q1019 NOSIG=
0079583670999992024030314304+31198+121336FM-15+000399999V0201401N005019999999Y009900599+00801+00101999999ADDMA1101901999999REMMET052METAR ZSSS 031430Z 14005MPS CAVOK 08/01 Q1019 NOSIG=
0079583670999992024030315004+31198+121336FM-15+000399999V0201601N005019999999Y009900599+00801+00201999999ADDMA1101901999999REMMET052METAR ZSSS 031500Z 16005MPS CAVOK 08/02 Q1019 NOSIG=
0079583670999992024030315304+31198+121336FM-15+000399999V0201501N005019999999Y009900599+00801+00301999999ADDMA1101901999999REMMET052METAR ZSSS 031530Z 15005MPS CAVOK 08/03 Q1019 NOSIG=
0079583670999992024030316004+31198+121336FM-15+000399999V0201401N005019999999Y009900599+00801+00301999999ADDMA1101901999999REMMET052METAR ZSSS 031600Z 14005MPS CAVOK 08/03 Q1019 NOSIG=
0079583670999992024030316304+31198+121336FM-15+000399999V0201401N005019999999Y009900599+00801+00301999999ADDMA1101901999999REMMET052METAR ZSSS 031630Z 14005MPS CAVOK 08/03 Q1019 NOSIG=
0079583670999992024030317004+31198+121336FM-15+000399999V0201401N005019999999Y009900599+00901+00301999999ADDMA1101901999999REMMET052METAR ZSSS 031700Z 14005MPS CAVOK 09/03 Q1019 NOSIG=
0079583670999992024030317304+31198+121336FM-15+000399999V0201401N004019999999Y009900599+00901+00301999999ADDMA1101901999999REMMET052METAR ZSSS 031730Z 14004MPS CAVOK 09/03 Q1019 NOSIG=
0079583670999992024030318004+31198+121336FM-15+000399999V0201501N004019999999Y009900599+00901+00401999999ADDMA1101801999999REMMET052METAR ZSSS 031800Z 15004MPS CAVOK 09/04 Q1018 NOSIG=
0087583670999992024030318304+31198+121336FM-15+000399999V0201401V004019999999Y009900599+00901+00401999999ADDMA1101801999999REMMET060METAR ZSSS 031830Z 14004MPS 110V170 CAVOK 09/04 Q1018 NOSIG=
0079583670999992024030319004+31198+121336FM-15+000399999V0201401N005019999999Y009900599+00901+00401999999ADDMA1101701999999REMMET052METAR ZSSS 031900Z 14005MPS CAVOK 09/04 Q1017 NOSIG=
0079583670999992024030319304+31198+121336FM-15+000399999V0201401N005019999999Y009900599+00901+00401999999ADDMA1101701999999REMMET052METAR ZSSS 031930Z 14005MPS CAVOK 09/04 Q1017 NOSIG=
0118583670999992024030320004+31198+121336FM-15+000399999V0201401N004012200019N009999199+00901+00401999999ADDGF100991999999999999999999MA1101701999999MW1611REMMET059METAR ZSSS 032000Z 14004MPS 9999 -RA NSC 09/04 Q1017 NOSIG=
0079583670999992024030320304+31198+121336FM-15+000399999V0201301N006019999999Y009900599+01001+00401999999ADDMA1101601999999REMMET052METAR ZSSS 032030Z 13006MPS CAVOK 10/04 Q1016 NOSIG=
0079583670999992024030321004+31198+121336FM-15+000399999V0201301N005019999999Y009900599+00901+00401999999ADDMA1101601999999REMMET052METAR ZSSS 032100Z 13005MPS CAVOK 09/04 Q1016 NOSIG=
0079583670999992024030321304+31198+121336FM-15+000399999V0201401N005019999999Y009900599+00901+00501999999ADDMA1101601999999REMMET052METAR ZSSS 032130Z 14005MPS CAVOK 09/05 Q1016 NOSIG=
0079583670999992024030322004+31198+121336FM-15+000399999V0201401N005019999999Y009900599+01001+00501999999ADDMA1101601999999REMMET052METAR ZSSS 032200Z 14005MPS CAVOK 10/05 Q1016 NOSIG=
0079583670999992024030322304+31198+121336FM-15+000399999V0201401N004019999999Y009900599+01001+00501999999ADDMA1101601999999REMMET052METAR ZSSS 032230Z 14004MPS CAVOK 10/05 Q1016 NOSIG=
0079583670999992024030323004+31198+121336FM-15+000399999V0201401N005019999999Y009900599+01001+00501999999ADDMA1101601999999REMMET052METAR ZSSS 032300Z 14005MPS CAVOK 10/05 Q1016 NOSIG=
0079583670999992024030323304+31198+121336FM-15+000399999V0201501N005019999999Y009900599+01101+00601999999ADDMA1101601999999REMMET052METAR ZSSS 032330Z 15005MPS CAVOK 11/06 Q1016 NOSIG=
0087583670999992024030400004+31198+121336FM-15+000399999V0201401V005019999999Y009900599+01101+00601999999ADDMA1101601999999REMMET060METAR ZSSS 040000Z 14005MPS 110V170 CAVOK 11/06 Q1016 NOSIG=
0079583670999992024030400304+31198+121336FM-15+000399999V0201501N007019999999Y009900599+01101+00601999999ADDMA1101601999999REMMET052METAR ZSSS 040030Z 15007MPS CAVOK 11/06 Q1016 NOSIG=
0079583670999992024030401004+31198+121336FM-15+000399999V0201601N007019999999Y009900599+01101+00601999999ADDMA1101601999999REMMET052METAR ZSSS 040100Z 16007MPS CAVOK 11/06 Q1016 NOSIG=
0079583670999992024030401304+31198+121336FM-15+000399999V0201501N006019999999Y009900599+01101+00701999999ADDMA1101601999999REMMET052METAR ZSSS 040130Z 15006MPS CAVOK 11/07 Q1016 NOSIG=
0169583670999992024030402004+31198+121336FM-15+000399999V0201601V007019999999N009999199+01101+00801999999ADDGA1041+006101999GE19AGL   +99999+99999GF199999041999006101999999MA1101501999999MW1801REMMET072METAR ZSSS 040200Z 16007MPS 130V190 9999 -SHRA SCT020 11/08 Q1015 NOSIG=
0184583670999992024030402304+31198+121336FM-15+000399999V0201601N00601004571CN007000199+01001+00901999999ADDGA1071+004571999GA2081+012191999GE19AGL   +99999+99999GF199999071999004571999999MA1101501999999MW1801REMMET071METAR ZSSS 040230Z 16006MPS 7000 -SHRA BKN015 OVC040 10/09 Q1015 NOSIG=
0198583670999992024030403004+31198+121336FM-15+000399999V0201501N006010121919N008000199+01101+00901999999ADDGA1041+003961999GA2081+012191999GE19AGL   +99999+99999GF199999041999003961999999MA1101501999999MW1801REMMET085METAR ZSSS 040300Z 15006MPS 8000 -SHRA SCT013 OVC040 11/09 Q1015 BECMG TL0330 BKN013=
0184583670999992024030403304+31198+121336FM-15+000399999V0201501N004010121919N009999199+01101+00901999999ADDGA1041+003661999GA2081+012191999GE19AGL   +99999+99999GF199999041999003661999999MA1101501999999MW1801REMMET071METAR ZSSS 040330Z 15004MPS 9999 -SHRA SCT012 OVC040 11/09 Q1015 NOSIG=
0184583670999992024030404004+31198+121336FM-15+000399999V0201501N005010121919N009999199+01101+00901999999ADDGA1021+003661999GA2081+012191999GE19AGL   +99999+99999GF199999021999003661999999MA1101401999999MW1801REMMET071METAR ZSSS 040400Z 15005MPS 9999 -SHRA FEW012 OVC040 11/09 Q1014 NOSIG=
0161583670999992024030404304+31198+121336FM-15+000399999V0201501N005019999999N009999199+01101+00901999999ADDGA1021+003961999GE19AGL   +99999+99999GF199999021999003961999999MA1101301999999MW1801REMMET064METAR ZSSS 040430Z 15005MPS 9999 -SHRA FEW013 11/09 Q1013 NOSIG=
0175583670999992024030405004+31198+121336FM-15+000399999V0201501N005019999999N007000199+01101+00901999999ADDGA1041+003961999GE19AGL   +99999+99999GF199999041999003961999999MA1101201999999MW1801REMMET078METAR ZSSS 040500Z 15005MPS 7000 -SHRA SCT013 11/09 Q1012 BECMG TL0620 BKN013=
0161583670999992024030405304+31198+121336FM-15+000399999V0201501N00501003961CN007000199+01101+01001999999ADDGA1071+003961999GE19AGL   +99999+99999GF199999071999003961999999MA1101201999999MW1801REMMET064METAR ZSSS 040530Z 15005MPS 7000 -SHRA BKN013 11/10 Q1012 NOSIG=
0163583670999992024030406004+31198+121336FM-15+000399999V0201501N00501003351CN009999199+01201+01001999999ADDGA1071+003351999GE19AGL   +99999+99999GF199999071999003351999999MA1101101999999REMMET072METAR ZSSS 040600Z 15005MPS 9999 BKN011 12/10 Q1011 BECMG TL0630 BKN009=
0149583670999992024030406304+31198+121336FM-15+000399999V0201401N00501002741CN009999199+01201+01001999999ADDGA1071+002741999GE19AGL   +99999+99999GF199999071999002741999999MA1101001999999REMMET058METAR ZSSS 040630Z 14005MPS 9999 BKN009 12/10 Q1010 NOSIG=
0149583670999992024030407004+31198+121336FM-15+000399999V0201501N00501002741CN009999199+01201+01001999999ADDGA1071+002741999GE19AGL   +99999+99999GF199999071999002741999999MA1101001999999REMMET058METAR ZSSS 040700Z 15005MPS 9999 BKN009 12/10 Q1010 NOSIG=
0149583670999992024030407304+31198+121336FM-15+000399999V0201401N00501002441CN009999199+01201+01001999999ADDGA1071+002441999GE19AGL   +99999+99999GF199999071999002441999999MA1101001999999REMMET058METAR ZSSS 040730Z 14005MPS 9999 BKN008 12/10 Q1010 NOSIG=
0149583670999992024030408004+31198+121336FM-15+000399999V0201501N00501002441CN009999199+01201+01101999999ADDGA1071+002441999GE19AGL   +99999+99999GF199999071999002441999999MA1101001999999REMMET058METAR ZSSS 040800Z 15005MPS 9999 BKN008 12/11 Q1010 NOSIG=
0157583670999992024030408304+31198+121336FM-15+000399999V0201401V00301002441CN009999199+01201+01101999999ADDGA1071+002441999GE19AGL   +99999+99999GF199999071999002441999999MA1101001999999REMMET066METAR ZSSS 040830Z 14003MPS 100V180 9999 BKN008 12/11 Q1010 NOSIG=
0157583670999992024030409004+31198+121336FM-15+000399999V0201201V00301002741CN009999199+01201+01101999999ADDGA1071+002741999GE19AGL   +99999+99999GF199999071999002741999999MA1101001999999REMMET066METAR ZSSS 040900Z 12003MPS 090V160 9999 BKN009 12/11 Q1010 NOSIG=
0169583670999992024030409304+31198+121336FM-15+000399999V0201001V00201002741CN009999199+01201+01001999999ADDGA1071+002741999GE19AGL   +99999+99999GF199999071999002741999999MA1101001999999MW1801REMMET072METAR ZSSS 040930Z 10002MPS 070V200 9999 -SHRA BKN009 12/10 Q1010 NOSIG=
0169583670999992024030410004+31198+121336FM-15+000399999V0201001V00201002741CN007000199+01201+01101999999ADDGA1071+002741999GE19AGL   +99999+99999GF199999071999002741999999MA1101001999999MW1801REMMET072METAR ZSSS 041000Z 10002MPS 070V150 7000 -SHRA BKN009 12/11 Q1010 NOSIG=
0169583670999992024030410304+31198+121336FM-15+000399999V0201201V00201002441CN008000199+01201+01101999999ADDGA1071+002441999GE19AGL   +99999+99999GF199999071999002441999999MA1101001999999MW1801REMMET072METAR ZSSS 041030Z 12002MPS 090V160 8000 -SHRA BKN008 12/11 Q1010 NOSIG=
0169583670999992024030411004+31198+121336FM-15+000399999V0201001V00201002441CN007000199+01201+01101999999ADDGA1071+002441999GE19AGL   +99999+99999GF199999071999002441999999MA1101001999999MW1801REMMET072METAR ZSSS 041100Z 10002MPS 060V160 7000 -SHRA BKN008 12/11 Q1010 NOSIG=
0169583670999992024030411304+31198+121336FM-15+000399999V0200901V00201001831CN007000199+01201+01101999999ADDGA1071+001831999GE19AGL   +99999+99999GF199999071999001831999999MA1101001999999MW1801REMMET072METAR ZSSS 041130Z 09002MPS 070V150 7000 -SHRA BKN006 12/11 Q1010 NOSIG=
0175583670999992024030412004+31198+121336FM-15+000399999V0209999V00101001521CN007000199+01201+01101999999ADDGA1071+001521999GE19AGL   +99999+99999GF199999071999001521999999MA1101001999999MW1801REMMET078METAR ZSSS 041200Z VRB01MPS 7000 -SHRA BKN005 12/11 Q1010 BECMG TL1340 BKN004=
0161583670999992024030412304+31198+121336FM-15+000399999V0209999V00101001521CN008000199+01101+01001999999ADDGA1071+001521999GE19AGL   +99999+99999GF199999071999001521999999MA1101001999999MW1801REMMET064METAR ZSSS 041230Z VRB01MPS 8000 -SHRA BKN005 11/10 Q1010 NOSIG=
0169583670999992024030413004+31198+121336FM-15+000399999V0201201V00201001521CN007000199+01101+01001999999ADDGA1071+001521999GE19AGL   +99999+99999GF199999071999001521999999MA1101001999999MW1801REMMET072METAR ZSSS 041300Z 12002MPS 100V160 7000 -SHRA BKN005 11/10 Q1010 NOSIG=
0169583670999992024030413304+31198+121336FM-15+000399999V0201201V00201001221CN006000199+01101+01001999999ADDGA1071+001221999GE19AGL   +99999+99999GF199999071999001221999999MA1101001999999MW1801REMMET072METAR ZSSS 041330Z 12002MPS 090V170 6000 -SHRA BKN004 11/10 Q1010 NOSIG=
0183583670999992024030414004+31198+121336FM-15+000399999V0201101V00201001221CN007000199+01101+01001999999ADDGA1071+001221999GE19AGL   +99999+99999GF199999071999001221999999MA1101001999999MW1801REMMET086METAR ZSSS 041400Z 11002MPS 100V160 7000 -SHRA BKN004 11/10 Q1010 BECMG TL1540 BKN005=
0149583670999992024030414304+31198+121336FM-15+000399999V0201001N00201001521CN008000199+01101+01001999999ADDGA1071+001521999GE19AGL   +99999+99999GF199999071999001521999999MA1101001999999REMMET058METAR ZSSS 041430Z 10002MPS 8000 BKN005 11/10 Q1010 NOSIG=
0149583670999992024030415004+31198+121336FM-15+000399999V0209999V001019999999N008000199+01101+01001999999ADDGA1041+001521999GE19AGL   +99999+99999GF199999041999001521999999MA1101001999999REMMET058METAR ZSSS 041500Z VRB01MPS 8000 SCT005 11/10 Q1010 NOSIG=
0157583670999992024030415304+31198+121336FM-15+000399999V0201701V002019999999N007000199+01101+01001999999ADDGA1041+001221999GE19AGL   +99999+99999GF199999041999001221999999MA1101001999999REMMET066METAR ZSSS 041530Z 17002MPS 140V200 7000 SCT004 11/10 Q1010 NOSIG=
0170583670999992024030416004+31198+121336FM-15+000399999V0209999V00101001221CN007000199+01101+01001999999ADDGA1071+001221999GE19AGL   +99999+99999GF199999071999001221999999MA1100901999999REMMET079METAR ZSSS 041600Z VRB01MPS 7000 BKN004 11/10 Q1009 BECMG TL1650 SCT005 OVC040=
0149583670999992024030416304+31198+121336FM-15+000399999V0201701N001019999999N006000199+01101+01001999999ADDGA1041+001521999GE19AGL   +99999+99999GF199999041999001521999999MA1100901999999REMMET058METAR ZSSS 041630Z 17001MPS 6000 SCT005 11/10 Q1009 NOSIG=
0149583670999992024030417004+31198+121336FM-15+000399999V0201701N001019999999N006000199+01101+01001999999ADDGA1021+001521999GE19AGL   +99999+99999GF199999021999001521999999MA1100901999999REMMET058METAR ZSSS 041700Z 17001MPS 6000 FEW005 11/10 Q1009 NOSIG=
0108583670999992024030417304+31198+121336FM-15+000399999V0201801N001012200019N006000199+01101+01001999999ADDGF100991999999999999999999MA1100901999999REMMET055METAR ZSSS 041730Z 18001MPS 6000 NSC 11/10 Q1009 NOSIG=
0179583670999992024030418004+31198+121336FM-15+000399999V0209999V00101001521CN005000199+01101+01101999999ADDGA1071+001521999GE19AGL   +99999+99999GF199999071999001521999999MA1100801999999MW1101REMMET082METAR ZSSS 041800Z VRB01MPS 5000 BR BKN005 11/11 Q1008 BECMG TL1850 SCT010 OVC040=
0158583670999992024030418304+31198+121336FM-15+000399999V0200201N001019999999N005000199+01101+01101999999ADDGA1041+001521999GE19AGL   +99999+99999GF199999041999001521999999MA1100801999999MW1101REMMET061METAR ZSSS 041830Z 02001MPS 5000 BR SCT005 11/11 Q1008 NOSIG=
0170583670999992024030419004+31198+121336FM-15+000399999V0209999C00001001521CN006000199+01101+01101999999ADDGA1071+001521999GE19AGL   +99999+99999GF199999071999001521999999MA1100801999999REMMET079METAR ZSSS 041900Z 00000MPS 6000 BKN005 11/11 Q1008 BECMG TL2040 SCT005 OVC040=
0149583670999992024030419304+31198+121336FM-15+000399999V0209999C00001001521CN006000199+01101+01101999999ADDGA1071+001521999GE19AGL   +99999+99999GF199999071999001521999999MA1100801999999REMMET058METAR ZSSS 041930Z 00000MPS 6000 BKN005 11/11 Q1008 NOSIG=
0163583670999992024030420004+31198+121336FM-15+000399999V0209999V00101001521CN006000199+01101+01101999999ADDGA1071+001521999GE19AGL   +99999+99999GF199999071999001521999999MA1100701999999REMMET072METAR ZSSS 042000Z VRB01MPS 6000 BKN005 11/11 Q1007 BECMG TL2050 BKN004=
0158583670999992024030420304+31198+121336FM-15+000399999V0203501N00301001221CN005000199+01101+01101999999ADDGA1071+001221999GE19AGL   +99999+99999GF199999071999001221999999MA1100801999999MW1101REMMET061METAR ZSSS 042030Z 35003MPS 5000 BR BKN004 11/11 Q1008 NOSIG=
0158583670999992024030421004+31198+121336FM-15+000399999V0203601N00201001221CN004000199+01101+01101999999ADDGA1071+001221999GE19AGL   +99999+99999GF199999071999001221999999MA1100701999999MW1101REMMET061METAR ZSSS 042100Z 36002MPS 4000 BR BKN004 11/11 Q1007 NOSIG=
0166583670999992024030421304+31198+121336FM-15+000399999V0202901V00201001221CN004000199+01101+01101999999ADDGA1071+001221999GE19AGL   +99999+99999GF199999071999001221999999MA1100801999999MW1101REMMET069METAR ZSSS 042130Z 29002MPS 270V330 4000 BR BKN004 11/11 Q1008 NOSIG=
0184583670999992024030422004+31198+121336FM-15+000399999V0203401N00201001221CN003000199+01101+01101999999ADDGA1071+001221999GE19AGL   +99999+99999GF199999071999001221999999MA1100801999999MW1101MW2801REMMET081METAR ZSSS 042200Z 34002MPS 3000 -SHRA BR BKN004 11/11 Q1008 BECMG TL2350 BKN005=
0170583670999992024030422304+31198+121336FM-15+000399999V0200301N00401000911CN002000199+01101+01001999999ADDGA1071+000911999GE19AGL   +99999+99999GF199999071999000911999999MA1100701999999MW1101MW2801REMMET067METAR ZSSS 042230Z 03004MPS 2000 -SHRA BR BKN003 11/10 Q1007 NOSIG=
0189583670999992024030423004+31198+121336FM-15+000399999V0203401N00301001221CN002000199+01101+01001999999ADDGA1071+001221999GE19AGL   +99999+99999GF199999071999001221999999MA1100801999999MW1101MW2801REMMET086METAR ZSSS 042300Z 34003MPS 2000 -SHRA BR BKN004 11/10 Q1008 BECMG TL0030 3000 BKN005=
0169583670999992024030423304+31198+121336FM-15+000399999V0203401N00501001221CN003000199+01101+01001999999ADDGA1071+001221999GE19AGL   +99999+99999GF199999071999001221999999MA1100901999999MW1101MW2811REMMET066METAR ZSSS 042330Z 34005MPS 3000 SHRA BR BKN004 11/10 Q1009 NOSIG=
0177583670999992024030500004+31198+121336FM-15+000399999V0203401N00401001521CN004000199+01101+01101999999ADDGA1071+001521999GE19AGL   +99999+99999GF199999071999001521999999MA1100901999999MW1101MW2801REMMET074METAR ZSSS 050000Z 34004MPS 4000 -SHRA BR BKN005 11/11 Q1009 RESHRA NOSIG=
0170583670999992024030500304+31198+121336FM-15+000399999V0203301N00401001831CN005000199+01101+01101999999ADDGA1071+001831999GE19AGL   +99999+99999GF199999071999001831999999MA1100901999999MW1101MW2801REMMET067METAR ZSSS 050030Z 33004MPS 5000 -SHRA BR BKN006 11/11 Q1009 NOSIG=
0170583670999992024030501004+31198+121336FM-15+000399999V0203301N00501001831CN005000199+01101+01101999999ADDGA1071+001831999GE19AGL   +99999+99999GF199999071999001831999999MA1101001999999MW1101MW2801REMMET067METAR ZSSS 050100Z 33005MPS 5000 -SHRA BR BKN006 11/11 Q1010 NOSIG=
0170583670999992024030501304+31198+121336FM-15+000399999V0203301N00401001831CN005000199+01201+01101999999ADDGA1071+001831999GE19AGL   +99999+99999GF199999071999001831999999MA1101001999999MW1101MW2801REMMET067METAR ZSSS 050130Z 33004MPS 5000 -SHRA BR BKN006 12/11 Q1010 NOSIG=
0161583670999992024030502004+31198+121336FM-15+000399999V0203501N00501002131CN007000199+01201+01101999999ADDGA1071+002131999GE19AGL   +99999+99999GF199999071999002131999999MA1100901999999MW1801REMMET064METAR ZSSS 050200Z 35005MPS 7000 -SHRA BKN007 12/11 Q1009 NOSIG=
0149583670999992024030502304+31198+121336FM-15+000399999V0203501N00501002131CN009999199+01201+01101999999ADDGA1071+002131999GE19AGL   +99999+99999GF199999071999002131999999MA1100801999999REMMET058METAR ZSSS 050230Z 35005MPS 9999 BKN007 12/11 Q1008 NOSIG=
0163583670999992024030503004+31198+121336FM-15+000399999V0203301N00501002441CN009999199+01301+01101999999ADDGA1071+002441999GE19AGL   +99999+99999GF199999071999002441999999MA1100901999999REMMET072METAR ZSSS 050300Z 33005MPS 9999 BKN008 13/11 Q1009 BECMG TL0440 BKN010=
0149583670999992024030503304+31198+121336FM-15+000399999V0203201N00501002441CN009999199+01201+01001999999ADDGA1071+002441999GE19AGL   +99999+99999GF199999071999002441999999MA1100901999999REMMET058METAR ZSSS 050330Z 32005MPS 9999 BKN008 12/10 Q1009 NOSIG=
0157583670999992024030504004+31198+121336FM-15+000399999V0203301V00501002441CN008000199+01201+01101999999ADDGA1071+002441999GE19AGL   +99999+99999GF199999071999002441999999MA1100801999999REMMET066METAR ZSSS 050400Z 33005MPS 290V350 8000 BKN008 12/11 Q1008 NOSIG=
0149583670999992024030504304+31198+121336FM-15+000399999V0203401N00601002441CN008000199+01301+01101999999ADDGA1071+002441999GE19AGL   +99999+99999GF199999071999002441999999MA1100801999999REMMET058METAR ZSSS 050430Z 34006MPS 8000 BKN008 13/11 Q1008 NOSIG=
0163583670999992024030505004+31198+121336FM-15+000399999V0203301N00501003051CN008000199+01301+01001999999ADDGA1071+003051999GE19AGL   +99999+99999GF199999071999003051999999MA1100701999999REMMET072METAR ZSSS 050500Z 33005MPS 8000 BKN010 13/10 Q1007 BECMG TL0640 BKN009=
0157583670999992024030505304+31198+121336FM-15+000399999V0203401V00501003051CN008000199+01301+01001999999ADDGA1071+003051999GE19AGL   +99999+99999GF199999071999003051999999MA1100801999999REMMET066METAR ZSSS 050530Z 34005MPS 310V010 8000 BKN010 13/10 Q1008 NOSIG=
0171583670999992024030506004+31198+121336FM-15+000399999V0203101V00501003351CN008000199+01201+01001999999ADDGA1071+003351999GE19AGL   +99999+99999GF199999071999003351999999MA1100801999999REMMET080METAR ZSSS 050600Z 31005MPS 280V350 8000 BKN011 12/10 Q1008 BECMG TL0740 BKN009=
0167583670999992024030506304+31198+121336FM-15+000399999V0203101V00501003351CN008000199+01201+01001999999ADDGA1071+003351999GE19AGL   +99999+99999GF199999071999003351999999MA1100801999999MW1611REMMET070METAR ZSSS 050630Z 31005MPS 270V340 8000 -RA BKN011 12/10 Q1008 NOSIG=
0173583670999992024030507004+31198+121336FM-15+000399999V0203201N00401002741CN006000199+01201+01001999999ADDGA1071+002741999GE19AGL   +99999+99999GF199999071999002741999999MA1100801999999MW1611REMMET076METAR ZSSS 050700Z 32004MPS 6000 -RA BKN009 12/10 Q1008 BECMG TL0830 BKN010=
0167583670999992024030507304+31198+121336FM-15+000399999V0203301V00501002741CN006000199+01101+01001999999ADDGA1071+002741999GE19AGL   +99999+99999GF199999071999002741999999MA1100801999999MW1611REMMET070METAR ZSSS 050730Z 33005MPS 300V360 6000 -RA BKN009 11/10 Q1008 NOSIG=
0168583670999992024030508004+31198+121336FM-15+000399999V0203301N00501002741CN005000199+01101+01001999999ADDGA1071+002741999GE19AGL   +99999+99999GF199999071999002741999999MA1100901999999MW1101MW2611REMMET065METAR ZSSS 050800Z 33005MPS 5000 -RA BR BKN009 11/10 Q1009 NOSIG=
0168583670999992024030508304+31198+121336FM-15+000399999V0203401N00601002741CN005000199+01101+00901999999ADDGA1071+002741999GE19AGL   +99999+99999GF199999071999002741999999MA1100901999999MW1101MW2611REMMET065METAR ZSSS 050830Z 34006MPS 5000 -RA BR BKN009 11/09 Q1009 NOSIG=
0173583670999992024030509004+31198+121336FM-15+000399999V0203301N00701002741CN006000199+01101+00901999999ADDGA1071+002741999GE19AGL   +99999+99999GF199999071999002741999999MA1100901999999MW1611REMMET076METAR ZSSS 050900Z 33007MPS 6000 -RA BKN009 11/09 Q1009 BECMG TL1030 BKN010=
0159583670999992024030509304+31198+121336FM-15+000399999V0203401N00601002741CN007000199+01001+00901999999ADDGA1071+002741999GE19AGL   +99999+99999GF199999071999002741999999MA1101001999999MW1611REMMET062METAR ZSSS 050930Z 34006MPS 7000 -RA BKN009 10/09 Q1010 NOSIG=
0159583670999992024030510004+31198+121336FM-15+000399999V0203401N00701002741CN007000199+01001+00901999999ADDGA1071+002741999GE19AGL   +99999+99999GF199999071999002741999999MA1101001999999MW1611REMMET062METAR ZSSS 051000Z 34007MPS 7000 -RA BKN009 10/09 Q1010 NOSIG=
0159583670999992024030510304+31198+121336FM-15+000399999V0203401N00701002131CN007000199+01001+00901999999ADDGA1071+002131999GE19AGL   +99999+99999GF199999071999002131999999MA1101001999999MW1611REMMET062METAR ZSSS 051030Z 34007MPS 7000 -RA BKN007 10/09 Q1010 NOSIG=
0159583670999992024030511004+31198+121336FM-15+000399999V0203501N00601002131CN009999199+01001+00901999999ADDGA1071+002131999GE19AGL   +99999+99999GF199999071999002131999999MA1101101999999MW1611REMMET062METAR ZSSS 051100Z 35006MPS 9999 -RA BKN007 10/09 Q1011 NOSIG=
0149583670999992024030511304+31198+121336FM-15+000399999V0203601N00701002441CN009999199+00901+00801999999ADDGA1071+002441999GE19AGL   +99999+99999GF199999071999002441999999MA1101101999999REMMET058METAR ZSSS 051130Z 36007MPS 9999 BKN008 09/08 Q1011 NOSIG=
0149583670999992024030512004+31198+121336FM-15+000399999V0203601N00601002441CN009999199+00901+00801999999ADDGA1071+002441999GE19AGL   +99999+99999GF199999071999002441999999MA1101301999999REMMET058METAR ZSSS 051200Z 36006MPS 9999 BKN008 09/08 Q1013 NOSIG=
0161583670999992024030512304+31198+121336FM-15+000399999V0203601N00601002131CN008000199+00901+00801999999ADDGA1071+002131999GE19AGL   +99999+99999GF199999071999002131999999MA1101301999999MW1801REMMET064METAR ZSSS 051230Z 36006MPS 8000 -SHRA BKN007 09/08 Q1013 NOSIG=
0161583670999992024030513004+31198+121336FM-15+000399999V0203601N00501002131CN009999199+00901+00801999999ADDGA1071+002131999GE19AGL   +99999+99999GF199999071999002131999999MA1101301999999MW1801REMMET064METAR ZSSS 051300Z 36005MPS 9999 -SHRA BKN007 09/08 Q1013 NOSIG=
0161583670999992024030513304+31198+121336FM-15+000399999V0203601N00501002741CN009999199+00901+00801999999ADDGA1071+002741999GE19AGL   +99999+99999GF199999071999002741999999MA1101301999999MW1801REMMET064METAR ZSSS 051330Z 36005MPS 9999 -SHRA BKN009 09/08 Q1013 NOSIG=
0161583670999992024030514004+31198+121336FM-15+000399999V0203501N00501002741CN009999199+00901+00801999999ADDGA1071+002741999GE19AGL   +99999+99999GF199999071999002741999999MA1101401999999MW1801REMMET064METAR ZSSS 051400Z 35005MPS 9999 -SHRA BKN009 09/08 Q1014 NOSIG=
0161583670999992024030514304+31198+121336FM-15+000399999V0203501N00501002741CN009999199+00901+00801999999ADDGA1071+002741999GE19AGL   +99999+99999GF199999071999002741999999MA1101401999999MW1801REMMET064METAR ZSSS 051430Z 35005MPS 9999 -SHRA BKN009 09/08 Q1014 NOSIG=
0161583670999992024030515004+31198+121336FM-15+000399999V0203501N00501002131CN009999199+00901+00801999999ADDGA1071+002131999GE19AGL   +99999+99999GF199999071999002131999999MA1101401999999MW1801REMMET064METAR ZSSS 051500Z 35005MPS 9999 -SHRA BKN007 09/08 Q1014 NOSIG=
0161583670999992024030515304+31198+121336FM-15+000399999V0203601N00701002131CN009999199+00901+00701999999ADDGA1071+002131999GE19AGL   +99999+99999GF199999071999002131999999MA1101401999999MW1801REMMET064METAR ZSSS 051530Z 36007MPS 9999 -SHRA BKN007 09/07 Q1014 NOSIG=
0161583670999992024030516004+31198+121336FM-15+000399999V0203501N00601002131CN009999199+00801+00701999999ADDGA1071+002131999GE19AGL   +99999+99999GF199999071999002131999999MA1101501999999MW1801REMMET064METAR ZSSS 051600Z 35006MPS 9999 -SHRA BKN007 08/07 Q1015 NOSIG=
0159583670999992024030516304+31198+121336FM-15+000399999V0203501N00701002131CN006000199+00801+00701999999ADDGA1071+002131999GE19AGL   +99999+99999GF199999071999002131999999MA1101501999999MW1611REMMET062METAR ZSSS 051630Z 35007MPS 6000 -RA BKN007 08/07 Q1015 NOSIG=
0159583670999992024030517004+31198+121336FM-15+000399999V0203501N00601002131CN005000199+00701+00601999999ADDGA1071+002131999GE19AGL   +99999+99999GF199999071999002131999999MA1101501999999MW1611REMMET062METAR ZSSS 051700Z 35006MPS 5000 -RA BKN007 07/06 Q1015 NOSIG=
0159583670999992024030517304+31198+121336FM-15+000399999V0203501N00701002131CN005000199+00701+00601999999ADDGA1071+002131999GE19AGL   +99999+99999GF199999071999002131999999MA1101601999999MW1611REMMET062METAR ZSSS 051730Z 35007MPS 5000 -RA BKN007 07/06 Q1016 NOSIG=
0159583670999992024030518004+31198+121336FM-15+000399999V0203401N00501002131CN004000199+00701+00601999999ADDGA1071+002131999GE19AGL   +99999+99999GF199999071999002131999999MA1101601999999MW1611REMMET062METAR ZSSS 051800Z 34005MPS 4000 -RA BKN007 07/06 Q1016 NOSIG=
0159583670999992024030518304+31198+121336FM-15+000399999V0203401N00501001831CN004000199+00701+00601999999ADDGA1071+001831999GE19AGL   +99999+99999GF199999071999001831999999MA1101601999999MW1611REMMET062METAR ZSSS 051830Z 34005MPS 4000 -RA BKN006 07/06 Q1016 NOSIG=
0159583670999992024030519004+31198+121336FM-15+000399999V0203501N00601001831CN004000199+00701+00601999999ADDGA1071+001831999GE19AGL   +99999+99999GF199999071999001831999999MA1101601999999MW1611REMMET062METAR ZSSS 051900Z 35006MPS 4000 -RA BKN006 07/06 Q1016 NOSIG=
0159583670999992024030519304+31198+121336FM-15+000399999V0203501N00701001831CN005000199+00701+00601999999ADDGA1071+001831999GE19AGL   +99999+99999GF199999071999001831999999MA1101601999999MW1611REMMET062METAR ZSSS 051930Z 35007MPS 5000 -RA BKN006 07/06 Q1016 NOSIG=
0159583670999992024030520004+31198+121336FM-15+000399999V0203401N00601001831CN005000199+00701+00601999999ADDGA1071+001831999GE19AGL   +99999+99999GF199999071999001831999999MA1101601999999MW1611REMMET062METAR ZSSS 052000Z 34006MPS 5000 -RA BKN006 07/06 Q1016 NOSIG=
0149583670999992024030520304+31198+121336FM-15+000399999V0203501N00601001831CN007000199+00701+00601999999ADDGA1071+001831999GE19AGL   +99999+99999GF199999071999001831999999MA1101601999999REMMET058METAR ZSSS 052030Z 35006MPS 7000 BKN006 07/06 Q1016 NOSIG=
0163583670999992024030521004+31198+121336FM-15+000399999V0203401N00501002441CN007000199+00601+00501999999ADDGA1071+002441999GE19AGL   +99999+99999GF199999071999002441999999MA1101701999999REMMET072METAR ZSSS 052100Z 34005MPS 7000 BKN008 06/05 Q1017 BECMG TL2230 BKN010=
0159583670999992024030521304+31198+121336FM-15+000399999V0203401N00501003051CN007000199+00701+00501999999ADDGA1071+003051999GE19AGL   +99999+99999GF199999071999003051999999MA1101701999999MW1611REMMET062METAR ZSSS 052130Z 34005MPS 7000 -RA BKN010 07/05 Q1017 NOSIG=
0173583670999992024030522004+31198+121336FM-15+000399999V0203401N00501003961CN009999199+00701+00501999999ADDGA1071+003961999GE19AGL   +99999+99999GF199999071999003961999999MA1101801999999MW1611REMMET076METAR ZSSS 052200Z 34005MPS 9999 -RA BKN013 07/05 Q1018 BECMG TL2330 BKN015=
0159583670999992024030522304+31198+121336FM-15+000399999V0203401N00401004881CN009999199+00701+00501999999ADDGA1071+004881999GE19AGL   +99999+99999GF199999071999004881999999MA1101801999999MW1611REMMET062METAR ZSSS 052230Z 34004MPS 9999 -RA BKN016 07/05 Q1018 NOSIG=
0149583670999992024030523004+31198+121336FM-15+000399999V0203501N00601004881CN009999199+00701+00401999999ADDGA1071+004881999GE19AGL   +99999+99999GF199999071999004881999999MA1101801999999REMMET058METAR ZSSS 052300Z 35006MPS 9999 BKN016 07/04 Q1018 NOSIG=
0149583670999992024030523304+31198+121336FM-15+000399999V0203501N00501006101CN009999199+00701+00401999999ADDGA1071+006101999GE19AGL   +99999+99999GF199999071999006101999999MA1101901999999REMMET058METAR ZSSS 052330Z 35005MPS 9999 BKN020 07/04 Q1019 NOSIG=
0149583670999992024030600004+31198+121336FM-15+000399999V0203501N00601006101CN009999199+00701+00401999999ADDGA1071+006101999GE19AGL   +99999+99999GF199999071999006101999999MA1101901999999REMMET058METAR ZSSS 060000Z 35006MPS 9999 BKN020 07/04 Q1019 NOSIG=
0149583670999992024030600304+31198+121336FM-15+000399999V0203601N00601009141CN009999199+00701+00301999999ADDGA1071+009141999GE19AGL   +99999+99999GF199999071999009141999999MA1102001999999REMMET058METAR ZSSS 060030Z 36006MPS 9999 BKN030 07/03 Q1020 NOSIG=
0149583670999992024030601004+31198+121336FM-15+000399999V0203501N00601009141CN009999199+00801+00301999999ADDGA1071+009141999GE19AGL   +99999+99999GF199999071999009141999999MA1102001999999REMMET058METAR ZSSS 060100Z 35006MPS 9999 BKN030 08/03 Q1020 NOSIG=
0149583670999992024030601304+31198+121336FM-15+000399999V0203401N006019999999N009999199+00801+00301999999ADDGA1021+009141999GE19AGL   +99999+99999GF199999021999009141999999MA1102001999999REMMET058METAR ZSSS 060130Z 34006MPS 9999 FEW030 08/03 Q1020 NOSIG=
0087583670999992024030602004+31198+121336FM-15+000399999V0203401V006019999999Y009900599+00901+00301999999ADDMA1102101999999REMMET060METAR ZSSS 060200Z 34006MPS 310V010 CAVOK 09/03 Q1021 NOSIG=
0079583670999992024030602304+31198+121336FM-15+000399999V0203501N006019999999Y009900599+00901+00301999999ADDMA1102001999999REMMET052METAR ZSSS 060230Z 35006MPS CAVOK 09/03 Q1020 NOSIG=
0087583670999992024030603004+31198+121336FM-15+000399999V0203601V005019999999Y009900599+01001+00301999999ADDMA1102001999999REMMET060METAR ZSSS 060300Z 36005MPS 330V030 CAVOK 10/03 Q1020 NOSIG=
0079583670999992024030603304+31198+121336FM-15+000399999V0203501N006019999999Y009900599+01001+00301999999ADDMA1102001999999REMMET052METAR ZSSS 060330Z 35006MPS CAVOK 10/03 Q1020 NOSIG=
0079583670999992024030604004+31198+121336FM-15+000399999V0203501N006019999999Y009900599+01101+00301999999ADDMA1102001999999REMMET052METAR ZSSS 060400Z 35006MPS CAVOK 11/03 Q1020 NOSIG=
0079583670999992024030604304+31198+121336FM-15+000399999V0203501N006019999999Y009900599+01101+00301999999ADDMA1101901999999REMMET052METAR ZSSS 060430Z 35006MPS CAVOK 11/03 Q1019 NOSIG=
0079583670999992024030605004+31198+121336FM-15+000399999V0203601N007019999999Y009900599+01101+00201999999ADDMA1101901999999REMMET052METAR ZSSS 060500Z 36007MPS CAVOK 11/02 Q1019 NOSIG=
0079583670999992024030605304+31198+121336FM-15+000399999V0200101N007019999999Y009900599+01001+00201999999ADDMA1101901999999REMMET052METAR ZSSS 060530Z 01007MPS CAVOK 10/02 Q1019 NOSIG=
0079583670999992024030606004+31198+121336FM-15+000399999V0203401N007019999999Y009900599+01001+00201999999ADDMA1101901999999REMMET052METAR ZSSS 060600Z 34007MPS CAVOK 10/02 Q1019 NOSIG=
0079583670999992024030606304+31198+121336FM-15+000399999V0203601N007019999999Y009900599+01001+00201999999ADDMA1101901999999REMMET052METAR ZSSS 060630Z 36007MPS CAVOK 10/02 Q1019 NOSIG=
0079583670999992024030607004+31198+121336FM-15+000399999V0203401N007019999999Y009900599+01001+00101999999ADDMA1102001999999REMMET052METAR ZSSS 060700Z 34007MPS CAVOK 10/01 Q1020 NOSIG=
0079583670999992024030607304+31198+121336FM-15+000399999V0203601N007019999999Y009900599+01001+00101999999ADDMA1102001999999REMMET052METAR ZSSS 060730Z 36007MPS CAVOK 10/01 Q1020 NOSIG=
0079583670999992024030608004+31198+121336FM-15+000399999V0203501N007019999999Y009900599+01001+00101999999ADDMA1102001999999REMMET052METAR ZSSS 060800Z 35007MPS CAVOK 10/01 Q1020 NOSIG=
0079583670999992024030608304+31198+121336FM-15+000399999V0203501N007019999999Y009900599+00901+00101999999ADDMA1102001999999REMMET052METAR ZSSS 060830Z 35007MPS CAVOK 09/01 Q1020 NOSIG=
0079583670999992024030609004+31198+121336FM-15+000399999V0203601N007019999999Y009900599+00901+00101999999ADDMA1102001999999REMMET052METAR ZSSS 060900Z 36007MPS CAVOK 09/01 Q1020 NOSIG=
0079583670999992024030609304+31198+121336FM-15+000399999V0200101N007019999999Y009900599+00901+00101999999ADDMA1102101999999REMMET052METAR ZSSS 060930Z 01007MPS CAVOK 09/01 Q1021 NOSIG=
0079583670999992024030610004+31198+121336FM-15+000399999V0200101N007019999999Y009900599+00801+00101999999ADDMA1102101999999REMMET052METAR ZSSS 061000Z 01007MPS CAVOK 08/01 Q1021 NOSIG=
0079583670999992024030610304+31198+121336FM-15+000399999V0200101N005019999999Y009900599+00801+00201999999ADDMA1102101999999REMMET052METAR ZSSS 061030Z 01005MPS CAVOK 08/02 Q1021 NOSIG=
0079583670999992024030611004+31198+121336FM-15+000399999V0200101N006019999999Y009900599+00801+00101999999ADDMA1102201999999REMMET052METAR ZSSS 061100Z 01006MPS CAVOK 08/01 Q1022 NOSIG=
0079583670999992024030611304+31198+121336FM-15+000399999V0200101N005019999999Y009900599+00801+00101999999ADDMA1102201999999REMMET052METAR ZSSS 061130Z 01005MPS CAVOK 08/01 Q1022 NOSIG=
0079583670999992024030612004+31198+121336FM-15+000399999V0200201N005019999999Y009900599+00701+00001999999ADDMA1102201999999REMMET052METAR ZSSS 061200Z 02005MPS CAVOK 07/00 Q1022 NOSIG=
0079583670999992024030612304+31198+121336FM-15+000399999V0200201N005019999999Y009900599+00701+00001999999ADDMA1102301999999REMMET052METAR ZSSS 061230Z 02005MPS CAVOK 07/00 Q1023 NOSIG=
0079583670999992024030613004+31198+121336FM-15+000399999V0200201N005019999999Y009900599+00701+00001999999ADDMA1102301999999REMMET052METAR ZSSS 061300Z 02005MPS CAVOK 07/00 Q1023 NOSIG=
0079583670999992024030613304+31198+121336FM-15+000399999V0200101N005019999999Y009900599+00701+00001999999ADDMA1102301999999REMMET052METAR ZSSS 061330Z 01005MPS CAVOK 07/00 Q1023 NOSIG=
0079583670999992024030614004+31198+121336FM-15+000399999V0200201N004019999999Y009900599+00601+00001999999ADDMA1102301999999REMMET052METAR ZSSS 061400Z 02004MPS CAVOK 06/00 Q1023 NOSIG=
0079583670999992024030614304+31198+121336FM-15+000399999V0200201N005019999999Y009900599+00601+00001999999ADDMA1102301999999REMMET052METAR ZSSS 061430Z 02005MPS CAVOK 06/00 Q1023 NOSIG=
0079583670999992024030615004+31198+121336FM-15+000399999V0200201N005019999999Y009900599+00501+00101999999ADDMA1102301999999REMMET052METAR ZSSS 061500Z 02005MPS CAVOK 05/01 Q1023 NOSIG=
0079583670999992024030615304+31198+121336FM-15+000399999V0200101N005019999999Y009900599+00501+00101999999ADDMA1102401999999REMMET052METAR ZSSS 061530Z 01005MPS CAVOK 05/01 Q1024 NOSIG=
0079583670999992024030616004+31198+121336FM-15+000399999V0200101N004019999999Y009900599+00501+00101999999ADDMA1102401999999REMMET052METAR ZSSS 061600Z 01004MPS CAVOK 05/01 Q1024 NOSIG=
0079583670999992024030616304+31198+121336FM-15+000399999V0203601N004019999999Y009900599+00401+00101999999ADDMA1102401999999REMMET052METAR ZSSS 061630Z 36004MPS CAVOK 04/01 Q1024 NOSIG=
0079583670999992024030617004+31198+121336FM-15+000399999V0200101N005019999999Y009900599+00401+00101999999ADDMA1102401999999REMMET052METAR ZSSS 061700Z 01005MPS CAVOK 04/01 Q1024 NOSIG=
0079583670999992024030617304+31198+121336FM-15+000399999V0200101N005019999999Y009900599+00401+00101999999ADDMA1102401999999REMMET052METAR ZSSS 061730Z 01005MPS CAVOK 04/01 Q1024 NOSIG=
0079583670999992024030618004+31198+121336FM-15+000399999V0203601N004019999999Y009900599+00401+00101999999ADDMA1102301999999REMMET052METAR ZSSS 061800Z 36004MPS CAVOK 04/01 Q1023 NOSIG=
0079583670999992024030618304+31198+121336FM-15+000399999V0203601N003019999999Y009900599+00401+00101999999ADDMA1102301999999REMMET052METAR ZSSS 061830Z 36003MPS CAVOK 04/01 Q1023 NOSIG=
0079583670999992024030619004+31198+121336FM-15+000399999V0203601N002019999999Y009900599+00301+00001999999ADDMA1102301999999REMMET052METAR ZSSS 061900Z 36002MPS CAVOK 03/00 Q1023 NOSIG=
0079583670999992024030619304+31198+121336FM-15+000399999V0203601N003019999999Y009900599+00301+00001999999ADDMA1102301999999REMMET052METAR ZSSS 061930Z 36003MPS CAVOK 03/00 Q1023 NOSIG=
0079583670999992024030620004+31198+121336FM-15+000399999V0203501N002019999999Y009900599+00301+00101999999ADDMA1102301999999REMMET052METAR ZSSS 062000Z 35002MPS CAVOK 03/01 Q1023 NOSIG=
0087583670999992024030620304+31198+121336FM-15+000399999V0203301V002019999999Y009900599+00301+00001999999ADDMA1102301999999REMMET060METAR ZSSS 062030Z 33002MPS 320V030 CAVOK 03/00 Q1023 NOSIG=
0079583670999992024030621004+31198+121336FM-15+000399999V0203401N003019999999Y009900599+00301+00101999999ADDMA1102301999999REMMET052METAR ZSSS 062100Z 34003MPS CAVOK 03/01 Q1023 NOSIG=
0079583670999992024030621304+31198+121336FM-15+000399999V0203401N003019999999Y009900599+00301+00101999999ADDMA1102301999999REMMET052METAR ZSSS 062130Z 34003MPS CAVOK 03/01 Q1023 NOSIG=
0079583670999992024030622004+31198+121336FM-15+000399999V0203401N002019999999Y009900599+00301+00001999999ADDMA1102301999999REMMET052METAR ZSSS 062200Z 34002MPS CAVOK 03/00 Q1023 NOSIG=
0079583670999992024030622304+31198+121336FM-15+000399999V0203501N002019999999Y009900599+00301+00001999999ADDMA1102301999999REMMET052METAR ZSSS 062230Z 35002MPS CAVOK 03/00 Q1023 NOSIG=
0079583670999992024030623004+31198+121336FM-15+000399999V0203601N002019999999Y009900599+00301+00101999999ADDMA1102301999999REMMET052METAR ZSSS 062300Z 36002MPS CAVOK 03/01 Q1023 NOSIG=
0079583670999992024030623304+31198+121336FM-15+000399999V0200101N002019999999Y009900599+00501+00101999999ADDMA1102401999999REMMET052METAR ZSSS 062330Z 01002MPS CAVOK 05/01 Q1024 NOSIG=
0087583670999992024030700004+31198+121336FM-15+000399999V0203401V002019999999Y009900599+00501+00101999999ADDMA1102401999999REMMET060METAR ZSSS 070000Z 34002MPS 300V010 CAVOK 05/01 Q1024 NOSIG=
0087583670999992024030700304+31198+121336FM-15+000399999V0203401V003019999999Y009900599+00601+00101999999ADDMA1102401999999REMMET060METAR ZSSS 070030Z 34003MPS 310V020 CAVOK 06/01 Q1024 NOSIG=
0087583670999992024030701004+31198+121336FM-15+000399999V0203301V002019999999Y009900599+00701+00101999999ADDMA1102401999999REMMET060METAR ZSSS 070100Z 33002MPS 280V010 CAVOK 07/01 Q1024 NOSIG=
0087583670999992024030701304+31198+121336FM-15+000399999V0203501V002019999999Y009900599+00801+00101999999ADDMA1102401999999REMMET060METAR ZSSS 070130Z 35002MPS 260V040 CAVOK 08/01 Q1024 NOSIG=
0087583670999992024030702004+31198+121336FM-15+000399999V0203401V002019999999Y009900599+00901+00101999999ADDMA1102401999999REMMET060METAR ZSSS 070200Z 34002MPS 240V030 CAVOK 09/01 Q1024 NOSIG=
0087583670999992024030702304+31198+121336FM-15+000399999V0203201V002019999999Y009900599+01001+00001999999ADDMA1102401999999REMMET060METAR ZSSS 070230Z 32002MPS 260V020 CAVOK 10/00 Q1024 NOSIG=
0088583670999992024030703004+31198+121336FM-15+000399999V0203601V002019999999Y009900599+01001-00301999999ADDMA1102301999999REMMET061METAR ZSSS 070300Z 36002MPS 310V090 CAVOK 10/M03 Q1023 NOSIG=
0080583670999992024030703304+31198+121336FM-15+000399999V0209999V001019999999Y009900599+01101-00201999999ADDMA1102301999999REMMET053METAR ZSSS 070330Z VRB01MPS CAVOK 11/M02 Q1023 NOSIG=
0088583670999992024030704004+31198+121336FM-15+000399999V0203401V002019999999Y009900599+01101-00301999999ADDMA1102301999999REMMET061METAR ZSSS 070400Z 34002MPS 300V060 CAVOK 11/M03 Q1023 NOSIG=
0088583670999992024030704304+31198+121336FM-15+000399999V0203501V003019999999Y009900599+01101-00301999999ADDMA1102301999999REMMET061METAR ZSSS 070430Z 35003MPS 300V050 CAVOK 11/M03 Q1023 NOSIG=
0088583670999992024030705004+31198+121336FM-15+000399999V0203301V003019999999Y009900599+01301-00101999999ADDMA1102201999999REMMET061METAR ZSSS 070500Z 33003MPS 260V040 CAVOK 13/M01 Q1022 NOSIG=
0080583670999992024030705304+31198+121336FM-15+000399999V0209999V003019999999Y009900599+01301-00201999999ADDMA1102201999999REMMET053METAR ZSSS 070530Z VRB03MPS CAVOK 13/M02 Q1022 NOSIG=
0080583670999992024030706004+31198+121336FM-15+000399999V0209999V002019999999Y009900599+01201-00201999999ADDMA1102101999999REMMET053METAR ZSSS 070600Z VRB02MPS CAVOK 12/M02 Q1021 NOSIG=
0088583670999992024030706304+31198+121336FM-15+000399999V0203301V004019999999Y009900599+01301-00101999999ADDMA1102101999999REMMET061METAR ZSSS 070630Z 33004MPS 270V040 CAVOK 13/M01 Q1021 NOSIG=
0088583670999992024030707004+31198+121336FM-15+000399999V0203201V004019999999Y009900599+01301-00201999999ADDMA1102001999999REMMET061METAR ZSSS 070700Z 32004MPS 270V020 CAVOK 13/M02 Q1020 NOSIG=
0080583670999992024030707304+31198+121336FM-15+000399999V0203401N006019999999Y009900599+01301-00101999999ADDMA1102001999999REMMET053METAR ZSSS 070730Z 34006MPS CAVOK 13/M01 Q1020 NOSIG=
0080583670999992024030708004+31198+121336FM-15+000399999V0203501N003019999999Y009900599+01201-00301999999ADDMA1102001999999REMMET053METAR ZSSS 070800Z 35003MPS CAVOK 12/M03 Q1020 NOSIG=
0088583670999992024030708304+31198+121336FM-15+000399999V0200101V004019999999Y009900599+01201-00201999999ADDMA1102001999999REMMET061METAR ZSSS 070830Z 01004MPS 320V040 CAVOK 12/M02 Q1020 NOSIG=
0088583670999992024030709004+31198+121336FM-15+000399999V0203601V004019999999Y009900599+01201-00201999999ADDMA1102001999999REMMET061METAR ZSSS 070900Z 36004MPS 320V020 CAVOK 12/M02 Q1020 NOSIG=
0080583670999992024030709304+31198+121336FM-15+000399999V0203401N004019999999Y009900599+01101-00201999999ADDMA1102001999999REMMET053METAR ZSSS 070930Z 34004MPS CAVOK 11/M02 Q1020 NOSIG=
0080583670999992024030710004+31198+121336FM-15+000399999V0209999V002019999999Y009900599+01101-00201999999ADDMA1102001999999REMMET053METAR ZSSS 071000Z VRB02MPS CAVOK 11/M02 Q1020 NOSIG=
0088583670999992024030710304+31198+121336FM-15+000399999V0203301V002019999999Y009900599+01001-00201999999ADDMA1102101999999REMMET061METAR ZSSS 071030Z 33002MPS 290V010 CAVOK 10/M02 Q1021 NOSIG=
0079583670999992024030711004+31198+121336FM-15+000399999V0201501N004019999999Y009900599+01001+00201999999ADDMA1102101999999REMMET052METAR ZSSS 071100Z 15004MPS CAVOK 10/02 Q1021 NOSIG=
0079583670999992024030711304+31198+121336FM-15+000399999V0201601N004019999999Y009900599+00801+00201999999ADDMA1102101999999REMMET052METAR ZSSS 071130Z 16004MPS CAVOK 08/02 Q1021 NOSIG=
0079583670999992024030712004+31198+121336FM-15+000399999V0201501N003019999999Y009900599+00801+00101999999ADDMA1102201999999REMMET052METAR ZSSS 071200Z 15003MPS CAVOK 08/01 Q1022 NOSIG=
0079583670999992024030712304+31198+121336FM-15+000399999V0201601N003019999999Y009900599+00801+00101999999ADDMA1102201999999REMMET052METAR ZSSS 071230Z 16003MPS CAVOK 08/01 Q1022 NOSIG=
0079583670999992024030713004+31198+121336FM-15+000399999V0201601N003019999999Y009900599+00701+00201999999ADDMA1102201999999REMMET052METAR ZSSS 071300Z 16003MPS CAVOK 07/02 Q1022 NOSIG=
0079583670999992024030713304+31198+121336FM-15+000399999V0201601N003019999999Y009900599+00701+00301999999ADDMA1102301999999REMMET052METAR ZSSS 071330Z 16003MPS CAVOK 07/03 Q1023 NOSIG=
0079583670999992024030714004+31198+121336FM-15+000399999V0201801N004019999999Y009900599+00701+00201999999ADDMA1102301999999REMMET052METAR ZSSS 071400Z 18004MPS CAVOK 07/02 Q1023 NOSIG=
0079583670999992024030714304+31198+121336FM-15+000399999V0201701N003019999999Y009900599+00701+00201999999ADDMA1102301999999REMMET052METAR ZSSS 071430Z 17003MPS CAVOK 07/02 Q1023 NOSIG=
0079583670999992024030715004+31198+121336FM-15+000399999V0201901N003019999999Y009900599+00601+00201999999ADDMA1102301999999REMMET052METAR ZSSS 071500Z 19003MPS CAVOK 06/02 Q1023 NOSIG=
0079583670999992024030715304+31198+121336FM-15+000399999V0202001N003019999999Y009900599+00601+00301999999ADDMA1102201999999REMMET052METAR ZSSS 071530Z 20003MPS CAVOK 06/03 Q1022 NOSIG=
0079583670999992024030716004+31198+121336FM-15+000399999V0201901N004019999999Y009900599+00701+00301999999ADDMA1102201999999REMMET052METAR ZSSS 071600Z 19004MPS CAVOK 07/03 Q1022 NOSIG=
0087583670999992024030716304+31198+121336FM-15+000399999V0202601V002019999999Y009900599+00701+00301999999ADDMA1102301999999REMMET060METAR ZSSS 071630Z 26002MPS 240V300 CAVOK 07/03 Q1023 NOSIG=
0079583670999992024030717004+31198+121336FM-15+000399999V0202401N003019999999Y009900599+00701+00301999999ADDMA1102301999999REMMET052METAR ZSSS 071700Z 24003MPS CAVOK 07/03 Q1023 NOSIG=
0087583670999992024030717304+31198+121336FM-15+000399999V0202201V003019999999Y009900599+00601+00301999999ADDMA1102301999999REMMET060METAR ZSSS 071730Z 22003MPS 200V260 CAVOK 06/03 Q1023 NOSIG=
0079583670999992024030718004+31198+121336FM-15+000399999V0202401N003019999999Y009900599+00601+00301999999ADDMA1102201999999REMMET052METAR ZSSS 071800Z 24003MPS CAVOK 06/03 Q1022 NOSIG=
0157583670999992024030718304+31198+121336FM-15+000399999V0202701V00301010061CN009999199+00701+00301999999ADDGA1071+010061999GE19AGL   +99999+99999GF199999071999010061999999MA1102201999999REMMET066METAR ZSSS 071830Z 27003MPS 230V300 9999 BKN033 07/03 Q1022 NOSIG=
0157583670999992024030719004+31198+121336FM-15+000399999V0203201V00501010061CN009999199+00701+00301999999ADDGA1071+010061999GE19AGL   +99999+99999GF199999071999010061999999MA1102201999999REMMET066METAR ZSSS 071900Z 32005MPS 290V350 9999 BKN033 07/03 Q1022 NOSIG=
0149583670999992024030719304+31198+121336FM-15+000399999V0203201N005019999999N009999199+00801+00201999999ADDGA1041+010061999GE19AGL   +99999+99999GF199999041999010061999999MA1102201999999REMMET058METAR ZSSS 071930Z 32005MPS 9999 SCT033 08/02 Q1022 NOSIG=
0149583670999992024030720004+31198+121336FM-15+000399999V0203301N004019999999N009999199+00701+00201999999ADDGA1041+010061999GE19AGL   +99999+99999GF199999041999010061999999MA1102201999999REMMET058METAR ZSSS 072000Z 33004MPS 9999 SCT033 07/02 Q1022 NOSIG=
0149583670999992024030720304+31198+121336FM-15+000399999V0203201N004019999999N009999199+00701+00201999999ADDGA1041+010061999GE19AGL   +99999+99999GF199999041999010061999999MA1102301999999REMMET058METAR ZSSS 072030Z 32004MPS 9999 SCT033 07/02 Q1023 NOSIG=
0149583670999992024030722004+31198+121336FM-15+000399999V0203301N00501009141CN007000199+00701+00201999999ADDGA1071+009141999GE19AGL   +99999+99999GF199999071999009141999999MA1102401999999REMMET058METAR ZSSS 072200Z 33005MPS 7000 BKN030 07/02 Q1024 NOSIG=
0149583670999992024030722304+31198+121336FM-15+000399999V0203301N00701007921CN006000199+00601+00201999999ADDGA1071+007921999GE19AGL   +99999+99999GF199999071999007921999999MA1102401999999REMMET058METAR ZSSS 072230Z 33007MPS 6000 BKN026 06/02 Q1024 NOSIG=
0149583670999992024030723004+31198+121336FM-15+000399999V0203501N00701007011CN006000199+00601+00101999999ADDGA1071+007011999GE19AGL   +99999+99999GF199999071999007011999999MA1102401999999REMMET058METAR ZSSS 072300Z 35007MPS 6000 BKN023 06/01 Q1024 NOSIG=
0149583670999992024030723304+31198+121336FM-15+000399999V0203601N00801006101CN006000199+00601+00101999999ADDGA1071+006101999GE19AGL   +99999+99999GF199999071999006101999999MA1102501999999REMMET058METAR ZSSS 072330Z 36008MPS 6000 BKN020 06/01 Q1025 NOSIG=
0149583670999992024030800004+31198+121336FM-15+000399999V0203601N007019999999N007000199+00601+00101999999ADDGA1041+006101999GE19AGL   +99999+99999GF199999041999006101999999MA1102501999999REMMET058METAR ZSSS 080000Z 36007MPS 7000 SCT020 06/01 Q1025 NOSIG=
0149583670999992024030800304+31198+121336FM-15+000399999V0200101N00701007011CN007000199+00701+00101999999ADDGA1071+007011999GE19AGL   +99999+99999GF199999071999007011999999MA1102501999999REMMET058METAR ZSSS 080030Z 01007MPS 7000 BKN023 07/01 Q1025 NOSIG=
0149583670999992024030801004+31198+121336FM-15+000399999V0203601N00701007011CN008000199+00701+00101999999ADDGA1071+007011999GE19AGL   +99999+99999GF199999071999007011999999MA1102601999999REMMET058METAR ZSSS 080100Z 36007MPS 8000 BKN023 07/01 Q1026 NOSIG=
0149583670999992024030801304+31198+121336FM-15+000399999V0203501N006019999999N008000199+00801+00101999999ADDGA1021+007011999GE19AGL   +99999+99999GF199999021999007011999999MA1102601999999REMMET058METAR ZSSS 080130Z 35006MPS 8000 FEW023 08/01 Q1026 NOSIG=
0157583670999992024030802004+31198+121336FM-15+000399999V0203501V005019999999N009999199+00901+00101999999ADDGA1021+007921999GE19AGL   +99999+99999GF199999021999007921999999MA1102601999999REMMET066METAR ZSSS 080200Z 35005MPS 320V020 9999 FEW026 09/01 Q1026 NOSIG=
0157583670999992024030802304+31198+121336FM-15+000399999V0203501V005019999999N009999199+00901+00001999999ADDGA1041+010061999GE19AGL   +99999+99999GF199999041999010061999999MA1102601999999REMMET066METAR ZSSS 080230Z 35005MPS 320V030 9999 SCT033 09/00 Q1026 NOSIG=
0157583670999992024030803004+31198+121336FM-15+000399999V0200101V005019999999N009999199+01001+00101999999ADDGA1041+010061999GE19AGL   +99999+99999GF199999041999010061999999MA1102601999999REMMET066METAR ZSSS 080300Z 01005MPS 340V040 9999 SCT033 10/01 Q1026 NOSIG=
0149583670999992024030803304+31198+121336FM-15+000399999V0203401N006019999999N009999199+01001+00101999999ADDGA1041+010061999GE19AGL   +99999+99999GF199999041999010061999999MA1102601999999REMMET058METAR ZSSS 080330Z 34006MPS 9999 SCT033 10/01 Q1026 NOSIG=
0158583670999992024030804004+31198+121336FM-15+000399999V0203601V005019999999N009999199+01001-00101999999ADDGA1021+010061999GE19AGL   +99999+99999GF199999021999010061999999MA1102601999999REMMET067METAR ZSSS 080400Z 36005MPS 320V020 9999 FEW033 10/M01 Q1026 NOSIG=
0157583670999992024030804304+31198+121336FM-15+000399999V0203301V005019999999N009999199+01101+00001999999ADDGA1041+012191999GE19AGL   +99999+99999GF199999041999012191999999MA1102601999999REMMET066METAR ZSSS 080430Z 33005MPS 300V360 9999 SCT040 11/00 Q1026 NOSIG=
0158583670999992024030805004+31198+121336FM-15+000399999V0203201V006019999999N009999199+01201+00001999999ADDGA1041+012191999GE19AGL   +99999+99999GF199999041999012191999999MA1102501999999REMMET067METAR ZSSS 080500Z 32006MPS 290V360 9999 SCT040 12/M00 Q1025 NOSIG=
0158583670999992024030805304+31198+121336FM-15+000399999V0203201V006019999999N009999199+01301+00001999999ADDGA1041+012191999GE19AGL   +99999+99999GF199999041999012191999999MA1102501999999REMMET067METAR ZSSS 080530Z 32006MPS 270V360 9999 SCT040 13/M00 Q1025 NOSIG=
0088583670999992024030806004+31198+121336FM-15+000399999V0203401V006019999999Y009900599+01201-00101999999ADDMA1102501999999REMMET061METAR ZSSS 080600Z 34006MPS 300V010 CAVOK 12/M01 Q1025 NOSIG=
0080583670999992024030806304+31198+121336FM-15+000399999V0203501N007019999999Y009900599+01101-00401999999ADDMA1102501999999REMMET053METAR ZSSS 080630Z 35007MPS CAVOK 11/M04 Q1025 NOSIG=
0088583670999992024030807004+31198+121336FM-15+000399999V0203301V005019999999Y009900599+01201-00301999999ADDMA1102501999999REMMET061METAR ZSSS 080700Z 33005MPS 290V010 CAVOK 12/M03 Q1025 NOSIG=
0088583670999992024030807304+31198+121336FM-15+000399999V0203301V007019999999Y009900599+01201-00401999999ADDMA1102401999999REMMET061METAR ZSSS 080730Z 33007MPS 290V020 CAVOK 12/M04 Q1024 NOSIG=
0088583670999992024030808004+31198+121336FM-15+000399999V0203601V005019999999Y009900599+01201-00301999999ADDMA1102401999999REMMET061METAR ZSSS 080800Z 36005MPS 320V030 CAVOK 12/M03 Q1024 NOSIG=
0088583670999992024030808304+31198+121336FM-15+000399999V0203601V005019999999Y009900599+01101-00401999999ADDMA1102501999999REMMET061METAR ZSSS 080830Z 36005MPS 310V040 CAVOK 11/M04 Q1025 NOSIG=
0080583670999992024030809004+31198+121336FM-15+000399999V0200101N005019999999Y009900599+01101-00301999999ADDMA1102401999999REMMET053METAR ZSSS 080900Z 01005MPS CAVOK 11/M03 Q1024 NOSIG=
0080583670999992024030809304+31198+121336FM-15+000399999V0200201N005019999999Y009900599+01101-00301999999ADDMA1102501999999REMMET053METAR ZSSS 080930Z 02005MPS CAVOK 11/M03 Q1025 NOSIG=
0080583670999992024030810004+31198+121336FM-15+000399999V0200101N003019999999Y009900599+01001-00201999999ADDMA1102501999999REMMET053METAR ZSSS 081000Z 01003MPS CAVOK 10/M02 Q1025 NOSIG=
0080583670999992024030810304+31198+121336FM-15+000399999V0203401N004019999999Y009900599+01001-00301999999ADDMA1102501999999REMMET053METAR ZSSS 081030Z 34004MPS CAVOK 10/M03 Q1025 NOSIG=
0080583670999992024030811004+31198+121336FM-15+000399999V0203401N004019999999Y009900599+01001-00301999999ADDMA1102501999999REMMET053METAR ZSSS 081100Z 34004MPS CAVOK 10/M03 Q1025 NOSIG=
0088583670999992024030811304+31198+121336FM-15+000399999V0203401V003019999999Y009900599+01001-00301999999ADDMA1102501999999REMMET061METAR ZSSS 081130Z 34003MPS 310V020 CAVOK 10/M03 Q1025 NOSIG=
0088583670999992024030812004+31198+121336FM-15+000399999V0200501V002019999999Y009900599+00901-00201999999ADDMA1102501999999REMMET061METAR ZSSS 081200Z 05002MPS 020V110 CAVOK 09/M02 Q1025 NOSIG=
0080583670999992024030812304+31198+121336FM-15+000399999V0200901N001019999999Y009900599+00901-00201999999ADDMA1102501999999REMMET053METAR ZSSS 081230Z 09001MPS CAVOK 09/M02 Q1025 NOSIG=
0080583670999992024030813004+31198+121336FM-15+000399999V0209999V001019999999Y009900599+00901-00201999999ADDMA1102601999999REMMET053METAR ZSSS 081300Z VRB01MPS CAVOK 09/M02 Q1026 NOSIG=
0080583670999992024030813304+31198+121336FM-15+000399999V0209999V001019999999Y009900599+00901-00201999999ADDMA1102601999999REMMET053METAR ZSSS 081330Z VRB01MPS CAVOK 09/M02 Q1026 NOSIG=
0080583670999992024030814004+31198+121336FM-15+000399999V0209999V001019999999Y009900599+00801-00201999999ADDMA1102601999999REMMET053METAR ZSSS 081400Z VRB01MPS CAVOK 08/M02 Q1026 NOSIG=
0087583670999992024030814304+31198+121336FM-15+000399999V0201501V003019999999Y009900599+00701+00101999999ADDMA1102601999999REMMET060METAR ZSSS 081430Z 15003MPS 110V170 CAVOK 07/01 Q1026 NOSIG=
0079583670999992024030815004+31198+121336FM-15+000399999V0201701N003019999999Y009900599+00701+00201999999ADDMA1102601999999REMMET052METAR ZSSS 081500Z 17003MPS CAVOK 07/02 Q1026 NOSIG=
0079583670999992024030815304+31198+121336FM-15+000399999V0201601N003019999999Y009900599+00701+00201999999ADDMA1102601999999REMMET052METAR ZSSS 081530Z 16003MPS CAVOK 07/02 Q1026 NOSIG=
0079583670999992024030816004+31198+121336FM-15+000399999V0201601N002019999999Y009900599+00601+00201999999ADDMA1102601999999REMMET052METAR ZSSS 081600Z 16002MPS CAVOK 06/02 Q1026 NOSIG=
0079583670999992024030816304+31198+121336FM-15+000399999V0201701N002019999999Y009900599+00601+00201999999ADDMA1102601999999REMMET052METAR ZSSS 081630Z 17002MPS CAVOK 06/02 Q1026 NOSIG=
0079583670999992024030817004+31198+121336FM-15+000399999V0200501N002019999999Y009900599+00601+00101999999ADDMA1102601999999REMMET052METAR ZSSS 081700Z 05002MPS CAVOK 06/01 Q1026 NOSIG=
0079583670999992024030817304+31198+121336FM-15+000399999V0203601N001019999999Y009900599+00601+00201999999ADDMA1102601999999REMMET052METAR ZSSS 081730Z 36001MPS CAVOK 06/02 Q1026 NOSIG=
0079583670999992024030818004+31198+121336FM-15+000399999V0202301N001019999999Y009900599+00601+00201999999ADDMA1102701999999REMMET052METAR ZSSS 081800Z 23001MPS CAVOK 06/02 Q1027 NOSIG=
0079583670999992024030818304+31198+121336FM-15+000399999V0209999V001019999999Y009900599+00501+00201999999ADDMA1102601999999REMMET052METAR ZSSS 081830Z VRB01MPS CAVOK 05/02 Q1026 NOSIG=
0108583670999992024030819004+31198+121336FM-15+000399999V0202101N001012200019N007000199+00501+00201999999ADDGF100991999999999999999999MA1102601999999REMMET055METAR ZSSS 081900Z 21001MPS 7000 NSC 05/02 Q1026 NOSIG=
0108583670999992024030819304+31198+121336FM-15+000399999V0202301N001012200019N007000199+00501+00201999999ADDGF100991999999999999999999MA1102601999999REMMET055METAR ZSSS 081930Z 23001MPS 7000 NSC 05/02 Q1026 NOSIG=
0108583670999992024030820004+31198+121336FM-15+000399999V0202401N001012200019N007000199+00401+00201999999ADDGF100991999999999999999999MA1102601999999REMMET055METAR ZSSS 082000Z 24001MPS 7000 NSC 04/02 Q1026 NOSIG=
0108583670999992024030820304+31198+121336FM-15+000399999V0202401N001012200019N007000199+00401+00201999999ADDGF100991999999999999999999MA1102601999999REMMET055METAR ZSSS 082030Z 24001MPS 7000 NSC 04/02 Q1026 NOSIG=
0108583670999992024030821004+31198+121336FM-15+000399999V0202301N001012200019N006000199+00401+00201999999ADDGF100991999999999999999999MA1102601999999REMMET055METAR ZSSS 082100Z 23001MPS 6000 NSC 04/02 Q1026 NOSIG=
0108583670999992024030821304+31198+121336FM-15+000399999V0209999V001012200019N006000199+00401+00201999999ADDGF100991999999999999999999MA1102601999999REMMET055METAR ZSSS 082130Z VRB01MPS 6000 NSC 04/02 Q1026 NOSIG=
0117583670999992024030822004+31198+121336FM-15+000399999V0209999C000012200019N005000199+00401+00301999999ADDGF100991999999999999999999MA1102601999999MW1101REMMET058METAR ZSSS 082200Z 00000MPS 5000 BR NSC 04/03 Q1026 NOSIG=
0117583670999992024030822304+31198+121336FM-15+000399999V0209999C000012200019N005000199+00301+00101999999ADDGF100991999999999999999999MA1102701999999MW1101REMMET058METAR ZSSS 082230Z 00000MPS 5000 BR NSC 03/01 Q1027 NOSIG=
0117583670999992024030823004+31198+121336FM-15+000399999V0200301N001012200019N005000199+00401+00201999999ADDGF100991999999999999999999MA1102701999999MW1101REMMET058METAR ZSSS 082300Z 03001MPS 5000 BR NSC 04/02 Q1027 NOSIG=
0117583670999992024030823304+31198+121336FM-15+000399999V0209999C000012200019N005000199+00601+00301999999ADDGF100991999999999999999999MA1102701999999MW1101REMMET058METAR ZSSS 082330Z 00000MPS 5000 BR NSC 06/03 Q1027 NOSIG=
0117583670999992024030900004+31198+121336FM-15+000399999V0209999V001012200019N005000199+00701+00201999999ADDGF100991999999999999999999MA1102801999999MW1101REMMET058METAR ZSSS 090000Z VRB01MPS 5000 BR NSC 07/02 Q1028 NOSIG=
0117583670999992024030900304+31198+121336FM-15+000399999V0209999V001012200019N005000199+00801+00201999999ADDGF100991999999999999999999MA1102801999999MW1051REMMET058METAR ZSSS 090030Z VRB01MPS 5000 HZ NSC 08/02 Q1028 NOSIG=
0108583670999992024030901004+31198+121336FM-15+000399999V0209999V001012200019N007000199+00901+00201999999ADDGF100991999999999999999999MA1102801999999REMMET055METAR ZSSS 090100Z VRB01MPS 7000 NSC 09/02 Q1028 NOSIG=
0080583670999992024030901304+31198+121336FM-15+000399999V0209999V001019999999Y009900599+01001-00101999999ADDMA1102801999999REMMET053METAR ZSSS 090130Z VRB01MPS CAVOK 10/M01 Q1028 NOSIG=
0079583670999992024030902004+31198+121336FM-15+000399999V0209999V002019999999Y009900599+01001+00001999999ADDMA1102801999999REMMET052METAR ZSSS 090200Z VRB02MPS CAVOK 10/00 Q1028 NOSIG=
0079583670999992024030902304+31198+121336FM-15+000399999V0209999V001019999999Y009900599+01101+00001999999ADDMA1102801999999REMMET052METAR ZSSS 090230Z VRB01MPS CAVOK 11/00 Q1028 NOSIG=
0149583670999992024030903004+31198+121336FM-15+000399999V0209999V001019999999N009999199+01201+00001999999ADDGA1021+012191999GE19AGL   +99999+99999GF199999021999012191999999MA1102801999999REMMET058METAR ZSSS 090300Z VRB01MPS 9999 FEW040 12/00 Q1028 NOSIG=
0150583670999992024030903304+31198+121336FM-15+000399999V0209999V002019999999N009999199+01201-00201999999ADDGA1021+012191999GE19AGL   +99999+99999GF199999021999012191999999MA1102801999999REMMET059METAR ZSSS 090330Z VRB02MPS 9999 FEW040 12/M02 Q1028 NOSIG=
0158583670999992024030904004+31198+121336FM-15+000399999V0200101V003019999999N009999199+01101-00301999999ADDGA1021+012191999GE19AGL   +99999+99999GF199999021999012191999999MA1102801999999REMMET067METAR ZSSS 090400Z 01003MPS 320V080 9999 FEW040 11/M03 Q1028 NOSIG=
0080583670999992024030904304+31198+121336FM-15+000399999V0209999V002019999999Y009900599+01201-00301999999ADDMA1102701999999REMMET053METAR ZSSS 090430Z VRB02MPS CAVOK 12/M03 Q1027 NOSIG=
0088583670999992024030905004+31198+121336FM-15+000399999V0203101V003019999999Y009900599+01301-00301999999ADDMA1102701999999REMMET061METAR ZSSS 090500Z 31003MPS 230V360 CAVOK 13/M03 Q1027 NOSIG=
0088583670999992024030905304+31198+121336FM-15+000399999V0203101V002019999999Y009900599+01301-00401999999ADDMA1102601999999REMMET061METAR ZSSS 090530Z 31002MPS 260V360 CAVOK 13/M04 Q1026 NOSIG=
0080583670999992024030906004+31198+121336FM-15+000399999V0209999V002019999999Y009900599+01301-00301999999ADDMA1102601999999REMMET053METAR ZSSS 090600Z VRB02MPS CAVOK 13/M03 Q1026 NOSIG=
0080583670999992024030906304+31198+121336FM-15+000399999V0203001N003019999999Y009900599+01401-00301999999ADDMA1102501999999REMMET053METAR ZSSS 090630Z 30003MPS CAVOK 14/M03 Q1025 NOSIG=
0080583670999992024030907004+31198+121336FM-15+000399999V0203401N003019999999Y009900599+01401-00301999999ADDMA1102501999999REMMET053METAR ZSSS 090700Z 34003MPS CAVOK 14/M03 Q1025 NOSIG=
0088583670999992024030907304+31198+121336FM-15+000399999V0200501V005019999999Y009900599+01301-00301999999ADDMA1102501999999REMMET061METAR ZSSS 090730Z 05005MPS 010V080 CAVOK 13/M03 Q1025 NOSIG=
0080583670999992024030908004+31198+121336FM-15+000399999V0200401N004019999999Y009900599+01301-00301999999ADDMA1102501999999REMMET053METAR ZSSS 090800Z 04004MPS CAVOK 13/M03 Q1025 NOSIG=
0088583670999992024030908304+31198+121336FM-15+000399999V0200501V003019999999Y009900599+01301-00401999999ADDMA1102501999999REMMET061METAR ZSSS 090830Z 05003MPS 010V160 CAVOK 13/M04 Q1025 NOSIG=
0088583670999992024030909004+31198+121336FM-15+000399999V0200401V004019999999Y009900599+01201-00401999999ADDMA1102601999999REMMET061METAR ZSSS 090900Z 04004MPS 360V070 CAVOK 12/M04 Q1026 NOSIG=
0080583670999992024030909304+31198+121336FM-15+000399999V0200501N004019999999Y009900599+01101-00401999999ADDMA1102601999999REMMET053METAR ZSSS 090930Z 05004MPS CAVOK 11/M04 Q1026 NOSIG=
0087583670999992024030910004+31198+121336FM-15+000399999V0201201V004019999999Y009900599+01101+00001999999ADDMA1102601999999REMMET060METAR ZSSS 091000Z 12004MPS 080V150 CAVOK 11/00 Q1026 NOSIG=
0087583670999992024030910304+31198+121336FM-15+000399999V0201201V005019999999Y009900599+01001+00001999999ADDMA1102601999999REMMET060METAR ZSSS 091030Z 12005MPS 090V150 CAVOK 10/00 Q1026 NOSIG=
0080583670999992024030911004+31198+121336FM-15+000399999V0201001N004019999999Y009900599+00901+00001999999ADDMA1102701999999REMMET053METAR ZSSS 091100Z 10004MPS CAVOK 09/M00 Q1027 NOSIG=
0087583670999992024030911304+31198+121336FM-15+000399999V0201101V004019999999Y009900599+00901+00001999999ADDMA1102701999999REMMET060METAR ZSSS 091130Z 11004MPS 080V150 CAVOK 09/00 Q1027 NOSIG=
0080583670999992024030912004+31198+121336FM-15+000399999V0201101N004019999999Y009900599+00801+00001999999ADDMA1102701999999REMMET053METAR ZSSS 091200Z 11004MPS CAVOK 08/M00 Q1027 NOSIG=
0087583670999992024030912304+31198+121336FM-15+000399999V0201101V004019999999Y009900599+00801+00001999999ADDMA1102701999999REMMET060METAR ZSSS 091230Z 11004MPS 080V160 CAVOK 08/00 Q1027 NOSIG=
0087583670999992024030913004+31198+121336FM-15+000399999V0201201V004019999999Y009900599+00701+00101999999ADDMA1102701999999REMMET060METAR ZSSS 091300Z 12004MPS 090V160 CAVOK 07/01 Q1027 NOSIG=
0079583670999992024030913304+31198+121336FM-15+000399999V0201001N004019999999Y009900599+00701+00001999999ADDMA1102801999999REMMET052METAR ZSSS 091330Z 10004MPS CAVOK 07/00 Q1028 NOSIG=
0079583670999992024030914004+31198+121336FM-15+000399999V0201001N004019999999Y009900599+00701+00101999999ADDMA1102801999999REMMET052METAR ZSSS 091400Z 10004MPS CAVOK 07/01 Q1028 NOSIG=
0079583670999992024030914304+31198+121336FM-15+000399999V0201101N004019999999Y009900599+00701+00101999999ADDMA1102801999999REMMET052METAR ZSSS 091430Z 11004MPS CAVOK 07/01 Q1028 NOSIG=
0087583670999992024030915004+31198+121336FM-15+000399999V0201101V003019999999Y009900599+00701+00201999999ADDMA1102801999999REMMET060METAR ZSSS 091500Z 11003MPS 090V160 CAVOK 07/02 Q1028 NOSIG=
0087583670999992024030915304+31198+121336FM-15+000399999V0201101V003019999999Y009900599+00701+00101999999ADDMA1102801999999REMMET060METAR ZSSS 091530Z 11003MPS 080V140 CAVOK 07/01 Q1028 NOSIG=
0079583670999992024030916004+31198+121336FM-15+000399999V0201101N003019999999Y009900599+00701+00101999999ADDMA1102801999999REMMET052METAR ZSSS 091600Z 11003MPS CAVOK 07/01 Q1028 NOSIG=
0079583670999992024030916304+31198+121336FM-15+000399999V0201201N003019999999Y009900599+00601+00101999999ADDMA1102801999999REMMET052METAR ZSSS 091630Z 12003MPS CAVOK 06/01 Q1028 NOSIG=
0087583670999992024030917004+31198+121336FM-15+000399999V0201201V002019999999Y009900599+00601+00101999999ADDMA1102801999999REMMET060METAR ZSSS 091700Z 12002MPS 090V150 CAVOK 06/01 Q1028 NOSIG=
0087583670999992024030917304+31198+121336FM-15+000399999V0201101V002019999999Y009900599+00601+00101999999ADDMA1102801999999REMMET060METAR ZSSS 091730Z 11002MPS 090V150 CAVOK 06/01 Q1028 NOSIG=
0087583670999992024030918004+31198+121336FM-15+000399999V0201501V002019999999Y009900599+00501+00101999999ADDMA1102801999999REMMET060METAR ZSSS 091800Z 15002MPS 110V170 CAVOK 05/01 Q1028 NOSIG=
0079583670999992024030918304+31198+121336FM-15+000399999V0201201N002019999999Y009900599+00601+00101999999ADDMA1102801999999REMMET052METAR ZSSS 091830Z 12002MPS CAVOK 06/01 Q1028 NOSIG=
0079583670999992024030919004+31198+121336FM-15+000399999V0201401N002019999999Y009900599+00501+00101999999ADDMA1102801999999REMMET052METAR ZSSS 091900Z 14002MPS CAVOK 05/01 Q1028 NOSIG=
0079583670999992024030919304+31198+121336FM-15+000399999V0201401N003019999999Y009900599+00601+00101999999ADDMA1102801999999REMMET052METAR ZSSS 091930Z 14003MPS CAVOK 06/01 Q1028 NOSIG=
0079583670999992024030920004+31198+121336FM-15+000399999V0201201N002019999999Y009900599+00501+00101999999ADDMA1102801999999REMMET052METAR ZSSS 092000Z 12002MPS CAVOK 05/01 Q1028 NOSIG=
0079583670999992024030920304+31198+121336FM-15+000399999V0201401N002019999999Y009900599+00401+00001999999ADDMA1102801999999REMMET052METAR ZSSS 092030Z 14002MPS CAVOK 04/00 Q1028 NOSIG=
0079583670999992024030921004+31198+121336FM-15+000399999V0201401N002019999999Y009900599+00501+00101999999ADDMA1102801999999REMMET052METAR ZSSS 092100Z 14002MPS CAVOK 05/01 Q1028 NOSIG=
0079583670999992024030921304+31198+121336FM-15+000399999V0201301N002019999999Y009900599+00501+00101999999ADDMA1102801999999REMMET052METAR ZSSS 092130Z 13002MPS CAVOK 05/01 Q1028 NOSIG=
0079583670999992024030922004+31198+121336FM-15+000399999V0201201N002019999999Y009900599+00501+00101999999ADDMA1102901999999REMMET052METAR ZSSS 092200Z 12002MPS CAVOK 05/01 Q1029 NOSIG=
0079583670999992024030922304+31198+121336FM-15+000399999V0201201N002019999999Y009900599+00501+00101999999ADDMA1102901999999REMMET052METAR ZSSS 092230Z 12002MPS CAVOK 05/01 Q1029 NOSIG=
0079583670999992024030923004+31198+121336FM-15+000399999V0201101N003019999999Y009900599+00601+00201999999ADDMA1102901999999REMMET052METAR ZSSS 092300Z 11003MPS CAVOK 06/02 Q1029 NOSIG=
0087583670999992024030923304+31198+121336FM-15+000399999V0201201V003019999999Y009900599+00701+00201999999ADDMA1102901999999REMMET060METAR ZSSS 092330Z 12003MPS 090V150 CAVOK 07/02 Q1029 NOSIG=
0087583670999992024031000004+31198+121336FM-15+000399999V0201301V004019999999Y009900599+00801+00201999999ADDMA1103001999999REMMET060METAR ZSSS 100000Z 13004MPS 090V160 CAVOK 08/02 Q1030 NOSIG=
0079583670999992024031000304+31198+121336FM-15+000399999V0201301N005019999999Y009900599+00901+00301999999ADDMA1103001999999REMMET052METAR ZSSS 100030Z 13005MPS CAVOK 09/03 Q1030 NOSIG=
0079583670999992024031001004+31198+121336FM-15+000399999V0201301N004019999999Y009900599+00901+00301999999ADDMA1103001999999REMMET052METAR ZSSS 100100Z 13004MPS CAVOK 09/03 Q1030 NOSIG=
0087583670999992024031001304+31198+121336FM-15+000399999V0201601V005019999999Y009900599+01001+00201999999ADDMA1103001999999REMMET060METAR ZSSS 100130Z 16005MPS 110V200 CAVOK 10/02 Q1030 NOSIG=
0087583670999992024031002004+31198+121336FM-15+000399999V0201101V005019999999Y009900599+01101+00001999999ADDMA1103001999999REMMET060METAR ZSSS 100200Z 11005MPS 090V150 CAVOK 11/00 Q1030 NOSIG=
0087583670999992024031002304+31198+121336FM-15+000399999V0201301V005019999999Y009900599+01201+00101999999ADDMA1103001999999REMMET060METAR ZSSS 100230Z 13005MPS 100V180 CAVOK 12/01 Q1030 NOSIG=
0087583670999992024031003004+31198+121336FM-15+000399999V0201301V004019999999Y009900599+01201+00201999999ADDMA1103001999999REMMET060METAR ZSSS 100300Z 13004MPS 100V200 CAVOK 12/02 Q1030 NOSIG=
0087583670999992024031003304+31198+121336FM-15+000399999V0201401V006019999999Y009900599+01301+00201999999ADDMA1102901999999REMMET060METAR ZSSS 100330Z 14006MPS 110V180 CAVOK 13/02 Q1029 NOSIG=
0087583670999992024031004004+31198+121336FM-15+000399999V0201701V005019999999Y009900599+01301+00301999999ADDMA1102901999999REMMET060METAR ZSSS 100400Z 17005MPS 110V200 CAVOK 13/03 Q1029 NOSIG=
0087583670999992024031004304+31198+121336FM-15+000399999V0201401V005019999999Y009900599+01301+00101999999ADDMA1102801999999REMMET060METAR ZSSS 100430Z 14005MPS 100V160 CAVOK 13/01 Q1028 NOSIG=
0087583670999992024031005004+31198+121336FM-15+000399999V0201501V006019999999Y009900599+01501+00201999999ADDMA1102701999999REMMET060METAR ZSSS 100500Z 15006MPS 100V190 CAVOK 15/02 Q1027 NOSIG=
0087583670999992024031005304+31198+121336FM-15+000399999V0201701V006019999999Y009900599+01401+00101999999ADDMA1102701999999REMMET060METAR ZSSS 100530Z 17006MPS 120V200 CAVOK 14/01 Q1027 NOSIG=
0087583670999992024031006004+31198+121336FM-15+000399999V0201401V005019999999Y009900599+01401+00201999999ADDMA1102701999999REMMET060METAR ZSSS 100600Z 14005MPS 110V180 CAVOK 14/02 Q1027 NOSIG=
0087583670999992024031006304+31198+121336FM-15+000399999V0201501V005019999999Y009900599+01401+00001999999ADDMA1102701999999REMMET060METAR ZSSS 100630Z 15005MPS 100V190 CAVOK 14/00 Q1027 NOSIG=
0088583670999992024031007004+31198+121336FM-15+000399999V0201501V005019999999Y009900599+01401-00101999999ADDMA1102601999999REMMET061METAR ZSSS 100700Z 15005MPS 120V190 CAVOK 14/M01 Q1026 NOSIG=
0088583670999992024031007304+31198+121336FM-15+000399999V0201401V005019999999Y009900599+01401-00101999999ADDMA1102601999999REMMET061METAR ZSSS 100730Z 14005MPS 090V180 CAVOK 14/M01 Q1026 NOSIG=
0080583670999992024031008004+31198+121336FM-15+000399999V0201301N005019999999Y009900599+01401-00101999999ADDMA1102601999999REMMET053METAR ZSSS 100800Z 13005MPS CAVOK 14/M01 Q1026 NOSIG=
0079583670999992024031008304+31198+121336FM-15+000399999V0201501N005019999999Y009900599+01401+00001999999ADDMA1102501999999REMMET052METAR ZSSS 100830Z 15005MPS CAVOK 14/00 Q1025 NOSIG=
0087583670999992024031009004+31198+121336FM-15+000399999V0201401V004019999999Y009900599+01401+00201999999ADDMA1102501999999REMMET060METAR ZSSS 100900Z 14004MPS 120V180 CAVOK 14/02 Q1025 NOSIG=
0079583670999992024031009304+31198+121336FM-15+000399999V0201501N006019999999Y009900599+01201+00101999999ADDMA1102501999999REMMET052METAR ZSSS 100930Z 15006MPS CAVOK 12/01 Q1025 NOSIG=
0079583670999992024031010004+31198+121336FM-15+000399999V0201501N005019999999Y009900599+01201+00301999999ADDMA1102501999999REMMET052METAR ZSSS 101000Z 15005MPS CAVOK 12/03 Q1025 NOSIG=
0087583670999992024031010304+31198+121336FM-15+000399999V0201301V005019999999Y009900599+01101+00301999999ADDMA1102501999999REMMET060METAR ZSSS 101030Z 13005MPS 100V170 CAVOK 11/03 Q1025 NOSIG=
0087583670999992024031011004+31198+121336FM-15+000399999V0201301V006019999999Y009900599+01001+00301999999ADDMA1102501999999REMMET060METAR ZSSS 101100Z 13006MPS 090V150 CAVOK 10/03 Q1025 NOSIG=
0079583670999992024031011304+31198+121336FM-15+000399999V0201401N004019999999Y009900599+01001+00401999999ADDMA1102501999999REMMET052METAR ZSSS 101130Z 14004MPS CAVOK 10/04 Q1025 NOSIG=
0079583670999992024031012004+31198+121336FM-15+000399999V0201401N005019999999Y009900599+00901+00401999999ADDMA1102601999999REMMET052METAR ZSSS 101200Z 14005MPS CAVOK 09/04 Q1026 NOSIG=
0079583670999992024031012304+31198+121336FM-15+000399999V0201401N005019999999Y009900599+00901+00401999999ADDMA1102601999999REMMET052METAR ZSSS 101230Z 14005MPS CAVOK 09/04 Q1026 NOSIG=
0079583670999992024031013004+31198+121336FM-15+000399999V0201401N004019999999Y009900599+00901+00401999999ADDMA1102601999999REMMET052METAR ZSSS 101300Z 14004MPS CAVOK 09/04 Q1026 NOSIG=
0087583670999992024031013304+31198+121336FM-15+000399999V0201301V004019999999Y009900599+00901+00401999999ADDMA1102601999999REMMET060METAR ZSSS 101330Z 13004MPS 100V160 CAVOK 09/04 Q1026 NOSIG=
0079583670999992024031014004+31198+121336FM-15+000399999V0201301N005019999999Y009900599+00901+00401999999ADDMA1102601999999REMMET052METAR ZSSS 101400Z 13005MPS CAVOK 09/04 Q1026 NOSIG=
0079583670999992024031014304+31198+121336FM-15+000399999V0201401N005019999999Y009900599+00901+00401999999ADDMA1102501999999REMMET052METAR ZSSS 101430Z 14005MPS CAVOK 09/04 Q1025 NOSIG=
0079583670999992024031015004+31198+121336FM-15+000399999V0201401N005019999999Y009900599+00801+00401999999ADDMA1102501999999REMMET052METAR ZSSS 101500Z 14005MPS CAVOK 08/04 Q1025 NOSIG=
0079583670999992024031015304+31198+121336FM-15+000399999V0201501N005019999999Y009900599+00801+00501999999ADDMA1102501999999REMMET052METAR ZSSS 101530Z 15005MPS CAVOK 08/05 Q1025 NOSIG=
0087583670999992024031016004+31198+121336FM-15+000399999V0201501V005019999999Y009900599+00801+00501999999ADDMA1102401999999REMMET060METAR ZSSS 101600Z 15005MPS 120V180 CAVOK 08/05 Q1024 NOSIG=
0079583670999992024031016304+31198+121336FM-15+000399999V0201501N005019999999Y009900599+00801+00501999999ADDMA1102401999999REMMET052METAR ZSSS 101630Z 15005MPS CAVOK 08/05 Q1024 NOSIG=
0079583670999992024031017004+31198+121336FM-15+000399999V0201501N006019999999Y009900599+00901+00501999999ADDMA1102401999999REMMET052METAR ZSSS 101700Z 15006MPS CAVOK 09/05 Q1024 NOSIG=
0079583670999992024031017304+31198+121336FM-15+000399999V0201501N006019999999Y009900599+00901+00501999999ADDMA1102301999999REMMET052METAR ZSSS 101730Z 15006MPS CAVOK 09/05 Q1023 NOSIG=
0079583670999992024031018004+31198+121336FM-15+000399999V0201601N005019999999Y009900599+00901+00501999999ADDMA1102201999999REMMET052METAR ZSSS 101800Z 16005MPS CAVOK 09/05 Q1022 NOSIG=
0079583670999992024031018304+31198+121336FM-15+000399999V0201601N007019999999Y009900599+00901+00501999999ADDMA1102201999999REMMET052METAR ZSSS 101830Z 16007MPS CAVOK 09/05 Q1022 NOSIG=
0079583670999992024031019004+31198+121336FM-15+000399999V0201601N005019999999Y009900599+00901+00501999999ADDMA1102101999999REMMET052METAR ZSSS 101900Z 16005MPS CAVOK 09/05 Q1021 NOSIG=
0079583670999992024031019304+31198+121336FM-15+000399999V0201601N005019999999Y009900599+00901+00501999999ADDMA1102101999999REMMET052METAR ZSSS 101930Z 16005MPS CAVOK 09/05 Q1021 NOSIG=
0079583670999992024031020004+31198+121336FM-15+000399999V0201601N004019999999Y009900599+00901+00601999999ADDMA1102001999999REMMET052METAR ZSSS 102000Z 16004MPS CAVOK 09/06 Q1020 NOSIG=
0079583670999992024031020304+31198+121336FM-15+000399999V0201701N004019999999Y009900599+00901+00601999999ADDMA1102001999999REMMET052METAR ZSSS 102030Z 17004MPS CAVOK 09/06 Q1020 NOSIG=
0079583670999992024031021004+31198+121336FM-15+000399999V0201701N005019999999Y009900599+01001+00601999999ADDMA1102001999999REMMET052METAR ZSSS 102100Z 17005MPS CAVOK 10/06 Q1020 NOSIG=
0079583670999992024031021304+31198+121336FM-15+000399999V0201701N004019999999Y009900599+01001+00601999999ADDMA1102001999999REMMET052METAR ZSSS 102130Z 17004MPS CAVOK 10/06 Q1020 NOSIG=
0079583670999992024031022004+31198+121336FM-15+000399999V0201901N004019999999Y009900599+01001+00601999999ADDMA1102001999999REMMET052METAR ZSSS 102200Z 19004MPS CAVOK 10/06 Q1020 NOSIG=
0079583670999992024031022304+31198+121336FM-15+000399999V0201901N004019999999Y009900599+01001+00601999999ADDMA1102001999999REMMET052METAR ZSSS 102230Z 19004MPS CAVOK 10/06 Q1020 NOSIG=
0079583670999992024031023004+31198+121336FM-15+000399999V0201901N003019999999Y009900599+01001+00601999999ADDMA1102001999999REMMET052METAR ZSSS 102300Z 19003MPS CAVOK 10/06 Q1020 NOSIG=
0118583670999992024031023304+31198+121336FM-15+000399999V0202001N004012200019N009999199+01001+00601999999ADDGF100991999999999999999999MA1102101999999MW1611REMMET059METAR ZSSS 102330Z 20004MPS 9999 -RA NSC 10/06 Q1021 NOSIG=
0126583670999992024031100004+31198+121336FM-15+000399999V0202001V004012200019N009999199+01001+00601999999ADDGF100991999999999999999999MA1102101999999MW1611REMMET067METAR ZSSS 110000Z 20004MPS 170V230 9999 -RA NSC 10/06 Q1021 NOSIG=
0126583670999992024031100304+31198+121336FM-15+000399999V0202001V003012200019N009999199+01001+00701999999ADDGF100991999999999999999999MA1102101999999MW1611REMMET067METAR ZSSS 110030Z 20003MPS 170V230 9999 -RA NSC 10/07 Q1021 NOSIG=
0126583670999992024031101004+31198+121336FM-15+000399999V0202001V003012200019N009999199+01001+00701999999ADDGF100991999999999999999999MA1102101999999MW1611REMMET067METAR ZSSS 110100Z 20003MPS 170V240 9999 -RA NSC 10/07 Q1021 NOSIG=
0126583670999992024031101304+31198+121336FM-15+000399999V0202201V003012200019N009999199+01001+00701999999ADDGF100991999999999999999999MA1102101999999MW1611REMMET067METAR ZSSS 110130Z 22003MPS 180V250 9999 -RA NSC 10/07 Q1021 NOSIG=
0079583670999992024031102004+31198+121336FM-15+000399999V0202301N003019999999Y009900599+01001+00801999999ADDMA1102101999999REMMET052METAR ZSSS 110200Z 23003MPS CAVOK 10/08 Q1021 NOSIG=
0087583670999992024031102304+31198+121336FM-15+000399999V0202001V004019999999Y009900599+01001+00801999999ADDMA1102001999999REMMET060METAR ZSSS 110230Z 20004MPS 170V230 CAVOK 10/08 Q1020 NOSIG=
0079583670999992024031103004+31198+121336FM-15+000399999V0202001N003019999999Y009900599+01001+00801999999ADDMA1102001999999REMMET052METAR ZSSS 110300Z 20003MPS CAVOK 10/08 Q1020 NOSIG=
0126583670999992024031103304+31198+121336FM-15+000399999V0202201V002012200019N009999199+01001+00801999999ADDGF100991999999999999999999MA1102001999999MW1611REMMET067METAR ZSSS 110330Z 22002MPS 170V290 9999 -RA NSC 10/08 Q1020 NOSIG=
0126583670999992024031104004+31198+121336FM-15+000399999V0202201V002012200019N009999199+01101+00801999999ADDGF100991999999999999999999MA1101901999999MW1611REMMET067METAR ZSSS 110400Z 22002MPS 180V340 9999 -RA NSC 11/08 Q1019 NOSIG=
0087583670999992024031104304+31198+121336FM-15+000399999V0202301V002019999999Y009900599+01101+00801999999ADDMA1101901999999REMMET060METAR ZSSS 110430Z 23002MPS 130V300 CAVOK 11/08 Q1019 NOSIG=
0087583670999992024031105004+31198+121336FM-15+000399999V0202501V002019999999Y009900599+01301+00901999999ADDMA1101801999999REMMET060METAR ZSSS 110500Z 25002MPS 170V300 CAVOK 13/09 Q1018 NOSIG=
0098583670999992024031105304+31198+121336FM-15+000399999V0202201V002019999999Y009900599+01301+00801999999ADDMA1101801999999OC100701REMMET063METAR ZSSS 110530Z 22002G07MPS 180V270 CAVOK 13/08 Q1018 NOSIG=
0090583670999992024031106004+31198+121336FM-15+000399999V0209999V002019999999Y009900599+01501+00901999999ADDMA1101701999999OC100701REMMET055METAR ZSSS 110600Z VRB02G07MPS CAVOK 15/09 Q1017 NOSIG=
0087583670999992024031106304+31198+121336FM-15+000399999V0202601V002019999999Y009900599+01501+00801999999ADDMA1101701999999REMMET060METAR ZSSS 110630Z 26002MPS 210V320 CAVOK 15/08 Q1017 NOSIG=
0079583670999992024031107004+31198+121336FM-15+000399999V0209999V002019999999Y009900599+01601+00801999999ADDMA1101701999999REMMET052METAR ZSSS 110700Z VRB02MPS CAVOK 16/08 Q1017 NOSIG=
0079583670999992024031107304+31198+121336FM-15+000399999V0209999V002019999999Y009900599+01601+00801999999ADDMA1101701999999REMMET052METAR ZSSS 110730Z VRB02MPS CAVOK 16/08 Q1017 NOSIG=
0087583670999992024031108004+31198+121336FM-15+000399999V0202601V003019999999Y009900599+01601+00701999999ADDMA1101701999999REMMET060METAR ZSSS 110800Z 26003MPS 220V300 CAVOK 16/07 Q1017 NOSIG=
0087583670999992024031108304+31198+121336FM-15+000399999V0202301V003019999999Y009900599+01501+00701999999ADDMA1101701999999REMMET060METAR ZSSS 110830Z 23003MPS 190V280 CAVOK 15/07 Q1017 NOSIG=
0098583670999992024031109004+31198+121336FM-15+000399999V0202401V002019999999Y009900599+01601+00801999999ADDMA1101601999999OC100701REMMET063METAR ZSSS 110900Z 24002G07MPS 110V280 CAVOK 16/08 Q1016 NOSIG=
0087583670999992024031109304+31198+121336FM-15+000399999V0202301V002019999999Y009900599+01501+00701999999ADDMA1101601999999REMMET060METAR ZSSS 110930Z 23002MPS 150V280 CAVOK 15/07 Q1016 NOSIG=
0087583670999992024031110004+31198+121336FM-15+000399999V0202101V002019999999Y009900599+01401+00701999999ADDMA1101601999999REMMET060METAR ZSSS 111000Z 21002MPS 180V250 CAVOK 14/07 Q1016 NOSIG=
0087583670999992024031110304+31198+121336FM-15+000399999V0202101V002019999999Y009900599+01401+00701999999ADDMA1101601999999REMMET060METAR ZSSS 111030Z 21002MPS 160V260 CAVOK 14/07 Q1016 NOSIG=
0079583670999992024031111004+31198+121336FM-15+000399999V0209999V001019999999Y009900599+01401+00701999999ADDMA1101601999999REMMET052METAR ZSSS 111100Z VRB01MPS CAVOK 14/07 Q1016 NOSIG=
0079583670999992024031111304+31198+121336FM-15+000399999V0209999V001019999999Y009900599+01301+00701999999ADDMA1101701999999REMMET052METAR ZSSS 111130Z VRB01MPS CAVOK 13/07 Q1017 NOSIG=
0087583670999992024031112004+31198+121336FM-15+000399999V0202101V002019999999Y009900599+01101+00701999999ADDMA1101701999999REMMET060METAR ZSSS 111200Z 21002MPS 120V240 CAVOK 11/07 Q1017 NOSIG=
0079583670999992024031112304+31198+121336FM-15+000399999V0202201N001019999999Y009900599+01101+00801999999ADDMA1101701999999REMMET052METAR ZSSS 111230Z 22001MPS CAVOK 11/08 Q1017 NOSIG=
0079583670999992024031113004+31198+121336FM-15+000399999V0201701N002019999999Y009900599+01101+00801999999ADDMA1101701999999REMMET052METAR ZSSS 111300Z 17002MPS CAVOK 11/08 Q1017 NOSIG=
0087583670999992024031113304+31198+121336FM-15+000399999V0202101V002019999999Y009900599+01101+00701999999ADDMA1101801999999REMMET060METAR ZSSS 111330Z 21002MPS 150V250 CAVOK 11/07 Q1018 NOSIG=
0079583670999992024031114004+31198+121336FM-15+000399999V0202301N002019999999Y009900599+01101+00701999999ADDMA1101801999999REMMET052METAR ZSSS 111400Z 23002MPS CAVOK 11/07 Q1018 NOSIG=
0087583670999992024031114304+31198+121336FM-15+000399999V0202201V002019999999Y009900599+01001+00701999999ADDMA1101701999999REMMET060METAR ZSSS 111430Z 22002MPS 140V250 CAVOK 10/07 Q1017 NOSIG=
0079583670999992024031115004+31198+121336FM-15+000399999V0202501N002019999999Y009900599+01101+00801999999ADDMA1101701999999REMMET052METAR ZSSS 111500Z 25002MPS CAVOK 11/08 Q1017 NOSIG=
0079583670999992024031115304+31198+121336FM-15+000399999V0209999V001019999999Y009900599+01001+00701999999ADDMA1101701999999REMMET052METAR ZSSS 111530Z VRB01MPS CAVOK 10/07 Q1017 NOSIG=
0079583670999992024031116004+31198+121336FM-15+000399999V0202401N002019999999Y009900599+01001+00701999999ADDMA1101701999999REMMET052METAR ZSSS 111600Z 24002MPS CAVOK 10/07 Q1017 NOSIG=
0108583670999992024031116304+31198+121336FM-15+000399999V0202501N002012200019N008000199+01001+00801999999ADDGF100991999999999999999999MA1101701999999REMMET055METAR ZSSS 111630Z 25002MPS 8000 NSC 10/08 Q1017 NOSIG=
0108583670999992024031117004+31198+121336FM-15+000399999V0202501N002012200019N008000199+01101+00801999999ADDGF100991999999999999999999MA1101701999999REMMET055METAR ZSSS 111700Z 25002MPS 8000 NSC 11/08 Q1017 NOSIG=
0108583670999992024031117304+31198+121336FM-15+000399999V0202601N003012200019N008000199+01101+00801999999ADDGF100991999999999999999999MA1101701999999REMMET055METAR ZSSS 111730Z 26003MPS 8000 NSC 11/08 Q1017 NOSIG=
0108583670999992024031118004+31198+121336FM-15+000399999V0202701N002012200019N008000199+01101+00701999999ADDGF100991999999999999999999MA1101701999999REMMET055METAR ZSSS 111800Z 27002MPS 8000 NSC 11/07 Q1017 NOSIG=
0108583670999992024031118304+31198+121336FM-15+000399999V0202501N002012200019N008000199+01001+00701999999ADDGF100991999999999999999999MA1101701999999REMMET055METAR ZSSS 111830Z 25002MPS 8000 NSC 10/07 Q1017 NOSIG=
0116583670999992024031119004+31198+121336FM-15+000399999V0202101V002012200019N008000199+00901+00701999999ADDGF100991999999999999999999MA1101701999999REMMET063METAR ZSSS 111900Z 21002MPS 200V260 8000 NSC 09/07 Q1017 NOSIG=
0108583670999992024031119304+31198+121336FM-15+000399999V0209999V001012200019N008000199+00901+00701999999ADDGF100991999999999999999999MA1101701999999REMMET055METAR ZSSS 111930Z VRB01MPS 8000 NSC 09/07 Q1017 NOSIG=
0108583670999992024031120004+31198+121336FM-15+000399999V0209999V001012200019N008000199+00901+00701999999ADDGF100991999999999999999999MA1101701999999REMMET055METAR ZSSS 112000Z VRB01MPS 8000 NSC 09/07 Q1017 NOSIG=
0108583670999992024031120304+31198+121336FM-15+000399999V0202501N002012200019N008000199+00901+00701999999ADDGF100991999999999999999999MA1101701999999REMMET055METAR ZSSS 112030Z 25002MPS 8000 NSC 09/07 Q1017 NOSIG=
0108583670999992024031121004+31198+121336FM-15+000399999V0202401N001012200019N006000199+00901+00701999999ADDGF100991999999999999999999MA1101801999999REMMET055METAR ZSSS 112100Z 24001MPS 6000 NSC 09/07 Q1018 NOSIG=
0117583670999992024031121304+31198+121336FM-15+000399999V0209999V001012200019N005000199+00801+00601999999ADDGF100991999999999999999999MA1101801999999MW1101REMMET058METAR ZSSS 112130Z VRB01MPS 5000 BR NSC 08/06 Q1018 NOSIG=
0117583670999992024031122004+31198+121336FM-15+000399999V0209999V001012200019N005000199+00801+00601999999ADDGF100991999999999999999999MA1101801999999MW1101REMMET058METAR ZSSS 112200Z VRB01MPS 5000 BR NSC 08/06 Q1018 NOSIG=
0117583670999992024031122304+31198+121336FM-15+000399999V0209999V001012200019N004000199+00801+00601999999ADDGF100991999999999999999999MA1101801999999MW1101REMMET058METAR ZSSS 112230Z VRB01MPS 4000 BR NSC 08/06 Q1018 NOSIG=
0117583670999992024031123004+31198+121336FM-15+000399999V0209999V001012200019N004000199+00901+00801999999ADDGF100991999999999999999999MA1101801999999MW1101REMMET058METAR ZSSS 112300Z VRB01MPS 4000 BR NSC 09/08 Q1018 NOSIG=
0117583670999992024031123304+31198+121336FM-15+000399999V0209999V001012200019N005000199+01101+00801999999ADDGF100991999999999999999999MA1101901999999MW1101REMMET058METAR ZSSS 112330Z VRB01MPS 5000 BR NSC 11/08 Q1019 NOSIG=
0117583670999992024031200004+31198+121336FM-15+000399999V0209999V001012200019N005000199+01201+00801999999ADDGF100991999999999999999999MA1101901999999MW1101REMMET058METAR ZSSS 120000Z VRB01MPS 5000 BR NSC 12/08 Q1019 NOSIG=
0108583670999992024031200304+31198+121336FM-15+000399999V0203401N002012200019N006000199+01401+00801999999ADDGF100991999999999999999999MA1102001999999REMMET055METAR ZSSS 120030Z 34002MPS 6000 NSC 14/08 Q1020 NOSIG=
0108583670999992024031201004+31198+121336FM-15+000399999V0203501N004012200019N006000199+01401+00701999999ADDGF100991999999999999999999MA1102001999999REMMET055METAR ZSSS 120100Z 35004MPS 6000 NSC 14/07 Q1020 NOSIG=
0108583670999992024031201304+31198+121336FM-15+000399999V0200101N005012200019N008000199+01501+00501999999ADDGF100991999999999999999999MA1102001999999REMMET055METAR ZSSS 120130Z 01005MPS 8000 NSC 15/05 Q1020 NOSIG=
0079583670999992024031202004+31198+121336FM-15+000399999V0200101N005019999999Y009900599+01501+00501999999ADDMA1102101999999REMMET052METAR ZSSS 120200Z 01005MPS CAVOK 15/05 Q1021 NOSIG=
0079583670999992024031202304+31198+121336FM-15+000399999V0200201N007019999999Y009900599+01501+00601999999ADDMA1102101999999REMMET052METAR ZSSS 120230Z 02007MPS CAVOK 15/06 Q1021 NOSIG=
0079583670999992024031203004+31198+121336FM-15+000399999V0203601N007019999999Y009900599+01601+00501999999ADDMA1102101999999REMMET052METAR ZSSS 120300Z 36007MPS CAVOK 16/05 Q1021 NOSIG=
0108583670999992024031203304+31198+121336FM-15+000399999V0203601N007012200019N008000199+01701+00601999999ADDGF100991999999999999999999MA1102101999999REMMET055METAR ZSSS 120330Z 36007MPS 8000 NSC 17/06 Q1021 NOSIG=
0108583670999992024031204004+31198+121336FM-15+000399999V0203401N008012200019N008000199+01701+00301999999ADDGF100991999999999999999999MA1102101999999REMMET055METAR ZSSS 120400Z 34008MPS 8000 NSC 17/03 Q1021 NOSIG=
0116583670999992024031204304+31198+121336FM-15+000399999V0200101V009012200019N008000199+01701+00301999999ADDGF100991999999999999999999MA1102101999999REMMET063METAR ZSSS 120430Z 01009MPS 330V030 8000 NSC 17/03 Q1021 NOSIG=
0108583670999992024031205004+31198+121336FM-15+000399999V0203601N010012200019N007000199+01601+00401999999ADDGF100991999999999999999999MA1102201999999REMMET055METAR ZSSS 120500Z 36010MPS 7000 NSC 16/04 Q1022 NOSIG=
0108583670999992024031205304+31198+121336FM-15+000399999V0200101N009012200019N007000199+01501+00601999999ADDGF100991999999999999999999MA1102201999999REMMET055METAR ZSSS 120530Z 01009MPS 7000 NSC 15/06 Q1022 NOSIG=
0108583670999992024031206004+31198+121336FM-15+000399999V0200101N010012200019N007000199+01401+00601999999ADDGF100991999999999999999999MA1102201999999REMMET055METAR ZSSS 120600Z 01010MPS 7000 NSC 14/06 Q1022 NOSIG=
0108583670999992024031206304+31198+121336FM-15+000399999V0200101N010012200019N007000199+01301+00401999999ADDGF100991999999999999999999MA1102301999999REMMET055METAR ZSSS 120630Z 01010MPS 7000 NSC 13/04 Q1023 NOSIG=
0108583670999992024031207004+31198+121336FM-15+000399999V0200201N010012200019N007000199+01201+00401999999ADDGF100991999999999999999999MA1102301999999REMMET055METAR ZSSS 120700Z 02010MPS 7000 NSC 12/04 Q1023 NOSIG=
0108583670999992024031207304+31198+121336FM-15+000399999V0203601N009012200019N008000199+01201+00401999999ADDGF100991999999999999999999MA1102301999999REMMET055METAR ZSSS 120730Z 36009MPS 8000 NSC 12/04 Q1023 NOSIG=
0079583670999992024031208004+31198+121336FM-15+000399999V0203601N008019999999Y009900599+01201+00301999999ADDMA1102301999999REMMET052METAR ZSSS 120800Z 36008MPS CAVOK 12/03 Q1023 NOSIG=
0079583670999992024031208304+31198+121336FM-15+000399999V0200101N010019999999Y009900599+01101+00201999999ADDMA1102301999999REMMET052METAR ZSSS 120830Z 01010MPS CAVOK 11/02 Q1023 NOSIG=
0079583670999992024031209004+31198+121336FM-15+000399999V0203601N010019999999Y009900599+01101+00101999999ADDMA1102401999999REMMET052METAR ZSSS 120900Z 36010MPS CAVOK 11/01 Q1024 NOSIG=
0079583670999992024031209304+31198+121336FM-15+000399999V0200101N008019999999Y009900599+01001+00301999999ADDMA1102401999999REMMET052METAR ZSSS 120930Z 01008MPS CAVOK 10/03 Q1024 NOSIG=
0079583670999992024031210004+31198+121336FM-15+000399999V0200301N007019999999Y009900599+01001+00201999999ADDMA1102401999999REMMET052METAR ZSSS 121000Z 03007MPS CAVOK 10/02 Q1024 NOSIG=
0079583670999992024031210304+31198+121336FM-15+000399999V0200201N007019999999Y009900599+00901+00001999999ADDMA1102501999999REMMET052METAR ZSSS 121030Z 02007MPS CAVOK 09/00 Q1025 NOSIG=
0080583670999992024031211004+31198+121336FM-15+000399999V0200101N006019999999Y009900599+00801+00001999999ADDMA1102501999999REMMET053METAR ZSSS 121100Z 01006MPS CAVOK 08/M00 Q1025 NOSIG=
0079583670999992024031211304+31198+121336FM-15+000399999V0200101N006019999999Y009900599+00801+00001999999ADDMA1102501999999REMMET052METAR ZSSS 121130Z 01006MPS CAVOK 08/00 Q1025 NOSIG=
0080583670999992024031212004+31198+121336FM-15+000399999V0200201N005019999999Y009900599+00801+00001999999ADDMA1102501999999REMMET053METAR ZSSS 121200Z 02005MPS CAVOK 08/M00 Q1025 NOSIG=
0080583670999992024031212304+31198+121336FM-15+000399999V0203601N004019999999Y009900599+00701-00101999999ADDMA1102601999999REMMET053METAR ZSSS 121230Z 36004MPS CAVOK 07/M01 Q1026 NOSIG=
0080583670999992024031213004+31198+121336FM-15+000399999V0203601N003019999999Y009900599+00701-00101999999ADDMA1102601999999REMMET053METAR ZSSS 121300Z 36003MPS CAVOK 07/M01 Q1026 NOSIG=
0080583670999992024031213304+31198+121336FM-15+000399999V0203601N004019999999Y009900599+00701-00101999999ADDMA1102601999999REMMET053METAR ZSSS 121330Z 36004MPS CAVOK 07/M01 Q1026 NOSIG=
0080583670999992024031214004+31198+121336FM-15+000399999V0200101N004019999999Y009900599+00601+00001999999ADDMA1102601999999REMMET053METAR ZSSS 121400Z 01004MPS CAVOK 06/M00 Q1026 NOSIG=
0080583670999992024031214304+31198+121336FM-15+000399999V0200101N005019999999Y009900599+00601+00001999999ADDMA1102601999999REMMET053METAR ZSSS 121430Z 01005MPS CAVOK 06/M00 Q1026 NOSIG=
0080583670999992024031215004+31198+121336FM-15+000399999V0200101N003019999999Y009900599+00501+00001999999ADDMA1102601999999REMMET053METAR ZSSS 121500Z 01003MPS CAVOK 05/M00 Q1026 NOSIG=
0080583670999992024031215304+31198+121336FM-15+000399999V0200101N004019999999Y009900599+00501+00001999999ADDMA1102601999999REMMET053METAR ZSSS 121530Z 01004MPS CAVOK 05/M00 Q1026 NOSIG=
0079583670999992024031216004+31198+121336FM-15+000399999V0203501N002019999999Y009900599+00501+00001999999ADDMA1102601999999REMMET052METAR ZSSS 121600Z 35002MPS CAVOK 05/00 Q1026 NOSIG=
0080583670999992024031216304+31198+121336FM-15+000399999V0209999V001019999999Y009900599+00501+00001999999ADDMA1102701999999REMMET053METAR ZSSS 121630Z VRB01MPS CAVOK 05/M00 Q1027 NOSIG=
0080583670999992024031217004+31198+121336FM-15+000399999V0202601N002019999999Y009900599+00501+00001999999ADDMA1102701999999REMMET053METAR ZSSS 121700Z 26002MPS CAVOK 05/M00 Q1027 NOSIG=
0080583670999992024031217304+31198+121336FM-15+000399999V0202501N002019999999Y009900599+00501+00001999999ADDMA1102701999999REMMET053METAR ZSSS 121730Z 25002MPS CAVOK 05/M00 Q1027 NOSIG=
0080583670999992024031218004+31198+121336FM-15+000399999V0202501N001019999999Y009900599+00401+00001999999ADDMA1102601999999REMMET053METAR ZSSS 121800Z 25001MPS CAVOK 04/M00 Q1026 NOSIG=
0079583670999992024031218304+31198+121336FM-15+000399999V0209999V001019999999Y009900599+00401+00101999999ADDMA1102601999999REMMET052METAR ZSSS 121830Z VRB01MPS CAVOK 04/01 Q1026 NOSIG=
0079583670999992024031219004+31198+121336FM-15+000399999V0200501N001019999999Y009900599+00401+00001999999ADDMA1102501999999REMMET052METAR ZSSS 121900Z 05001MPS CAVOK 04/00 Q1025 NOSIG=
0079583670999992024031219304+31198+121336FM-15+000399999V0209999C000019999999Y009900599+00401+00101999999ADDMA1102501999999REMMET052METAR ZSSS 121930Z 00000MPS CAVOK 04/01 Q1025 NOSIG=
0079583670999992024031220004+31198+121336FM-15+000399999V0209999C000019999999Y009900599+00401+00001999999ADDMA1102501999999REMMET052METAR ZSSS 122000Z 00000MPS CAVOK 04/00 Q1025 NOSIG=
0079583670999992024031220304+31198+121336FM-15+000399999V0201701N001019999999Y009900599+00301+00101999999ADDMA1102501999999REMMET052METAR ZSSS 122030Z 17001MPS CAVOK 03/01 Q1025 NOSIG=
0079583670999992024031221304+31198+121336FM-15+000399999V0202101N001019999999Y009900599+00301+00101999999ADDMA1102501999999REMMET052METAR ZSSS 122130Z 21001MPS CAVOK 03/01 Q1025 NOSIG=
0079583670999992024031222004+31198+121336FM-15+000399999V0202401N002019999999Y009900599+00301+00001999999ADDMA1102601999999REMMET052METAR ZSSS 122200Z 24002MPS CAVOK 03/00 Q1026 NOSIG=
0108583670999992024031222304+31198+121336FM-15+000399999V0201701N001012200019N007000199+00301+00001999999ADDGF100991999999999999999999MA1102601999999REMMET055METAR ZSSS 122230Z 17001MPS 7000 NSC 03/00 Q1026 NOSIG=
0108583670999992024031223004+31198+121336FM-15+000399999V0201701N001012200019N008000199+00401+00101999999ADDGF100991999999999999999999MA1102601999999REMMET055METAR ZSSS 122300Z 17001MPS 8000 NSC 04/01 Q1026 NOSIG=
0079583670999992024031223304+31198+121336FM-15+000399999V0209999V001019999999Y009900599+00601+00001999999ADDMA1102601999999REMMET052METAR ZSSS 122330Z VRB01MPS CAVOK 06/00 Q1026 NOSIG=
0088583670999992024031300004+31198+121336FM-15+000399999V0201601V002019999999Y009900599+00701-00101999999ADDMA1102601999999REMMET061METAR ZSSS 130000Z 16002MPS 130V190 CAVOK 07/M01 Q1026 NOSIG=
0088583670999992024031300304+31198+121336FM-15+000399999V0201501V002019999999Y009900599+00801-00201999999ADDMA1102601999999REMMET061METAR ZSSS 130030Z 15002MPS 110V180 CAVOK 08/M02 Q1026 NOSIG=
0080583670999992024031301004+31198+121336FM-15+000399999V0201401N004019999999Y009900599+01001-00501999999ADDMA1102601999999REMMET053METAR ZSSS 130100Z 14004MPS CAVOK 10/M05 Q1026 NOSIG=
0088583670999992024031301304+31198+121336FM-15+000399999V0201301V005019999999Y009900599+01101-00601999999ADDMA1102601999999REMMET061METAR ZSSS 130130Z 13005MPS 100V160 CAVOK 11/M06 Q1026 NOSIG=
0080583670999992024031302004+31198+121336FM-15+000399999V0201201N005019999999Y009900599+01101-00701999999ADDMA1102601999999REMMET053METAR ZSSS 130200Z 12005MPS CAVOK 11/M07 Q1026 NOSIG=
0088583670999992024031302304+31198+121336FM-15+000399999V0201401V005019999999Y009900599+01301-00501999999ADDMA1102501999999REMMET061METAR ZSSS 130230Z 14005MPS 110V180 CAVOK 13/M05 Q1025 NOSIG=
0088583670999992024031303004+31198+121336FM-15+000399999V0201601V004019999999Y009900599+01301-00501999999ADDMA1102501999999REMMET061METAR ZSSS 130300Z 16004MPS 120V190 CAVOK 13/M05 Q1025 NOSIG=
0088583670999992024031303304+31198+121336FM-15+000399999V0201601V003019999999Y009900599+01401-00501999999ADDMA1102501999999REMMET061METAR ZSSS 130330Z 16003MPS 080V220 CAVOK 14/M05 Q1025 NOSIG=
0104583670999992024031304004+31198+121336FM-15+000399999V0202001V004019999999Y009900599+01401-00501999999ADDMA1102401999999REMMET077METAR ZSSS 130400Z 20004MPS 160V240 CAVOK 14/M05 Q1024 BECMG TL0500 14005MPS=
0088583670999992024031304304+31198+121336FM-15+000399999V0201701V003019999999Y009900599+01401-00501999999ADDMA1102401999999REMMET061METAR ZSSS 130430Z 17003MPS 100V220 CAVOK 14/M05 Q1024 NOSIG=
0088583670999992024031305004+31198+121336FM-15+000399999V0201701V004019999999Y009900599+01501-00401999999ADDMA1102301999999REMMET061METAR ZSSS 130500Z 17004MPS 130V230 CAVOK 15/M04 Q1023 NOSIG=
0088583670999992024031305304+31198+121336FM-15+000399999V0201901V005019999999Y009900599+01501-00401999999ADDMA1102301999999REMMET061METAR ZSSS 130530Z 19005MPS 130V220 CAVOK 15/M04 Q1023 NOSIG=
0088583670999992024031306004+31198+121336FM-15+000399999V0201301V005019999999Y009900599+01501-00401999999ADDMA1102201999999REMMET061METAR ZSSS 130600Z 13005MPS 080V160 CAVOK 15/M04 Q1022 NOSIG=
0088583670999992024031306304+31198+121336FM-15+000399999V0201401V005019999999Y009900599+01501-00401999999ADDMA1102101999999REMMET061METAR ZSSS 130630Z 14005MPS 100V170 CAVOK 15/M04 Q1021 NOSIG=
0088583670999992024031307004+31198+121336FM-15+000399999V0201601V006019999999Y009900599+01501-00401999999ADDMA1102101999999REMMET061METAR ZSSS 130700Z 16006MPS 110V180 CAVOK 15/M04 Q1021 NOSIG=
0080583670999992024031307304+31198+121336FM-15+000399999V0201501N006019999999Y009900599+01501-00501999999ADDMA1102101999999REMMET053METAR ZSSS 130730Z 15006MPS CAVOK 15/M05 Q1021 NOSIG=
0088583670999992024031308004+31198+121336FM-15+000399999V0201501V006019999999Y009900599+01401-00401999999ADDMA1102101999999REMMET061METAR ZSSS 130800Z 15006MPS 120V190 CAVOK 14/M04 Q1021 NOSIG=
0080583670999992024031308304+31198+121336FM-15+000399999V0201801N006019999999Y009900599+01301-00501999999ADDMA1102101999999REMMET053METAR ZSSS 130830Z 18006MPS CAVOK 13/M05 Q1021 NOSIG=
0080583670999992024031309004+31198+121336FM-15+000399999V0201601N006019999999Y009900599+01201+00001999999ADDMA1102101999999REMMET053METAR ZSSS 130900Z 16006MPS CAVOK 12/M00 Q1021 NOSIG=
0087583670999992024031309304+31198+121336FM-15+000399999V0201601V005019999999Y009900599+01201+00101999999ADDMA1102201999999REMMET060METAR ZSSS 130930Z 16005MPS 130V190 CAVOK 12/01 Q1022 NOSIG=
0079583670999992024031310004+31198+121336FM-15+000399999V0201601N004019999999Y009900599+01101+00201999999ADDMA1102201999999REMMET052METAR ZSSS 131000Z 16004MPS CAVOK 11/02 Q1022 NOSIG=
0087583670999992024031310304+31198+121336FM-15+000399999V0201501V004019999999Y009900599+01101+00201999999ADDMA1102201999999REMMET060METAR ZSSS 131030Z 15004MPS 110V180 CAVOK 11/02 Q1022 NOSIG=
0079583670999992024031311004+31198+121336FM-15+000399999V0201401N003019999999Y009900599+01101+00201999999ADDMA1102201999999REMMET052METAR ZSSS 131100Z 14003MPS CAVOK 11/02 Q1022 NOSIG=
0079583670999992024031311304+31198+121336FM-15+000399999V0201401N004019999999Y009900599+01101+00201999999ADDMA1102201999999REMMET052METAR ZSSS 131130Z 14004MPS CAVOK 11/02 Q1022 NOSIG=
0087583670999992024031312004+31198+121336FM-15+000399999V0201301V003019999999Y009900599+01101+00301999999ADDMA1102201999999REMMET060METAR ZSSS 131200Z 13003MPS 100V170 CAVOK 11/03 Q1022 NOSIG=
0087583670999992024031312304+31198+121336FM-15+000399999V0201301V003019999999Y009900599+01101+00201999999ADDMA1102201999999REMMET060METAR ZSSS 131230Z 13003MPS 100V170 CAVOK 11/02 Q1022 NOSIG=
0087583670999992024031313004+31198+121336FM-15+000399999V0201401V003019999999Y009900599+01101+00301999999ADDMA1102201999999REMMET060METAR ZSSS 131300Z 14003MPS 090V170 CAVOK 11/03 Q1022 NOSIG=
0079583670999992024031313304+31198+121336FM-15+000399999V0201301N004019999999Y009900599+01101+00301999999ADDMA1102201999999REMMET052METAR ZSSS 131330Z 13004MPS CAVOK 11/03 Q1022 NOSIG=
0087583670999992024031314004+31198+121336FM-15+000399999V0201301V003019999999Y009900599+01101+00301999999ADDMA1102201999999REMMET060METAR ZSSS 131400Z 13003MPS 090V170 CAVOK 11/03 Q1022 NOSIG=
0079583670999992024031314304+31198+121336FM-15+000399999V0201201N003019999999Y009900599+01001+00301999999ADDMA1102201999999REMMET052METAR ZSSS 131430Z 12003MPS CAVOK 10/03 Q1022 NOSIG=
0079583670999992024031315004+31198+121336FM-15+000399999V0201501N003019999999Y009900599+01001+00301999999ADDMA1102201999999REMMET052METAR ZSSS 131500Z 15003MPS CAVOK 10/03 Q1022 NOSIG=
0087583670999992024031315304+31198+121336FM-15+000399999V0201601V002019999999Y009900599+01001+00401999999ADDMA1102201999999REMMET060METAR ZSSS 131530Z 16002MPS 120V190 CAVOK 10/04 Q1022 NOSIG=
0079583670999992024031316004+31198+121336FM-15+000399999V0201601N002019999999Y009900599+01001+00401999999ADDMA1102201999999REMMET052METAR ZSSS 131600Z 16002MPS CAVOK 10/04 Q1022 NOSIG=
0079583670999992024031316304+31198+121336FM-15+000399999V0201201N002019999999Y009900599+01001+00401999999ADDMA1102201999999REMMET052METAR ZSSS 131630Z 12002MPS CAVOK 10/04 Q1022 NOSIG=
0079583670999992024031317004+31198+121336FM-15+000399999V0201501N002019999999Y009900599+01001+00401999999ADDMA1102201999999REMMET052METAR ZSSS 131700Z 15002MPS CAVOK 10/04 Q1022 NOSIG=
0087583670999992024031317304+31198+121336FM-15+000399999V0201201V002019999999Y009900599+01001+00401999999ADDMA1102101999999REMMET060METAR ZSSS 131730Z 12002MPS 070V150 CAVOK 10/04 Q1021 NOSIG=
0079583670999992024031318004+31198+121336FM-15+000399999V0201501N002019999999Y009900599+01001+00401999999ADDMA1102101999999REMMET052METAR ZSSS 131800Z 15002MPS CAVOK 10/04 Q1021 NOSIG=
0087583670999992024031318304+31198+121336FM-15+000399999V0201401V002019999999Y009900599+01001+00401999999ADDMA1102101999999REMMET060METAR ZSSS 131830Z 14002MPS 100V180 CAVOK 10/04 Q1021 NOSIG=
0079583670999992024031319004+31198+121336FM-15+000399999V0209999V001019999999Y009900599+00901+00401999999ADDMA1102101999999REMMET052METAR ZSSS 131900Z VRB01MPS CAVOK 09/04 Q1021 NOSIG=
0079583670999992024031319304+31198+121336FM-15+000399999V0201401N002019999999Y009900599+01001+00401999999ADDMA1102001999999REMMET052METAR ZSSS 131930Z 14002MPS CAVOK 10/04 Q1020 NOSIG=
0079583670999992024031320004+31198+121336FM-15+000399999V0201601N001019999999Y009900599+00901+00401999999ADDMA1102001999999REMMET052METAR ZSSS 132000Z 16001MPS CAVOK 09/04 Q1020 NOSIG=
0079583670999992024031320304+31198+121336FM-15+000399999V0201401N001019999999Y009900599+00901+00501999999ADDMA1102001999999REMMET052METAR ZSSS 132030Z 14001MPS CAVOK 09/05 Q1020 NOSIG=
0079583670999992024031321004+31198+121336FM-15+000399999V0200801N001019999999Y009900599+01001+00501999999ADDMA1102001999999REMMET052METAR ZSSS 132100Z 08001MPS CAVOK 10/05 Q1020 NOSIG=
0079583670999992024031321304+31198+121336FM-15+000399999V0209999C000019999999Y009900599+01001+00401999999ADDMA1102101999999REMMET052METAR ZSSS 132130Z 00000MPS CAVOK 10/04 Q1021 NOSIG=
0079583670999992024031322004+31198+121336FM-15+000399999V0201401N001019999999Y009900599+00901+00501999999ADDMA1102101999999REMMET052METAR ZSSS 132200Z 14001MPS CAVOK 09/05 Q1021 NOSIG=
0079583670999992024031322304+31198+121336FM-15+000399999V0201701N001019999999Y009900599+00901+00501999999ADDMA1102101999999REMMET052METAR ZSSS 132230Z 17001MPS CAVOK 09/05 Q1021 NOSIG=
0079583670999992024031323004+31198+121336FM-15+000399999V0209999V001019999999Y009900599+01001+00501999999ADDMA1102101999999REMMET052METAR ZSSS 132300Z VRB01MPS CAVOK 10/05 Q1021 NOSIG=
0079583670999992024031323304+31198+121336FM-15+000399999V0209999V001019999999Y009900599+01001+00501999999ADDMA1102101999999REMMET052METAR ZSSS 132330Z VRB01MPS CAVOK 10/05 Q1021 NOSIG=
0079583670999992024031400004+31198+121336FM-15+000399999V0209999V001019999999Y009900599+01101+00501999999ADDMA1102201999999REMMET052METAR ZSSS 140000Z VRB01MPS CAVOK 11/05 Q1022 NOSIG=
0079583670999992024031400304+31198+121336FM-15+000399999V0209999V001019999999Y009900599+01201+00501999999ADDMA1102201999999REMMET052METAR ZSSS 140030Z VRB01MPS CAVOK 12/05 Q1022 NOSIG=
0087583670999992024031401004+31198+121336FM-15+000399999V0203401V002019999999Y009900599+01201+00501999999ADDMA1102301999999REMMET060METAR ZSSS 140100Z 34002MPS 300V360 CAVOK 12/05 Q1023 NOSIG=
0087583670999992024031401304+31198+121336FM-15+000399999V0203601V002019999999Y009900599+01201+00501999999ADDMA1102301999999REMMET060METAR ZSSS 140130Z 36002MPS 330V030 CAVOK 12/05 Q1023 NOSIG=
0079583670999992024031402004+31198+121336FM-15+000399999V0200401N002019999999Y009900599+01201+00401999999ADDMA1102201999999REMMET052METAR ZSSS 140200Z 04002MPS CAVOK 12/04 Q1022 NOSIG=
0079583670999992024031402304+31198+121336FM-15+000399999V0200701N002019999999Y009900599+01301+00401999999ADDMA1102201999999REMMET052METAR ZSSS 140230Z 07002MPS CAVOK 13/04 Q1022 NOSIG=
0087583670999992024031403004+31198+121336FM-15+000399999V0200301V002019999999Y009900599+01301+00401999999ADDMA1102201999999REMMET060METAR ZSSS 140300Z 03002MPS 350V090 CAVOK 13/04 Q1022 NOSIG=
0079583670999992024031403304+31198+121336FM-15+000399999V0200401N003019999999Y009900599+01301+00401999999ADDMA1102201999999REMMET052METAR ZSSS 140330Z 04003MPS CAVOK 13/04 Q1022 NOSIG=
0087583670999992024031404004+31198+121336FM-15+000399999V0200601V002019999999Y009900599+01401+00401999999ADDMA1102201999999REMMET060METAR ZSSS 140400Z 06002MPS 030V100 CAVOK 14/04 Q1022 NOSIG=
0087583670999992024031404304+31198+121336FM-15+000399999V0200601V002019999999Y009900599+01401+00301999999ADDMA1102101999999REMMET060METAR ZSSS 140430Z 06002MPS 020V090 CAVOK 14/03 Q1021 NOSIG=
0087583670999992024031405004+31198+121336FM-15+000399999V0201101V002019999999Y009900599+01601+00201999999ADDMA1102101999999REMMET060METAR ZSSS 140500Z 11002MPS 030V170 CAVOK 16/02 Q1021 NOSIG=
0087583670999992024031405304+31198+121336FM-15+000399999V0200201V004019999999Y009900599+01501+00601999999ADDMA1102101999999REMMET060METAR ZSSS 140530Z 02004MPS 320V090 CAVOK 15/06 Q1021 NOSIG=
0079583670999992024031406004+31198+121336FM-15+000399999V0200201N004019999999Y009900599+01401+00601999999ADDMA1102101999999REMMET052METAR ZSSS 140600Z 02004MPS CAVOK 14/06 Q1021 NOSIG=
0087583670999992024031406304+31198+121336FM-15+000399999V0200601V003019999999Y009900599+01401+00501999999ADDMA1102101999999REMMET060METAR ZSSS 140630Z 06003MPS 030V110 CAVOK 14/05 Q1021 NOSIG=
0079583670999992024031407004+31198+121336FM-15+000399999V0200601N003019999999Y009900599+01401+00401999999ADDMA1102101999999REMMET052METAR ZSSS 140700Z 06003MPS CAVOK 14/04 Q1021 NOSIG=
0087583670999992024031407304+31198+121336FM-15+000399999V0201101V002019999999Y009900599+01401+00401999999ADDMA1102101999999REMMET060METAR ZSSS 140730Z 11002MPS 360V150 CAVOK 14/04 Q1021 NOSIG=
0087583670999992024031408004+31198+121336FM-15+000399999V0200601V002019999999Y009900599+01401+00501999999ADDMA1102001999999REMMET060METAR ZSSS 140800Z 06002MPS 030V100 CAVOK 14/05 Q1020 NOSIG=
0087583670999992024031408304+31198+121336FM-15+000399999V0201201V003019999999Y009900599+01401+00401999999ADDMA1102001999999REMMET060METAR ZSSS 140830Z 12003MPS 080V140 CAVOK 14/04 Q1020 NOSIG=
0087583670999992024031409004+31198+121336FM-15+000399999V0201101V003019999999Y009900599+01301+00401999999ADDMA1102101999999REMMET060METAR ZSSS 140900Z 11003MPS 090V150 CAVOK 13/04 Q1021 NOSIG=
0087583670999992024031409304+31198+121336FM-15+000399999V0201001V002019999999Y009900599+01301+00301999999ADDMA1102101999999REMMET060METAR ZSSS 140930Z 10002MPS 070V160 CAVOK 13/03 Q1021 NOSIG=
0087583670999992024031410004+31198+121336FM-15+000399999V0200401V003019999999Y009900599+01301+00601999999ADDMA1102101999999REMMET060METAR ZSSS 141000Z 04003MPS 020V080 CAVOK 13/06 Q1021 NOSIG=
0128583670999992024031410304+31198+121336FM-15+000399999V0200301V003012200019N009999199+01201+00701999999ADDGF100991999999999999999999MA1102101999999MW1801REMMET069METAR ZSSS 141030Z 03003MPS 010V080 9999 -SHRA NSC 12/07 Q1021 NOSIG=
0128583670999992024031411004+31198+121336FM-15+000399999V0200501V003012200019N009999199+01201+00801999999ADDGF100991999999999999999999MA1102101999999MW1801REMMET069METAR ZSSS 141100Z 05003MPS 020V110 9999 -SHRA NSC 12/08 Q1021 NOSIG=
0079583670999992024031411304+31198+121336FM-15+000399999V0200501N002019999999Y009900599+01101+00801999999ADDMA1102201999999REMMET052METAR ZSSS 141130Z 05002MPS CAVOK 11/08 Q1022 NOSIG=
0087583670999992024031412004+31198+121336FM-15+000399999V0200601V002019999999Y009900599+01101+00801999999ADDMA1102201999999REMMET060METAR ZSSS 141200Z 06002MPS 030V100 CAVOK 11/08 Q1022 NOSIG=
0079583670999992024031412304+31198+121336FM-15+000399999V0200501N002019999999Y009900599+01101+00701999999ADDMA1102201999999REMMET052METAR ZSSS 141230Z 05002MPS CAVOK 11/07 Q1022 NOSIG=
0079583670999992024031413004+31198+121336FM-15+000399999V0200601N002019999999Y009900599+01101+00701999999ADDMA1102201999999REMMET052METAR ZSSS 141300Z 06002MPS CAVOK 11/07 Q1022 NOSIG=
0079583670999992024031413304+31198+121336FM-15+000399999V0209999V001019999999Y009900599+01101+00701999999ADDMA1102201999999REMMET052METAR ZSSS 141330Z VRB01MPS CAVOK 11/07 Q1022 NOSIG=
0079583670999992024031414004+31198+121336FM-15+000399999V0201401N002019999999Y009900599+01201+00701999999ADDMA1102201999999REMMET052METAR ZSSS 141400Z 14002MPS CAVOK 12/07 Q1022 NOSIG=
0079583670999992024031414304+31198+121336FM-15+000399999V0201101N002019999999Y009900599+01101+00601999999ADDMA1102201999999REMMET052METAR ZSSS 141430Z 11002MPS CAVOK 11/06 Q1022 NOSIG=
0079583670999992024031415004+31198+121336FM-15+000399999V0209999V001019999999Y009900599+01101+00701999999ADDMA1102201999999REMMET052METAR ZSSS 141500Z VRB01MPS CAVOK 11/07 Q1022 NOSIG=
0079583670999992024031415304+31198+121336FM-15+000399999V0209999V001019999999Y009900599+01101+00701999999ADDMA1102201999999REMMET052METAR ZSSS 141530Z VRB01MPS CAVOK 11/07 Q1022 NOSIG=
0079583670999992024031416004+31198+121336FM-15+000399999V0209999V001019999999Y009900599+01101+00701999999ADDMA1102201999999REMMET052METAR ZSSS 141600Z VRB01MPS CAVOK 11/07 Q1022 NOSIG=
0079583670999992024031416304+31198+121336FM-15+000399999V0209999V001019999999Y009900599+01101+00701999999ADDMA1102201999999REMMET052METAR ZSSS 141630Z VRB01MPS CAVOK 11/07 Q1022 NOSIG=
0079583670999992024031417004+31198+121336FM-15+000399999V0203601N002019999999Y009900599+01001+00801999999ADDMA1102201999999REMMET052METAR ZSSS 141700Z 36002MPS CAVOK 10/08 Q1022 NOSIG=
0079583670999992024031417304+31198+121336FM-15+000399999V0200101N002019999999Y009900599+01001+00801999999ADDMA1102201999999REMMET052METAR ZSSS 141730Z 01002MPS CAVOK 10/08 Q1022 NOSIG=
0079583670999992024031418004+31198+121336FM-15+000399999V0200101N002019999999Y009900599+00901+00701999999ADDMA1102201999999REMMET052METAR ZSSS 141800Z 01002MPS CAVOK 09/07 Q1022 NOSIG=
0079583670999992024031418304+31198+121336FM-15+000399999V0200101N003019999999Y009900599+00901+00701999999ADDMA1102201999999REMMET052METAR ZSSS 141830Z 01003MPS CAVOK 09/07 Q1022 NOSIG=
0079583670999992024031419004+31198+121336FM-15+000399999V0200101N002019999999Y009900599+00901+00701999999ADDMA1102201999999REMMET052METAR ZSSS 141900Z 01002MPS CAVOK 09/07 Q1022 NOSIG=
0079583670999992024031419304+31198+121336FM-15+000399999V0200201N002019999999Y009900599+00801+00701999999ADDMA1102201999999REMMET052METAR ZSSS 141930Z 02002MPS CAVOK 08/07 Q1022 NOSIG=
0079583670999992024031420004+31198+121336FM-15+000399999V0200101N003019999999Y009900599+00801+00601999999ADDMA1102201999999REMMET052METAR ZSSS 142000Z 01003MPS CAVOK 08/06 Q1022 NOSIG=
0117583670999992024031420304+31198+121336FM-15+000399999V0200101N004012200019N003000199+00801+00701999999ADDGF100991999999999999999999MA1102201999999MW1101REMMET058METAR ZSSS 142030Z 01004MPS 3000 BR NSC 08/07 Q1022 NOSIG=
0177583670999992024031421004+31198+121336FM-15+000399999V0203601N004019999999N004000199+00901+00801999999ADDGA1041+001221999GE19AGL   +99999+99999GF199999041999001221999999MA1102301999999MW1101REMMET080METAR ZSSS 142100Z 36004MPS 4000 BR SCT004 09/08 Q1023 BECMG TL2240 2800 BKN004=
0158583670999992024031421304+31198+121336FM-15+000399999V0200201N00301001221CN004300199+00801+00701999999ADDGA1071+001221999GE19AGL   +99999+99999GF199999071999001221999999MA1102301999999MW1101REMMET061METAR ZSSS 142130Z 02003MPS 4300 BR BKN004 08/07 Q1023 NOSIG=
0177583670999992024031422004+31198+121336FM-15+000399999V0200401N00201000911CN004200199+00701+00701999999ADDGA1071+000911999GE19AGL   +99999+99999GF199999071999000911999999MA1102301999999MW1101REMMET080METAR ZSSS 142200Z 04002MPS 4200 BR BKN003 07/07 Q1023 BECMG TL2310 2500 BKN015=
0158583670999992024031422304+31198+121336FM-15+000399999V0200601N00101002441CN004000199+00801+00801999999ADDGA1071+002441999GE19AGL   +99999+99999GF199999071999002441999999MA1102301999999MW1101REMMET061METAR ZSSS 142230Z 06001MPS 4000 BR BKN008 08/08 Q1023 NOSIG=
0180583670999992024031423004+31198+121336FM-15+000399999V0200901V00201002441CN004000199+00901+00801999999ADDGA1071+002441999GE19AGL   +99999+99999GF199999071999002441999999MA1102301999999MW1101REMMET083METAR ZSSS 142300Z 09002MPS 040V140 4000 BR BKN008 09/08 Q1023 BECMG TL0040 BKN015=
0166583670999992024031423304+31198+121336FM-15+000399999V0201001V002019999999N005000199+01001+00801999999ADDGA1041+002441999GE19AGL   +99999+99999GF199999041999002441999999MA1102401999999MW1101REMMET069METAR ZSSS 142330Z 10002MPS 050V130 5000 BR SCT008 10/08 Q1024 NOSIG=
0194583670999992024031500004+31198+121336FM-15+000399999V0201001V003010024419N007000199+01001+00901999999ADDGA1021+001521999GA2071+002441999GE19AGL   +99999+99999GF199999021999001521999999MA1102401999999REMMET087METAR ZSSS 150000Z 10003MPS 070V150 7000 FEW005 BKN008 10/09 Q1024 BECMG TL0140 BKN015=
0157583670999992024031500304+31198+121336FM-15+000399999V0201101V00201001831CN007000199+01101+01001999999ADDGA1071+001831999GE19AGL   +99999+99999GF199999071999001831999999MA1102401999999REMMET066METAR ZSSS 150030Z 11002MPS 080V150 7000 BKN006 11/10 Q1024 NOSIG=
0171583670999992024031501004+31198+121336FM-15+000399999V0201301V00401002741CN008000199+01301+01001999999ADDGA1071+002741999GE19AGL   +99999+99999GF199999071999002741999999MA1102401999999REMMET080METAR ZSSS 150100Z 13004MPS 100V160 8000 BKN009 13/10 Q1024 BECMG TL0220 BKN010=
0149583670999992024031501304+31198+121336FM-15+000399999V0201401N00401003351CN009999199+01301+01001999999ADDGA1071+003351999GE19AGL   +99999+99999GF199999071999003351999999MA1102401999999REMMET058METAR ZSSS 150130Z 14004MPS 9999 BKN011 13/10 Q1024 NOSIG=
0171583670999992024031502004+31198+121336FM-15+000399999V0201401V00401003961CN009999199+01501+01101999999ADDGA1071+003961999GE19AGL   +99999+99999GF199999071999003961999999MA1102401999999REMMET080METAR ZSSS 150200Z 14004MPS 110V170 9999 BKN013 15/11 Q1024 BECMG TL0230 BKN015=
0157583670999992024031502304+31198+121336FM-15+000399999V0201401V00501005791CN009999199+01601+01001999999ADDGA1071+005791999GE19AGL   +99999+99999GF199999071999005791999999MA1102401999999REMMET066METAR ZSSS 150230Z 14005MPS 110V170 9999 BKN019 16/10 Q1024 NOSIG=
0149583670999992024031503004+31198+121336FM-15+000399999V0201401N00501006101CN009999199+01601+01001999999ADDGA1071+006101999GE19AGL   +99999+99999GF199999071999006101999999MA1102401999999REMMET058METAR ZSSS 150300Z 14005MPS 9999 BKN020 16/10 Q1024 NOSIG=
0157583670999992024031503304+31198+121336FM-15+000399999V0201501V00501007921CN009999199+01801+01001999999ADDGA1071+007921999GE19AGL   +99999+99999GF199999071999007921999999MA1102301999999REMMET066METAR ZSSS 150330Z 15005MPS 100V210 9999 BKN026 18/10 Q1023 NOSIG=
0149583670999992024031504004+31198+121336FM-15+000399999V0201401N00501007921CN009999199+01701+01001999999ADDGA1071+007921999GE19AGL   +99999+99999GF199999071999007921999999MA1102301999999REMMET058METAR ZSSS 150400Z 14005MPS 9999 BKN026 17/10 Q1023 NOSIG=
0157583670999992024031504304+31198+121336FM-15+000399999V0201401V00501007921CN009999199+01801+01001999999ADDGA1071+007921999GE19AGL   +99999+99999GF199999071999007921999999MA1102301999999REMMET066METAR ZSSS 150430Z 14005MPS 110V170 9999 BKN026 18/10 Q1023 NOSIG=
0149583670999992024031505004+31198+121336FM-15+000399999V0201501N00501007921CN009999199+01801+01001999999ADDGA1071+007921999GE19AGL   +99999+99999GF199999071999007921999999MA1102201999999REMMET058METAR ZSSS 150500Z 15005MPS 9999 BKN026 18/10 Q1022 NOSIG=
0149583670999992024031505304+31198+121336FM-15+000399999V0201401N00501009141CN009999199+01801+01001999999ADDGA1071+009141999GE19AGL   +99999+99999GF199999071999009141999999MA1102201999999REMMET058METAR ZSSS 150530Z 14005MPS 9999 BKN030 18/10 Q1022 NOSIG=
0157583670999992024031506004+31198+121336FM-15+000399999V0201501V00501009141CN009999199+01901+01101999999ADDGA1071+009141999GE19AGL   +99999+99999GF199999071999009141999999MA1102101999999REMMET066METAR ZSSS 150600Z 15005MPS 110V200 9999 BKN030 19/11 Q1021 NOSIG=
0157583670999992024031506304+31198+121336FM-15+000399999V0201601V005019999999N009999199+01901+01001999999ADDGA1041+010061999GE19AGL   +99999+99999GF199999041999010061999999MA1102101999999REMMET066METAR ZSSS 150630Z 16005MPS 130V190 9999 SCT033 19/10 Q1021 NOSIG=
0157583670999992024031507004+31198+121336FM-15+000399999V0201601V006019999999N009999199+01901+00901999999ADDGA1041+010061999GE19AGL   +99999+99999GF199999041999010061999999MA1102101999999REMMET066METAR ZSSS 150700Z 16006MPS 130V200 9999 SCT033 19/09 Q1021 NOSIG=
0079583670999992024031507304+31198+121336FM-15+000399999V0201501N005019999999Y009900599+01901+00901999999ADDMA1102101999999REMMET052METAR ZSSS 150730Z 15005MPS CAVOK 19/09 Q1021 NOSIG=
0079583670999992024031508004+31198+121336FM-15+000399999V0201701N006019999999Y009900599+01801+00901999999ADDMA1102101999999REMMET052METAR ZSSS 150800Z 17006MPS CAVOK 18/09 Q1021 NOSIG=
0079583670999992024031508304+31198+121336FM-15+000399999V0201501N005019999999Y009900599+01801+01001999999ADDMA1102101999999REMMET052METAR ZSSS 150830Z 15005MPS CAVOK 18/10 Q1021 NOSIG=
0079583670999992024031509004+31198+121336FM-15+000399999V0201601N005019999999Y009900599+01701+01001999999ADDMA1102101999999REMMET052METAR ZSSS 150900Z 16005MPS CAVOK 17/10 Q1021 NOSIG=
0079583670999992024031509304+31198+121336FM-15+000399999V0201501N006019999999Y009900599+01701+01001999999ADDMA1102101999999REMMET052METAR ZSSS 150930Z 15006MPS CAVOK 17/10 Q1021 NOSIG=
0149583670999992024031510004+31198+121336FM-15+000399999V0201501N005019999999N009999199+01601+01001999999ADDGA1041+010061999GE19AGL   +99999+99999GF199999041999010061999999MA1102201999999REMMET058METAR ZSSS 151000Z 15005MPS 9999 SCT033 16/10 Q1022 NOSIG=
0149583670999992024031510304+31198+121336FM-15+000399999V0201301N005019999999N009999199+01601+00901999999ADDGA1041+010061999GE19AGL   +99999+99999GF199999041999010061999999MA1102201999999REMMET058METAR ZSSS 151030Z 13005MPS 9999 SCT033 16/09 Q1022 NOSIG=
0149583670999992024031511004+31198+121336FM-15+000399999V0201301N005019999999N009999199+01501+00901999999ADDGA1041+010061999GE19AGL   +99999+99999GF199999041999010061999999MA1102201999999REMMET058METAR ZSSS 151100Z 13005MPS 9999 SCT033 15/09 Q1022 NOSIG=
0157583670999992024031511304+31198+121336FM-15+000399999V0201401V004019999999N009999199+01501+00901999999ADDGA1041+010061999GE19AGL   +99999+99999GF199999041999010061999999MA1102201999999REMMET066METAR ZSSS 151130Z 14004MPS 110V170 9999 SCT033 15/09 Q1022 NOSIG=
0159583670999992024031512004+31198+121336FM-15+000399999V0201601N00401007921CN009999199+01301+01001999999ADDGA1071+007921999GE19AGL   +99999+99999GF199999071999007921999999MA1102301999999MW1611REMMET062METAR ZSSS 151200Z 16004MPS 9999 -RA BKN026 13/10 Q1023 NOSIG=
0149583670999992024031512304+31198+121336FM-15+000399999V0201501N00401007921CN009999199+01301+01001999999ADDGA1071+007921999GE19AGL   +99999+99999GF199999071999007921999999MA1102301999999REMMET058METAR ZSSS 151230Z 15004MPS 9999 BKN026 13/10 Q1023 NOSIG=
0173583670999992024031513004+31198+121336FM-15+000399999V0201601N00501004881CN009999199+01301+01001999999ADDGA1071+004881999GE19AGL   +99999+99999GF199999071999004881999999MA1102301999999MW1611REMMET076METAR ZSSS 151300Z 16005MPS 9999 -RA BKN016 13/10 Q1023 BECMG TL1450 BKN013=
0157583670999992024031513304+31198+121336FM-15+000399999V0201601V00301004881CN009999199+01301+01001999999ADDGA1071+004881999GE19AGL   +99999+99999GF199999071999004881999999MA1102301999999REMMET066METAR ZSSS 151330Z 16003MPS 120V180 9999 BKN016 13/10 Q1023 NOSIG=
0149583670999992024031514004+31198+121336FM-15+000399999V0201501N00401004571CN009999199+01301+01001999999ADDGA1071+004571999GE19AGL   +99999+99999GF199999071999004571999999MA1102201999999REMMET058METAR ZSSS 151400Z 15004MPS 9999 BKN015 13/10 Q1022 NOSIG=
0149583670999992024031514304+31198+121336FM-15+000399999V0201501N00401004271CN009999199+01401+01001999999ADDGA1071+004271999GE19AGL   +99999+99999GF199999071999004271999999MA1102201999999REMMET058METAR ZSSS 151430Z 15004MPS 9999 BKN014 14/10 Q1022 NOSIG=
0163583670999992024031515004+31198+121336FM-15+000399999V0201501N00501004271CN009999199+01301+01101999999ADDGA1071+004271999GE19AGL   +99999+99999GF199999071999004271999999MA1102201999999REMMET072METAR ZSSS 151500Z 15005MPS 9999 BKN014 13/11 Q1022 BECMG TL1650 BKN015=
0159583670999992024031515304+31198+121336FM-15+000399999V0201601N00401003661CN008000199+01301+01101999999ADDGA1071+003661999GE19AGL   +99999+99999GF199999071999003661999999MA1102201999999MW1611REMMET062METAR ZSSS 151530Z 16004MPS 8000 -RA BKN012 13/11 Q1022 NOSIG=
0173583670999992024031516004+31198+121336FM-15+000399999V0201401N00401003051CN006000199+01201+01101999999ADDGA1071+003051999GE19AGL   +99999+99999GF199999071999003051999999MA1102201999999MW1611REMMET076METAR ZSSS 151600Z 14004MPS 6000 -RA BKN010 12/11 Q1022 BECMG TL1650 BKN008=
0168583670999992024031516304+31198+121336FM-15+000399999V0201401N00401002441CN005000199+01201+01101999999ADDGA1071+002441999GE19AGL   +99999+99999GF199999071999002441999999MA1102201999999MW1101MW2611REMMET065METAR ZSSS 151630Z 14004MPS 5000 -RA BR BKN008 12/11 Q1022 NOSIG=
0168583670999992024031517004+31198+121336FM-15+000399999V0201401N00301002131CN005000199+01201+01101999999ADDGA1071+002131999GE19AGL   +99999+99999GF199999071999002131999999MA1102201999999MW1101MW2611REMMET065METAR ZSSS 151700Z 14003MPS 5000 -RA BR BKN007 12/11 Q1022 NOSIG=
0159583670999992024031517304+31198+121336FM-15+000399999V0201401N00301002131CN006000199+01201+01101999999ADDGA1071+002131999GE19AGL   +99999+99999GF199999071999002131999999MA1102201999999MW1611REMMET062METAR ZSSS 151730Z 14003MPS 6000 -RA BKN007 12/11 Q1022 NOSIG=
0159583670999992024031518004+31198+121336FM-15+000399999V0201401N00301002131CN007000199+01201+01101999999ADDGA1071+002131999GE19AGL   +99999+99999GF199999071999002131999999MA1102101999999MW1611REMMET062METAR ZSSS 151800Z 14003MPS 7000 -RA BKN007 12/11 Q1021 NOSIG=
0149583670999992024031518304+31198+121336FM-15+000399999V0201401N00401002741CN008000199+01201+01101999999ADDGA1071+002741999GE19AGL   +99999+99999GF199999071999002741999999MA1102101999999REMMET058METAR ZSSS 151830Z 14004MPS 8000 BKN009 12/11 Q1021 NOSIG=
0149583670999992024031519004+31198+121336FM-15+000399999V0201401N00301002741CN008000199+01201+01101999999ADDGA1071+002741999GE19AGL   +99999+99999GF199999071999002741999999MA1102101999999REMMET058METAR ZSSS 151900Z 14003MPS 8000 BKN009 12/11 Q1021 NOSIG=
0149583670999992024031519304+31198+121336FM-15+000399999V0201401N00301002131CN006000199+01201+01101999999ADDGA1071+002131999GE19AGL   +99999+99999GF199999071999002131999999MA1102101999999REMMET058METAR ZSSS 151930Z 14003MPS 6000 BKN007 12/11 Q1021 NOSIG=
0149583670999992024031520004+31198+121336FM-15+000399999V0201401N00201002131CN006000199+01201+01101999999ADDGA1071+002131999GE19AGL   +99999+99999GF199999071999002131999999MA1102001999999REMMET058METAR ZSSS 152000Z 14002MPS 6000 BKN007 12/11 Q1020 NOSIG=
0149583670999992024031520304+31198+121336FM-15+000399999V0201401N00301002131CN006000199+01201+01101999999ADDGA1071+002131999GE19AGL   +99999+99999GF199999071999002131999999MA1102001999999REMMET058METAR ZSSS 152030Z 14003MPS 6000 BKN007 12/11 Q1020 NOSIG=
0171583670999992024031521004+31198+121336FM-15+000399999V0201401N00301002131CN006000199+01201+01101999999ADDGA1071+002131999GE19AGL   +99999+99999GF199999071999002131999999MA1102001999999MW1611REMMET074METAR ZSSS 152100Z 14003MPS 6000 -RA BKN007 12/11 Q1020 BECMG TL2230 2800=
0149583670999992024031521304+31198+121336FM-15+000399999V0201401N00301002131CN006000199+01201+01101999999ADDGA1071+002131999GE19AGL   +99999+99999GF199999071999002131999999MA1102001999999REMMET058METAR ZSSS 152130Z 14003MPS 6000 BKN007 12/11 Q1020 NOSIG=
0158583670999992024031522004+31198+121336FM-15+000399999V0201401N00301001831CN005000199+01301+01201999999ADDGA1071+001831999GE19AGL   +99999+99999GF199999071999001831999999MA1102001999999MW1101REMMET061METAR ZSSS 152200Z 14003MPS 5000 BR BKN006 13/12 Q1020 NOSIG=
0158583670999992024031522304+31198+121336FM-15+000399999V0201401N00301001521CN004000199+01301+01201999999ADDGA1071+001521999GE19AGL   +99999+99999GF199999071999001521999999MA1102001999999MW1101REMMET061METAR ZSSS 152230Z 14003MPS 4000 BR BKN005 13/12 Q1020 NOSIG=
0158583670999992024031523004+31198+121336FM-15+000399999V0201401N00301001521CN004000199+01301+01201999999ADDGA1071+001521999GE19AGL   +99999+99999GF199999071999001521999999MA1102001999999MW1101REMMET061METAR ZSSS 152300Z 14003MPS 4000 BR BKN005 13/12 Q1020 NOSIG=
0158583670999992024031523304+31198+121336FM-15+000399999V0201601N00301001521CN004000199+01301+01201999999ADDGA1071+001521999GE19AGL   +99999+99999GF199999071999001521999999MA1102001999999MW1101REMMET061METAR ZSSS 152330Z 16003MPS 4000 BR BKN005 13/12 Q1020 NOSIG=
0158583670999992024031600004+31198+121336FM-15+000399999V0201601N00301001831CN005000199+01401+01301999999ADDGA1071+001831999GE19AGL   +99999+99999GF199999071999001831999999MA1102101999999MW1101REMMET061METAR ZSSS 160000Z 16003MPS 5000 BR BKN006 14/13 Q1021 NOSIG=
0149583670999992024031600304+31198+121336FM-15+000399999V0201501N00401002131CN007000199+01401+01301999999ADDGA1071+002131999GE19AGL   +99999+99999GF199999071999002131999999MA1102001999999REMMET058METAR ZSSS 160030Z 15004MPS 7000 BKN007 14/13 Q1020 NOSIG=
0149583670999992024031601004+31198+121336FM-15+000399999V0201601N00601002131CN008000199+01401+01301999999ADDGA1071+002131999GE19AGL   +99999+99999GF199999071999002131999999MA1102001999999REMMET058METAR ZSSS 160100Z 16006MPS 8000 BKN007 14/13 Q1020 NOSIG=
0157583670999992024031601304+31198+121336FM-15+000399999V0201601V00301002131CN009999199+01501+01301999999ADDGA1071+002131999GE19AGL   +99999+99999GF199999071999002131999999MA1102001999999REMMET066METAR ZSSS 160130Z 16003MPS 120V190 9999 BKN007 15/13 Q1020 NOSIG=
0149583670999992024031602004+31198+121336FM-15+000399999V0201601N00401002131CN009999199+01501+01301999999ADDGA1071+002131999GE19AGL   +99999+99999GF199999071999002131999999MA1102001999999REMMET058METAR ZSSS 160200Z 16004MPS 9999 BKN007 15/13 Q1020 NOSIG=
0149583670999992024031602304+31198+121336FM-15+000399999V0201601N00301002441CN009999199+01501+01301999999ADDGA1071+002441999GE19AGL   +99999+99999GF199999071999002441999999MA1102001999999REMMET058METAR ZSSS 160230Z 16003MPS 9999 BKN008 15/13 Q1020 NOSIG=
0163583670999992024031603004+31198+121336FM-15+000399999V0201801N00401002741CN009999199+01601+01401999999ADDGA1071+002741999GE19AGL   +99999+99999GF199999071999002741999999MA1102001999999REMMET072METAR ZSSS 160300Z 18004MPS 9999 BKN009 16/14 Q1020 BECMG TL0350 BKN010=
0157583670999992024031603304+31198+121336FM-15+000399999V0202001V00301003051CN009999199+01601+01301999999ADDGA1071+003051999GE19AGL   +99999+99999GF199999071999003051999999MA1101901999999REMMET066METAR ZSSS 160330Z 20003MPS 180V250 9999 BKN010 16/13 Q1019 NOSIG=
0171583670999992024031604004+31198+121336FM-15+000399999V0202101V00301003051CN009999199+01601+01401999999ADDGA1071+003051999GE19AGL   +99999+99999GF199999071999003051999999MA1101901999999REMMET080METAR ZSSS 160400Z 21003MPS 170V260 9999 BKN010 16/14 Q1019 BECMG TL0530 BKN015=
0157583670999992024031604304+31198+121336FM-15+000399999V0201901V00201003961CN009999199+01701+01401999999ADDGA1071+003961999GE19AGL   +99999+99999GF199999071999003961999999MA1101801999999REMMET066METAR ZSSS 160430Z 19002MPS 130V250 9999 BKN013 17/14 Q1018 NOSIG=
0149583670999992024031605004+31198+121336FM-15+000399999V0209999V00101004571CN009999199+01701+01301999999ADDGA1071+004571999GE19AGL   +99999+99999GF199999071999004571999999MA1101801999999REMMET058METAR ZSSS 160500Z VRB01MPS 9999 BKN015 17/13 Q1018 NOSIG=
0149583670999992024031605304+31198+121336FM-15+000399999V0209999V00101004571CN009999199+01801+01301999999ADDGA1071+004571999GE19AGL   +99999+99999GF199999071999004571999999MA1101801999999REMMET058METAR ZSSS 160530Z VRB01MPS 9999 BKN015 18/13 Q1018 NOSIG=
0157583670999992024031606004+31198+121336FM-15+000399999V0202901V002019999999N009999199+01901+01301999999ADDGA1041+006101999GE19AGL   +99999+99999GF199999041999006101999999MA1101701999999REMMET066METAR ZSSS 160600Z 29002MPS 220V360 9999 SCT020 19/13 Q1017 NOSIG=
0149583670999992024031606304+31198+121336FM-15+000399999V0209999V001019999999N009999199+02001+01301999999ADDGA1041+007011999GE19AGL   +99999+99999GF199999041999007011999999MA1101601999999REMMET058METAR ZSSS 160630Z VRB01MPS 9999 SCT023 20/13 Q1016 NOSIG=
0149583670999992024031607004+31198+121336FM-15+000399999V0209999V001019999999N009999199+02001+01301999999ADDGA1041+007011999GE19AGL   +99999+99999GF199999041999007011999999MA1101601999999REMMET058METAR ZSSS 160700Z VRB01MPS 9999 SCT023 20/13 Q1016 NOSIG=
0149583670999992024031607304+31198+121336FM-15+000399999V0209999V002019999999N009999199+02101+01301999999ADDGA1021+007011999GE19AGL   +99999+99999GF199999021999007011999999MA1101601999999REMMET058METAR ZSSS 160730Z VRB02MPS 9999 FEW023 21/13 Q1016 NOSIG=
0087583670999992024031608004+31198+121336FM-15+000399999V0202501V002019999999Y009900599+02101+01301999999ADDMA1101601999999REMMET060METAR ZSSS 160800Z 25002MPS 200V310 CAVOK 21/13 Q1016 NOSIG=
0079583670999992024031608304+31198+121336FM-15+000399999V0209999V002019999999Y009900599+02101+01301999999ADDMA1101501999999REMMET052METAR ZSSS 160830Z VRB02MPS CAVOK 21/13 Q1015 NOSIG=
0087583670999992024031609004+31198+121336FM-15+000399999V0202301V002019999999Y009900599+02001+01301999999ADDMA1101501999999REMMET060METAR ZSSS 160900Z 23002MPS 140V300 CAVOK 20/13 Q1015 NOSIG=
0087583670999992024031609304+31198+121336FM-15+000399999V0202101V002019999999Y009900599+02001+01301999999ADDMA1101501999999REMMET060METAR ZSSS 160930Z 21002MPS 160V250 CAVOK 20/13 Q1015 NOSIG=
0087583670999992024031610004+31198+121336FM-15+000399999V0201601V002019999999Y009900599+01901+01301999999ADDMA1101601999999REMMET060METAR ZSSS 161000Z 16002MPS 130V190 CAVOK 19/13 Q1016 NOSIG=
0087583670999992024031610304+31198+121336FM-15+000399999V0201101V002019999999Y009900599+01901+01301999999ADDMA1101601999999REMMET060METAR ZSSS 161030Z 11002MPS 100V160 CAVOK 19/13 Q1016 NOSIG=
0079583670999992024031611004+31198+121336FM-15+000399999V0201701N003019999999Y009900599+01801+01301999999ADDMA1101601999999REMMET052METAR ZSSS 161100Z 17003MPS CAVOK 18/13 Q1016 NOSIG=
0079583670999992024031611304+31198+121336FM-15+000399999V0201501N002019999999Y009900599+01701+01301999999ADDMA1101701999999REMMET052METAR ZSSS 161130Z 15002MPS CAVOK 17/13 Q1017 NOSIG=
0079583670999992024031612004+31198+121336FM-15+000399999V0200801N001019999999Y009900599+01701+01301999999ADDMA1101701999999REMMET052METAR ZSSS 161200Z 08001MPS CAVOK 17/13 Q1017 NOSIG=
0079583670999992024031612304+31198+121336FM-15+000399999V0209999V001019999999Y009900599+01701+01301999999ADDMA1101701999999REMMET052METAR ZSSS 161230Z VRB01MPS CAVOK 17/13 Q1017 NOSIG=
0079583670999992024031613004+31198+121336FM-15+000399999V0209999V001019999999Y009900599+01701+01401999999ADDMA1101701999999REMMET052METAR ZSSS 161300Z VRB01MPS CAVOK 17/14 Q1017 NOSIG=
0079583670999992024031613304+31198+121336FM-15+000399999V0209999V001019999999Y009900599+01701+01301999999ADDMA1101801999999REMMET052METAR ZSSS 161330Z VRB01MPS CAVOK 17/13 Q1018 NOSIG=
0079583670999992024031614004+31198+121336FM-15+000399999V0209999V001019999999Y009900599+01701+01301999999ADDMA1101801999999REMMET052METAR ZSSS 161400Z VRB01MPS CAVOK 17/13 Q1018 NOSIG=
0079583670999992024031614304+31198+121336FM-15+000399999V0209999V001019999999Y009900599+01601+01301999999ADDMA1101801999999REMMET052METAR ZSSS 161430Z VRB01MPS CAVOK 16/13 Q1018 NOSIG=
0079583670999992024031615004+31198+121336FM-15+000399999V0200801N001019999999Y009900599+01701+01301999999ADDMA1101801999999REMMET052METAR ZSSS 161500Z 08001MPS CAVOK 17/13 Q1018 NOSIG=
0079583670999992024031615304+31198+121336FM-15+000399999V0201401N001019999999Y009900599+01601+01301999999ADDMA1101801999999REMMET052METAR ZSSS 161530Z 14001MPS CAVOK 16/13 Q1018 NOSIG=
0079583670999992024031616004+31198+121336FM-15+000399999V0209999C000019999999Y009900599+01601+01301999999ADDMA1101801999999REMMET052METAR ZSSS 161600Z 00000MPS CAVOK 16/13 Q1018 NOSIG=
0079583670999992024031616304+31198+121336FM-15+000399999V0202201N002019999999Y009900599+01501+01301999999ADDMA1101801999999REMMET052METAR ZSSS 161630Z 22002MPS CAVOK 15/13 Q1018 NOSIG=
0079583670999992024031617004+31198+121336FM-15+000399999V0209999V001019999999Y009900599+01601+01301999999ADDMA1101801999999REMMET052METAR ZSSS 161700Z VRB01MPS CAVOK 16/13 Q1018 NOSIG=
0079583670999992024031617304+31198+121336FM-15+000399999V0209999V001019999999Y009900599+01601+01401999999ADDMA1101801999999REMMET052METAR ZSSS 161730Z VRB01MPS CAVOK 16/14 Q1018 NOSIG=
0079583670999992024031618004+31198+121336FM-15+000399999V0209999V001019999999Y009900599+01501+01301999999ADDMA1101801999999REMMET052METAR ZSSS 161800Z VRB01MPS CAVOK 15/13 Q1018 NOSIG=
0108583670999992024031618304+31198+121336FM-15+000399999V0203601N003012200019N008000199+01501+01301999999ADDGF100991999999999999999999MA1101801999999REMMET055METAR ZSSS 161830Z 36003MPS 8000 NSC 15/13 Q1018 NOSIG=
0149583670999992024031619004+31198+121336FM-15+000399999V0200201N002019999999N006000199+01401+01301999999ADDGA1041+012191999GE19AGL   +99999+99999GF199999041999012191999999MA1101701999999REMMET058METAR ZSSS 161900Z 02002MPS 6000 SCT040 14/13 Q1017 NOSIG=
0149583670999992024031619304+31198+121336FM-15+000399999V0200201N003019999999N006000199+01501+01301999999ADDGA1041+012191999GE19AGL   +99999+99999GF199999041999012191999999MA1101701999999REMMET058METAR ZSSS 161930Z 02003MPS 6000 SCT040 15/13 Q1017 NOSIG=
0158583670999992024031620004+31198+121336FM-15+000399999V0200101N003019999999N005000199+01401+01301999999ADDGA1041+012191999GE19AGL   +99999+99999GF199999041999012191999999MA1101801999999MW1101REMMET061METAR ZSSS 162000Z 01003MPS 5000 BR SCT040 14/13 Q1018 NOSIG=
0158583670999992024031620304+31198+121336FM-15+000399999V0203501N002019999999N004000199+01401+01301999999ADDGA1041+002441999GE19AGL   +99999+99999GF199999041999002441999999MA1101801999999MW1101REMMET061METAR ZSSS 162030Z 35002MPS 4000 BR SCT008 14/13 Q1018 NOSIG=
0172583670999992024031621004+31198+121336FM-15+000399999V0203601N002019999999N004000199+01401+01201999999ADDGA1041+002441999GE19AGL   +99999+99999GF199999041999002441999999MA1101801999999MW1101REMMET075METAR ZSSS 162100Z 36002MPS 4000 BR SCT008 14/12 Q1018 BECMG TL2140 BKN008=
0158583670999992024031621304+31198+121336FM-15+000399999V0203601N00301002131CN004000199+01301+01201999999ADDGA1071+002131999GE19AGL   +99999+99999GF199999071999002131999999MA1101801999999MW1101REMMET061METAR ZSSS 162130Z 36003MPS 4000 BR BKN007 13/12 Q1018 NOSIG=
0172583670999992024031622004+31198+121336FM-15+000399999V0200201N00201002131CN004000199+01301+01201999999ADDGA1071+002131999GE19AGL   +99999+99999GF199999071999002131999999MA1101801999999MW1101REMMET075METAR ZSSS 162200Z 02002MPS 4000 BR BKN007 13/12 Q1018 BECMG TL2340 BKN010=
0158583670999992024031622304+31198+121336FM-15+000399999V0203601N00301002131CN003000199+01301+01201999999ADDGA1071+002131999GE19AGL   +99999+99999GF199999071999002131999999MA1101901999999MW1101REMMET061METAR ZSSS 162230Z 36003MPS 3000 BR BKN007 13/12 Q1019 NOSIG=
0170583670999992024031623004+31198+121336FM-15+000399999V0200101N00301002741CN003000199+01301+01101999999ADDGA1071+002741999GE19AGL   +99999+99999GF199999071999002741999999MA1101901999999MW1101REMMET073METAR ZSSS 162300Z 01003MPS 3000 BR BKN009 13/11 Q1019 BECMG TL2340 2800=
0158583670999992024031623304+31198+121336FM-15+000399999V0203601N00401002741CN002600199+01301+01101999999ADDGA1071+002741999GE19AGL   +99999+99999GF199999071999002741999999MA1102001999999MW1101REMMET061METAR ZSSS 162330Z 36004MPS 2600 BR BKN009 13/11 Q1020 NOSIG=
0172583670999992024031700004+31198+121336FM-15+000399999V0203601N00501003051CN003500199+01301+01101999999ADDGA1071+003051999GE19AGL   +99999+99999GF199999071999003051999999MA1102001999999MW1101REMMET075METAR ZSSS 170000Z 36005MPS 3500 BR BKN010 13/11 Q1020 BECMG TL0140 BKN015=
0158583670999992024031700304+31198+121336FM-15+000399999V0203601N00501003051CN005000199+01301+01101999999ADDGA1071+003051999GE19AGL   +99999+99999GF199999071999003051999999MA1102101999999MW1101REMMET061METAR ZSSS 170030Z 36005MPS 5000 BR BKN010 13/11 Q1021 NOSIG=
0170583670999992024031701004+31198+121336FM-15+000399999V0200101N00401003051CN007000199+01301+01101999999ADDGA1071+003051999GE19AGL   +99999+99999GF199999071999003051999999MA1102101999999REMMET079METAR ZSSS 170100Z 01004MPS 7000 BKN010 13/11 Q1021 BECMG TL0130 SCT010 OVC030=
0149583670999992024031701304+31198+121336FM-15+000399999V0200201N00701003961CN007000199+01401+01001999999ADDGA1071+003961999GE19AGL   +99999+99999GF199999071999003961999999MA1102101999999REMMET058METAR ZSSS 170130Z 02007MPS 7000 BKN013 14/10 Q1021 NOSIG=
0149583670999992024031702004+31198+121336FM-15+000399999V0200101N006019999999N008000199+01401+01001999999ADDGA1041+004571999GE19AGL   +99999+99999GF199999041999004571999999MA1102101999999REMMET058METAR ZSSS 170200Z 01006MPS 8000 SCT015 14/10 Q1021 NOSIG=
0149583670999992024031702304+31198+121336FM-15+000399999V0200201N008019999999N008000199+01401+01001999999ADDGA1021+004881999GE19AGL   +99999+99999GF199999021999004881999999MA1102201999999REMMET058METAR ZSSS 170230Z 02008MPS 8000 FEW016 14/10 Q1022 NOSIG=
0149583670999992024031703004+31198+121336FM-15+000399999V0200201N008019999999N009999199+01401+00901999999ADDGA1021+006101999GE19AGL   +99999+99999GF199999021999006101999999MA1102201999999REMMET058METAR ZSSS 170300Z 02008MPS 9999 FEW020 14/09 Q1022 NOSIG=
0149583670999992024031703304+31198+121336FM-15+000399999V0200201N007019999999N009999199+01301+00801999999ADDGA1021+006101999GE19AGL   +99999+99999GF199999021999006101999999MA1102101999999REMMET058METAR ZSSS 170330Z 02007MPS 9999 FEW020 13/08 Q1021 NOSIG=
0159583670999992024031704004+31198+121336FM-15+000399999V0200201N007019999999N009999199+01301+00801999999ADDGA1021+007921999GE19AGL   +99999+99999GF199999021999007921999999MA1102101999999MW1611REMMET062METAR ZSSS 170400Z 02007MPS 9999 -RA FEW026 13/08 Q1021 NOSIG=
0149583670999992024031704304+31198+121336FM-15+000399999V0200101N008019999999N009999199+01201+00801999999ADDGA1021+007921999GE19AGL   +99999+99999GF199999021999007921999999MA1102201999999REMMET058METAR ZSSS 170430Z 01008MPS 9999 FEW026 12/08 Q1022 NOSIG=
0149583670999992024031705004+31198+121336FM-15+000399999V0200201N008019999999N009999199+01201+00801999999ADDGA1021+006101999GE19AGL   +99999+99999GF199999021999006101999999MA1102201999999REMMET058METAR ZSSS 170500Z 02008MPS 9999 FEW020 12/08 Q1022 NOSIG=
0149583670999992024031705304+31198+121336FM-15+000399999V0200101N009019999999N009999199+01101+00701999999ADDGA1021+004881999GE19AGL   +99999+99999GF199999021999004881999999MA1102201999999REMMET058METAR ZSSS 170530Z 01009MPS 9999 FEW016 11/07 Q1022 NOSIG=
0149583670999992024031706004+31198+121336FM-15+000399999V0200101N00901004881CN009999199+01101+00701999999ADDGA1071+004881999GE19AGL   +99999+99999GF199999071999004881999999MA1102201999999REMMET058METAR ZSSS 170600Z 01009MPS 9999 BKN016 11/07 Q1022 NOSIG=
0149583670999992024031706304+31198+121336FM-15+000399999V0200201N00801004881CN009999199+01101+00601999999ADDGA1071+004881999GE19AGL   +99999+99999GF199999071999004881999999MA1102201999999REMMET058METAR ZSSS 170630Z 02008MPS 9999 BKN016 11/06 Q1022 NOSIG=
0149583670999992024031707004+31198+121336FM-15+000399999V0200101N00901004881CN009999199+01101+00501999999ADDGA1071+004881999GE19AGL   +99999+99999GF199999071999004881999999MA1102201999999REMMET058METAR ZSSS 170700Z 01009MPS 9999 BKN016 11/05 Q1022 NOSIG=
0149583670999992024031707304+31198+121336FM-15+000399999V0200201N008019999999N009999199+01101+00401999999ADDGA1021+009141999GE19AGL   +99999+99999GF199999021999009141999999MA1102201999999REMMET058METAR ZSSS 170730Z 02008MPS 9999 FEW030 11/04 Q1022 NOSIG=
0149583670999992024031708004+31198+121336FM-15+000399999V0200201N008019999999N009999199+01101+00301999999ADDGA1021+009141999GE19AGL   +99999+99999GF199999021999009141999999MA1102201999999REMMET058METAR ZSSS 170800Z 02008MPS 9999 FEW030 11/03 Q1022 NOSIG=
0157583670999992024031708304+31198+121336FM-15+000399999V0200301V005019999999N009999199+01101+00201999999ADDGA1021+009141999GE19AGL   +99999+99999GF199999021999009141999999MA1102301999999REMMET066METAR ZSSS 170830Z 03005MPS 360V120 9999 FEW030 11/02 Q1023 NOSIG=
0079583670999992024031709004+31198+121336FM-15+000399999V0200501N005019999999Y009900599+01001+00201999999ADDMA1102301999999REMMET052METAR ZSSS 170900Z 05005MPS CAVOK 10/02 Q1023 NOSIG=
0079583670999992024031709304+31198+121336FM-15+000399999V0200301N007019999999Y009900599+01001+00201999999ADDMA1102301999999REMMET052METAR ZSSS 170930Z 03007MPS CAVOK 10/02 Q1023 NOSIG=
0079583670999992024031710004+31198+121336FM-15+000399999V0200301N005019999999Y009900599+01001+00301999999ADDMA1102301999999REMMET052METAR ZSSS 171000Z 03005MPS CAVOK 10/03 Q1023 NOSIG=
0087583670999992024031710304+31198+121336FM-15+000399999V0200301V006019999999Y009900599+00901+00201999999ADDMA1102401999999REMMET060METAR ZSSS 171030Z 03006MPS 360V060 CAVOK 09/02 Q1024 NOSIG=
0079583670999992024031711004+31198+121336FM-15+000399999V0200101N008019999999Y009900599+00901+00201999999ADDMA1102401999999REMMET052METAR ZSSS 171100Z 01008MPS CAVOK 09/02 Q1024 NOSIG=
0079583670999992024031711304+31198+121336FM-15+000399999V0200101N007019999999Y009900599+00901+00201999999ADDMA1102501999999REMMET052METAR ZSSS 171130Z 01007MPS CAVOK 09/02 Q1025 NOSIG=
0079583670999992024031712004+31198+121336FM-15+000399999V0200201N005019999999Y009900599+00901+00201999999ADDMA1102501999999REMMET052METAR ZSSS 171200Z 02005MPS CAVOK 09/02 Q1025 NOSIG=
0079583670999992024031712304+31198+121336FM-15+000399999V0200301N006019999999Y009900599+00901+00201999999ADDMA1102501999999REMMET052METAR ZSSS 171230Z 03006MPS CAVOK 09/02 Q1025 NOSIG=
0079583670999992024031713004+31198+121336FM-15+000399999V0200301N006019999999Y009900599+00901+00201999999ADDMA1102501999999REMMET052METAR ZSSS 171300Z 03006MPS CAVOK 09/02 Q1025 NOSIG=
0079583670999992024031713304+31198+121336FM-15+000399999V0200301N006019999999Y009900599+00901+00201999999ADDMA1102501999999REMMET052METAR ZSSS 171330Z 03006MPS CAVOK 09/02 Q1025 NOSIG=
0079583670999992024031714004+31198+121336FM-15+000399999V0200301N006019999999Y009900599+00801+00201999999ADDMA1102501999999REMMET052METAR ZSSS 171400Z 03006MPS CAVOK 08/02 Q1025 NOSIG=
0079583670999992024031714304+31198+121336FM-15+000399999V0200401N005019999999Y009900599+00801+00201999999ADDMA1102501999999REMMET052METAR ZSSS 171430Z 04005MPS CAVOK 08/02 Q1025 NOSIG=
0079583670999992024031715004+31198+121336FM-15+000399999V0200101N005019999999Y009900599+00801+00301999999ADDMA1102501999999REMMET052METAR ZSSS 171500Z 01005MPS CAVOK 08/03 Q1025 NOSIG=
0079583670999992024031715304+31198+121336FM-15+000399999V0200101N004019999999Y009900599+00801+00301999999ADDMA1102501999999REMMET052METAR ZSSS 171530Z 01004MPS CAVOK 08/03 Q1025 NOSIG=
0079583670999992024031716004+31198+121336FM-15+000399999V0203601N004019999999Y009900599+00801+00301999999ADDMA1102501999999REMMET052METAR ZSSS 171600Z 36004MPS CAVOK 08/03 Q1025 NOSIG=
0079583670999992024031716304+31198+121336FM-15+000399999V0200101N005019999999Y009900599+00801+00301999999ADDMA1102501999999REMMET052METAR ZSSS 171630Z 01005MPS CAVOK 08/03 Q1025 NOSIG=
0079583670999992024031717004+31198+121336FM-15+000399999V0200101N005019999999Y009900599+00801+00201999999ADDMA1102501999999REMMET052METAR ZSSS 171700Z 01005MPS CAVOK 08/02 Q1025 NOSIG=
0079583670999992024031717304+31198+121336FM-15+000399999V0200101N004019999999Y009900599+00801+00301999999ADDMA1102601999999REMMET052METAR ZSSS 171730Z 01004MPS CAVOK 08/03 Q1026 NOSIG=
0079583670999992024031718004+31198+121336FM-15+000399999V0200101N004019999999Y009900599+00801+00301999999ADDMA1102501999999REMMET052METAR ZSSS 171800Z 01004MPS CAVOK 08/03 Q1025 NOSIG=
0079583670999992024031718304+31198+121336FM-15+000399999V0200101N004019999999Y009900599+00701+00301999999ADDMA1102501999999REMMET052METAR ZSSS 171830Z 01004MPS CAVOK 07/03 Q1025 NOSIG=
0079583670999992024031719004+31198+121336FM-15+000399999V0200101N004019999999Y009900599+00701+00301999999ADDMA1102501999999REMMET052METAR ZSSS 171900Z 01004MPS CAVOK 07/03 Q1025 NOSIG=
0079583670999992024031719304+31198+121336FM-15+000399999V0200201N003019999999Y009900599+00701+00301999999ADDMA1102501999999REMMET052METAR ZSSS 171930Z 02003MPS CAVOK 07/03 Q1025 NOSIG=
0079583670999992024031720004+31198+121336FM-15+000399999V0200101N004019999999Y009900599+00701+00301999999ADDMA1102401999999REMMET052METAR ZSSS 172000Z 01004MPS CAVOK 07/03 Q1024 NOSIG=
0079583670999992024031720304+31198+121336FM-15+000399999V0200101N004019999999Y009900599+00701+00301999999ADDMA1102401999999REMMET052METAR ZSSS 172030Z 01004MPS CAVOK 07/03 Q1024 NOSIG=
0079583670999992024031721004+31198+121336FM-15+000399999V0200301N004019999999Y009900599+00701+00201999999ADDMA1102401999999REMMET052METAR ZSSS 172100Z 03004MPS CAVOK 07/02 Q1024 NOSIG=
0079583670999992024031721304+31198+121336FM-15+000399999V0200301N003019999999Y009900599+00701+00301999999ADDMA1102401999999REMMET052METAR ZSSS 172130Z 03003MPS CAVOK 07/03 Q1024 NOSIG=
0079583670999992024031722004+31198+121336FM-15+000399999V0200101N003019999999Y009900599+00601+00301999999ADDMA1102501999999REMMET052METAR ZSSS 172200Z 01003MPS CAVOK 06/03 Q1025 NOSIG=
0079583670999992024031722304+31198+121336FM-15+000399999V0200201N002019999999Y009900599+00701+00301999999ADDMA1102501999999REMMET052METAR ZSSS 172230Z 02002MPS CAVOK 07/03 Q1025 NOSIG=
0087583670999992024031723004+31198+121336FM-15+000399999V0200201V003019999999Y009900599+00701+00301999999ADDMA1102501999999REMMET060METAR ZSSS 172300Z 02003MPS 360V080 CAVOK 07/03 Q1025 NOSIG=
0087583670999992024031723304+31198+121336FM-15+000399999V0200501V002019999999Y009900599+00801+00301999999ADDMA1102601999999REMMET060METAR ZSSS 172330Z 05002MPS 360V090 CAVOK 08/03 Q1026 NOSIG=
0157583670999992024031800004+31198+121336FM-15+000399999V0200501V003019999999N009999199+00801+00301999999ADDGA1021+006101999GE19AGL   +99999+99999GF199999021999006101999999MA1102501999999REMMET066METAR ZSSS 180000Z 05003MPS 020V100 9999 FEW020 08/03 Q1025 NOSIG=
0087583670999992024031800304+31198+121336FM-15+000399999V0200201V003019999999Y009900599+00801+00301999999ADDMA1102501999999REMMET060METAR ZSSS 180030Z 02003MPS 360V060 CAVOK 08/03 Q1025 NOSIG=
0079583670999992024031801004+31198+121336FM-15+000399999V0200701N004019999999Y009900599+00901+00301999999ADDMA1102501999999REMMET052METAR ZSSS 180100Z 07004MPS CAVOK 09/03 Q1025 NOSIG=
0087583670999992024031801304+31198+121336FM-15+000399999V0200501V003019999999Y009900599+01001+00301999999ADDMA1102501999999REMMET060METAR ZSSS 180130Z 05003MPS 360V080 CAVOK 10/03 Q1025 NOSIG=
0087583670999992024031802004+31198+121336FM-15+000399999V0200401V003019999999Y009900599+01001+00301999999ADDMA1102501999999REMMET060METAR ZSSS 180200Z 04003MPS 350V100 CAVOK 10/03 Q1025 NOSIG=
0087583670999992024031802304+31198+121336FM-15+000399999V0200801V002019999999Y009900599+01101+00301999999ADDMA1102401999999REMMET060METAR ZSSS 180230Z 08002MPS 360V160 CAVOK 11/03 Q1024 NOSIG=
0087583670999992024031803004+31198+121336FM-15+000399999V0200701V002019999999Y009900599+01101+00301999999ADDMA1102401999999REMMET060METAR ZSSS 180300Z 07002MPS 010V120 CAVOK 11/03 Q1024 NOSIG=
0087583670999992024031803304+31198+121336FM-15+000399999V0201201V003019999999Y009900599+01101+00201999999ADDMA1102301999999REMMET060METAR ZSSS 180330Z 12003MPS 080V150 CAVOK 11/02 Q1023 NOSIG=
0087583670999992024031804004+31198+121336FM-15+000399999V0200901V002019999999Y009900599+01101+00201999999ADDMA1102301999999REMMET060METAR ZSSS 180400Z 09002MPS 050V150 CAVOK 11/02 Q1023 NOSIG=
0079583670999992024031804304+31198+121336FM-15+000399999V0200501N002019999999Y009900599+01101+00301999999ADDMA1102301999999REMMET052METAR ZSSS 180430Z 05002MPS CAVOK 11/03 Q1023 NOSIG=
0087583670999992024031805004+31198+121336FM-15+000399999V0200501V002019999999Y009900599+01201+00301999999ADDMA1102301999999REMMET060METAR ZSSS 180500Z 05002MPS 350V110 CAVOK 12/03 Q1023 NOSIG=
0087583670999992024031805304+31198+121336FM-15+000399999V0200201V003019999999Y009900599+01101+00201999999ADDMA1102201999999REMMET060METAR ZSSS 180530Z 02003MPS 340V070 CAVOK 11/02 Q1022 NOSIG=
0079583670999992024031806004+31198+121336FM-15+000399999V0200301N005019999999Y009900599+01101+00301999999ADDMA1102301999999REMMET052METAR ZSSS 180600Z 03005MPS CAVOK 11/03 Q1023 NOSIG=
0079583670999992024031806304+31198+121336FM-15+000399999V0200301N006019999999Y009900599+01101+00301999999ADDMA1102301999999REMMET052METAR ZSSS 180630Z 03006MPS CAVOK 11/03 Q1023 NOSIG=
0079583670999992024031807004+31198+121336FM-15+000399999V0200301N005019999999Y009900599+01101+00401999999ADDMA1102201999999REMMET052METAR ZSSS 180700Z 03005MPS CAVOK 11/04 Q1022 NOSIG=
0079583670999992024031807304+31198+121336FM-15+000399999V0200501N005019999999Y009900599+01101+00401999999ADDMA1102201999999REMMET052METAR ZSSS 180730Z 05005MPS CAVOK 11/04 Q1022 NOSIG=
0087583670999992024031808004+31198+121336FM-15+000399999V0200501V004019999999Y009900599+01101+00401999999ADDMA1102201999999REMMET060METAR ZSSS 180800Z 05004MPS 030V100 CAVOK 11/04 Q1022 NOSIG=
0079583670999992024031808304+31198+121336FM-15+000399999V0200401N005019999999Y009900599+01001+00401999999ADDMA1102201999999REMMET052METAR ZSSS 180830Z 04005MPS CAVOK 10/04 Q1022 NOSIG=
0126583670999992024031809004+31198+121336FM-15+000399999V0200701V004012200019N009999199+01001+00401999999ADDGF100991999999999999999999MA1102201999999MW1611REMMET067METAR ZSSS 180900Z 07004MPS 040V130 9999 -RA NSC 10/04 Q1022 NOSIG=
0079583670999992024031809304+31198+121336FM-15+000399999V0200601N005019999999Y009900599+01001+00401999999ADDMA1102201999999REMMET052METAR ZSSS 180930Z 06005MPS CAVOK 10/04 Q1022 NOSIG=
0079583670999992024031810004+31198+121336FM-15+000399999V0200501N004019999999Y009900599+01001+00401999999ADDMA1102201999999REMMET052METAR ZSSS 181000Z 05004MPS CAVOK 10/04 Q1022 NOSIG=
0120583670999992024031810304+31198+121336FM-15+000399999V0200401N004012200019N009999199+01001+00501999999ADDGF100991999999999999999999MA1102201999999MW1801REMMET061METAR ZSSS 181030Z 04004MPS 9999 -SHRA NSC 10/05 Q1022 NOSIG=
0161583670999992024031811004+31198+121336FM-15+000399999V0200301N004019999999N009999199+00901+00501999999ADDGA1041+007011999GE19AGL   +99999+99999GF199999041999007011999999MA1102201999999MW1801REMMET064METAR ZSSS 181100Z 03004MPS 9999 -SHRA SCT023 09/05 Q1022 NOSIG=
0161583670999992024031811304+31198+121336FM-15+000399999V0200201N00301007011CN009999199+00901+00601999999ADDGA1071+007011999GE19AGL   +99999+99999GF199999071999007011999999MA1102301999999MW1801REMMET064METAR ZSSS 181130Z 02003MPS 9999 -SHRA BKN023 09/06 Q1023 NOSIG=
0169583670999992024031812004+31198+121336FM-15+000399999V0200601V00201007011CN009999199+00901+00601999999ADDGA1071+007011999GE19AGL   +99999+99999GF199999071999007011999999MA1102301999999MW1801REMMET072METAR ZSSS 181200Z 06002MPS 020V100 9999 -SHRA BKN023 09/06 Q1023 NOSIG=
0161583670999992024031812304+31198+121336FM-15+000399999V0200501N00301006101CN009999199+00901+00601999999ADDGA1071+006101999GE19AGL   +99999+99999GF199999071999006101999999MA1102301999999MW1801REMMET064METAR ZSSS 181230Z 05003MPS 9999 -SHRA BKN020 09/06 Q1023 NOSIG=
0149583670999992024031813004+31198+121336FM-15+000399999V0200401N00301006101CN009999199+00901+00601999999ADDGA1071+006101999GE19AGL   +99999+99999GF199999071999006101999999MA1102301999999REMMET058METAR ZSSS 181300Z 04003MPS 9999 BKN020 09/06 Q1023 NOSIG=
0157583670999992024031813304+31198+121336FM-15+000399999V0200601V00201006101CN009999199+00901+00601999999ADDGA1071+006101999GE19AGL   +99999+99999GF199999071999006101999999MA1102301999999REMMET066METAR ZSSS 181330Z 06002MPS 030V090 9999 BKN020 09/06 Q1023 NOSIG=
0149583670999992024031814004+31198+121336FM-15+000399999V0200401N00201006101CN009999199+00901+00601999999ADDGA1071+006101999GE19AGL   +99999+99999GF199999071999006101999999MA1102301999999REMMET058METAR ZSSS 181400Z 04002MPS 9999 BKN020 09/06 Q1023 NOSIG=
0149583670999992024031814304+31198+121336FM-15+000399999V0200101N00201006101CN009999199+00901+00601999999ADDGA1071+006101999GE19AGL   +99999+99999GF199999071999006101999999MA1102301999999REMMET058METAR ZSSS 181430Z 01002MPS 9999 BKN020 09/06 Q1023 NOSIG=
0149583670999992024031815004+31198+121336FM-15+000399999V0203501N00401006101CN009999199+00901+00601999999ADDGA1071+006101999GE19AGL   +99999+99999GF199999071999006101999999MA1102401999999REMMET058METAR ZSSS 181500Z 35004MPS 9999 BKN020 09/06 Q1024 NOSIG=
0149583670999992024031815304+31198+121336FM-15+000399999V0200101N00301006101CN009999199+00901+00601999999ADDGA1071+006101999GE19AGL   +99999+99999GF199999071999006101999999MA1102401999999REMMET058METAR ZSSS 181530Z 01003MPS 9999 BKN020 09/06 Q1024 NOSIG=
0149583670999992024031816004+31198+121336FM-15+000399999V0200201N003019999999N009999199+00901+00601999999ADDGA1041+006101999GE19AGL   +99999+99999GF199999041999006101999999MA1102301999999REMMET058METAR ZSSS 181600Z 02003MPS 9999 SCT020 09/06 Q1023 NOSIG=
0149583670999992024031816304+31198+121336FM-15+000399999V0203601N003019999999N009999199+00901+00601999999ADDGA1021+006101999GE19AGL   +99999+99999GF199999021999006101999999MA1102401999999REMMET058METAR ZSSS 181630Z 36003MPS 9999 FEW020 09/06 Q1024 NOSIG=
0149583670999992024031817004+31198+121336FM-15+000399999V0203601N002019999999N009999199+00901+00601999999ADDGA1021+006101999GE19AGL   +99999+99999GF199999021999006101999999MA1102401999999REMMET058METAR ZSSS 181700Z 36002MPS 9999 FEW020 09/06 Q1024 NOSIG=
0149583670999992024031817304+31198+121336FM-15+000399999V0200101N002019999999N009999199+00801+00501999999ADDGA1021+006101999GE19AGL   +99999+99999GF199999021999006101999999MA1102401999999REMMET058METAR ZSSS 181730Z 01002MPS 9999 FEW020 08/05 Q1024 NOSIG=
0149583670999992024031818004+31198+121336FM-15+000399999V0203601N002019999999N009999199+00801+00601999999ADDGA1021+006101999GE19AGL   +99999+99999GF199999021999006101999999MA1102401999999REMMET058METAR ZSSS 181800Z 36002MPS 9999 FEW020 08/06 Q1024 NOSIG=
0079583670999992024031818304+31198+121336FM-15+000399999V0209999V001019999999Y009900599+00901+00601999999ADDMA1102401999999REMMET052METAR ZSSS 181830Z VRB01MPS CAVOK 09/06 Q1024 NOSIG=
0079583670999992024031819004+31198+121336FM-15+000399999V0203201N001019999999Y009900599+00901+00501999999ADDMA1102301999999REMMET052METAR ZSSS 181900Z 32001MPS CAVOK 09/05 Q1023 NOSIG=
0079583670999992024031819304+31198+121336FM-15+000399999V0209999V001019999999Y009900599+00901+00601999999ADDMA1102301999999REMMET052METAR ZSSS 181930Z VRB01MPS CAVOK 09/06 Q1023 NOSIG=
0079583670999992024031820004+31198+121336FM-15+000399999V0203101N002019999999Y009900599+00901+00501999999ADDMA1102301999999REMMET052METAR ZSSS 182000Z 31002MPS CAVOK 09/05 Q1023 NOSIG=
0087583670999992024031820304+31198+121336FM-15+000399999V0203201V002019999999Y009900599+00901+00501999999ADDMA1102301999999REMMET060METAR ZSSS 182030Z 32002MPS 270V330 CAVOK 09/05 Q1023 NOSIG=
0108583670999992024031821004+31198+121336FM-15+000399999V0203301N002012200019N008000199+00801+00501999999ADDGF100991999999999999999999MA1102401999999REMMET055METAR ZSSS 182100Z 33002MPS 8000 NSC 08/05 Q1024 NOSIG=
0116583670999992024031821304+31198+121336FM-15+000399999V0203001V002012200019N008000199+00801+00501999999ADDGF100991999999999999999999MA1102401999999REMMET063METAR ZSSS 182130Z 30002MPS 270V330 8000 NSC 08/05 Q1024 NOSIG=
0108583670999992024031822004+31198+121336FM-15+000399999V0202701N002012200019N006000199+00801+00501999999ADDGF100991999999999999999999MA1102401999999REMMET055METAR ZSSS 182200Z 27002MPS 6000 NSC 08/05 Q1024 NOSIG=
0108583670999992024031822304+31198+121336FM-15+000399999V0202501N002012200019N006000199+00801+00501999999ADDGF100991999999999999999999MA1102401999999REMMET055METAR ZSSS 182230Z 25002MPS 6000 NSC 08/05 Q1024 NOSIG=
0116583670999992024031823004+31198+121336FM-15+000399999V0202701V002012200019N006000199+00901+00601999999ADDGF100991999999999999999999MA1102501999999REMMET063METAR ZSSS 182300Z 27002MPS 230V310 6000 NSC 09/06 Q1025 NOSIG=
0116583670999992024031823304+31198+121336FM-15+000399999V0202901V003012200019N006000199+01001+00601999999ADDGF100991999999999999999999MA1102501999999REMMET063METAR ZSSS 182330Z 29003MPS 260V330 6000 NSC 10/06 Q1025 NOSIG=
0116583670999992024031900004+31198+121336FM-15+000399999V0202901V003012200019N006000199+01101+00601999999ADDGF100991999999999999999999MA1102501999999REMMET063METAR ZSSS 190000Z 29003MPS 250V330 6000 NSC 11/06 Q1025 NOSIG=
0116583670999992024031900304+31198+121336FM-15+000399999V0203001V004012200019N006000199+01201+00601999999ADDGF100991999999999999999999MA1102501999999REMMET063METAR ZSSS 190030Z 30004MPS 260V330 6000 NSC 12/06 Q1025 NOSIG=
0116583670999992024031901004+31198+121336FM-15+000399999V0203001V005012200019N007000199+01301+00501999999ADDGF100991999999999999999999MA1102601999999REMMET063METAR ZSSS 190100Z 30005MPS 270V350 7000 NSC 13/05 Q1026 NOSIG=
0079583670999992024031901304+31198+121336FM-15+000399999V0203101N005019999999Y009900599+01401+00501999999ADDMA1102501999999REMMET052METAR ZSSS 190130Z 31005MPS CAVOK 14/05 Q1025 NOSIG=
0079583670999992024031902004+31198+121336FM-15+000399999V0202801N005019999999Y009900599+01401+00301999999ADDMA1102501999999REMMET052METAR ZSSS 190200Z 28005MPS CAVOK 14/03 Q1025 NOSIG=
0079583670999992024031902304+31198+121336FM-15+000399999V0203001N005019999999Y009900599+01601+00301999999ADDMA1102501999999REMMET052METAR ZSSS 190230Z 30005MPS CAVOK 16/03 Q1025 NOSIG=
0087583670999992024031903004+31198+121336FM-15+000399999V0202901V005019999999Y009900599+01601+00301999999ADDMA1102501999999REMMET060METAR ZSSS 190300Z 29005MPS 260V330 CAVOK 16/03 Q1025 NOSIG=
0087583670999992024031903304+31198+121336FM-15+000399999V0203101V005019999999Y009900599+01701+00201999999ADDMA1102401999999REMMET060METAR ZSSS 190330Z 31005MPS 280V020 CAVOK 17/02 Q1024 NOSIG=
0098583670999992024031904004+31198+121336FM-15+000399999V0203001V006019999999Y009900599+01701+00101999999ADDMA1102401999999OC101101REMMET063METAR ZSSS 190400Z 30006G11MPS 260V350 CAVOK 17/01 Q1024 NOSIG=
0087583670999992024031904304+31198+121336FM-15+000399999V0202901V005019999999Y009900599+01801+00201999999ADDMA1102301999999REMMET060METAR ZSSS 190430Z 29005MPS 250V330 CAVOK 18/02 Q1023 NOSIG=
0087583670999992024031905004+31198+121336FM-15+000399999V0202901V006019999999Y009900599+01701+00201999999ADDMA1102301999999REMMET060METAR ZSSS 190500Z 29006MPS 250V330 CAVOK 17/02 Q1023 NOSIG=
0087583670999992024031905304+31198+121336FM-15+000399999V0202801V006019999999Y009900599+01801+00201999999ADDMA1102301999999REMMET060METAR ZSSS 190530Z 28006MPS 240V320 CAVOK 18/02 Q1023 NOSIG=
0087583670999992024031906004+31198+121336FM-15+000399999V0203101V007019999999Y009900599+01901+00101999999ADDMA1102201999999REMMET060METAR ZSSS 190600Z 31007MPS 270V350 CAVOK 19/01 Q1022 NOSIG=
0087583670999992024031906304+31198+121336FM-15+000399999V0203001V007019999999Y009900599+01901+00301999999ADDMA1102201999999REMMET060METAR ZSSS 190630Z 30007MPS 270V330 CAVOK 19/03 Q1022 NOSIG=
0087583670999992024031907004+31198+121336FM-15+000399999V0203201V006019999999Y009900599+01901+00301999999ADDMA1102201999999REMMET060METAR ZSSS 190700Z 32006MPS 280V360 CAVOK 19/03 Q1022 NOSIG=
0087583670999992024031907304+31198+121336FM-15+000399999V0203001V006019999999Y009900599+01801+00301999999ADDMA1102201999999REMMET060METAR ZSSS 190730Z 30006MPS 260V340 CAVOK 18/03 Q1022 NOSIG=
0087583670999992024031908004+31198+121336FM-15+000399999V0203101V006019999999Y009900599+01801+00301999999ADDMA1102201999999REMMET060METAR ZSSS 190800Z 31006MPS 280V340 CAVOK 18/03 Q1022 NOSIG=
0087583670999992024031908304+31198+121336FM-15+000399999V0203201V005019999999Y009900599+01801+00401999999ADDMA1102201999999REMMET060METAR ZSSS 190830Z 32005MPS 290V360 CAVOK 18/04 Q1022 NOSIG=
0087583670999992024031909004+31198+121336FM-15+000399999V0203301V007019999999Y009900599+01801+00101999999ADDMA1102201999999REMMET060METAR ZSSS 190900Z 33007MPS 300V360 CAVOK 18/01 Q1022 NOSIG=
0080583670999992024031909304+31198+121336FM-15+000399999V0203201N006019999999Y009900599+01801-00401999999ADDMA1102201999999REMMET053METAR ZSSS 190930Z 32006MPS CAVOK 18/M04 Q1022 NOSIG=
0080583670999992024031910004+31198+121336FM-15+000399999V0203401N006019999999Y009900599+01701-00201999999ADDMA1102301999999REMMET053METAR ZSSS 191000Z 34006MPS CAVOK 17/M02 Q1023 NOSIG=
0079583670999992024031910304+31198+121336FM-15+000399999V0203601N007019999999Y009900599+01501+00101999999ADDMA1102301999999REMMET052METAR ZSSS 191030Z 36007MPS CAVOK 15/01 Q1023 NOSIG=
0079583670999992024031911004+31198+121336FM-15+000399999V0200501N005019999999Y009900599+01301+00201999999ADDMA1102401999999REMMET052METAR ZSSS 191100Z 05005MPS CAVOK 13/02 Q1024 NOSIG=
0079583670999992024031911304+31198+121336FM-15+000399999V0200601N005019999999Y009900599+01201+00101999999ADDMA1102501999999REMMET052METAR ZSSS 191130Z 06005MPS CAVOK 12/01 Q1025 NOSIG=
0079583670999992024031912004+31198+121336FM-15+000399999V0200401N005019999999Y009900599+01201+00101999999ADDMA1102501999999REMMET052METAR ZSSS 191200Z 04005MPS CAVOK 12/01 Q1025 NOSIG=
0079583670999992024031912304+31198+121336FM-15+000399999V0200401N004019999999Y009900599+01101+00001999999ADDMA1102601999999REMMET052METAR ZSSS 191230Z 04004MPS CAVOK 11/00 Q1026 NOSIG=
0080583670999992024031913004+31198+121336FM-15+000399999V0200601N003019999999Y009900599+01101-00101999999ADDMA1102601999999REMMET053METAR ZSSS 191300Z 06003MPS CAVOK 11/M01 Q1026 NOSIG=
0080583670999992024031913304+31198+121336FM-15+000399999V0200501N003019999999Y009900599+01001-00201999999ADDMA1102601999999REMMET053METAR ZSSS 191330Z 05003MPS CAVOK 10/M02 Q1026 NOSIG=
0080583670999992024031914004+31198+121336FM-15+000399999V0200501N002019999999Y009900599+01001-00401999999ADDMA1102701999999REMMET053METAR ZSSS 191400Z 05002MPS CAVOK 10/M04 Q1027 NOSIG=
0080583670999992024031914304+31198+121336FM-15+000399999V0200501N002019999999Y009900599+01001-00601999999ADDMA1102701999999REMMET053METAR ZSSS 191430Z 05002MPS CAVOK 10/M06 Q1027 NOSIG=
0088583670999992024031915004+31198+121336FM-15+000399999V0200601V002019999999Y009900599+01001-00801999999ADDMA1102701999999REMMET061METAR ZSSS 191500Z 06002MPS 040V100 CAVOK 10/M08 Q1027 NOSIG=
0088583670999992024031915304+31198+121336FM-15+000399999V0200701V002019999999Y009900599+01001-00701999999ADDMA1102701999999REMMET061METAR ZSSS 191530Z 07002MPS 020V160 CAVOK 10/M07 Q1027 NOSIG=
0080583670999992024031916004+31198+121336FM-15+000399999V0200501N003019999999Y009900599+00901-00701999999ADDMA1102701999999REMMET053METAR ZSSS 191600Z 05003MPS CAVOK 09/M07 Q1027 NOSIG=
0080583670999992024031916304+31198+121336FM-15+000399999V0200501N002019999999Y009900599+00901-00701999999ADDMA1102701999999REMMET053METAR ZSSS 191630Z 05002MPS CAVOK 09/M07 Q1027 NOSIG=
0080583670999992024031917004+31198+121336FM-15+000399999V0209999V001019999999Y009900599+00801-00701999999ADDMA1102701999999REMMET053METAR ZSSS 191700Z VRB01MPS CAVOK 08/M07 Q1027 NOSIG=
0080583670999992024031917304+31198+121336FM-15+000399999V0202101N003019999999Y009900599+00601-00301999999ADDMA1102701999999REMMET053METAR ZSSS 191730Z 21003MPS CAVOK 06/M03 Q1027 NOSIG=
0080583670999992024031918004+31198+121336FM-15+000399999V0202201N002019999999Y009900599+00701-00301999999ADDMA1102701999999REMMET053METAR ZSSS 191800Z 22002MPS CAVOK 07/M03 Q1027 NOSIG=
0080583670999992024031918304+31198+121336FM-15+000399999V0201801N002019999999Y009900599+00801-00301999999ADDMA1102701999999REMMET053METAR ZSSS 191830Z 18002MPS CAVOK 08/M03 Q1027 NOSIG=
0088583670999992024031919004+31198+121336FM-15+000399999V0202201V002019999999Y009900599+00701-00301999999ADDMA1102701999999REMMET061METAR ZSSS 191900Z 22002MPS 190V260 CAVOK 07/M03 Q1027 NOSIG=
0080583670999992024031919304+31198+121336FM-15+000399999V0209999V001019999999Y009900599+00701-00301999999ADDMA1102701999999REMMET053METAR ZSSS 191930Z VRB01MPS CAVOK 07/M03 Q1027 NOSIG=
0080583670999992024031920004+31198+121336FM-15+000399999V0202201N001019999999Y009900599+00701-00201999999ADDMA1102701999999REMMET053METAR ZSSS 192000Z 22001MPS CAVOK 07/M02 Q1027 NOSIG=
0080583670999992024031921004+31198+121336FM-15+000399999V0209999V001019999999Y009900599+00501-00101999999ADDMA1102701999999REMMET053METAR ZSSS 192100Z VRB01MPS CAVOK 05/M01 Q1027 NOSIG=
0080583670999992024031921304+31198+121336FM-15+000399999V0202501N002019999999Y009900599+00701-00101999999ADDMA1102701999999REMMET053METAR ZSSS 192130Z 25002MPS CAVOK 07/M01 Q1027 NOSIG=
0080583670999992024031922004+31198+121336FM-15+000399999V0202401N002019999999Y009900599+00601+00001999999ADDMA1102701999999REMMET053METAR ZSSS 192200Z 24002MPS CAVOK 06/M00 Q1027 NOSIG=
0088583670999992024031922304+31198+121336FM-15+000399999V0202401V002019999999Y009900599+00701+00001999999ADDMA1102801999999REMMET061METAR ZSSS 192230Z 24002MPS 210V290 CAVOK 07/M00 Q1028 NOSIG=
0087583670999992024031923004+31198+121336FM-15+000399999V0202501V002019999999Y009900599+00801+00001999999ADDMA1102801999999REMMET060METAR ZSSS 192300Z 25002MPS 210V280 CAVOK 08/00 Q1028 NOSIG=
0087583670999992024031923304+31198+121336FM-15+000399999V0202301V003019999999Y009900599+00901+00101999999ADDMA1102801999999REMMET060METAR ZSSS 192330Z 23003MPS 190V280 CAVOK 09/01 Q1028 NOSIG=
0079583670999992024032000004+31198+121336FM-15+000399999V0209999V002019999999Y009900599+01101+00101999999ADDMA1102801999999REMMET052METAR ZSSS 200000Z VRB02MPS CAVOK 11/01 Q1028 NOSIG=
0087583670999992024032000304+31198+121336FM-15+000399999V0202501V002019999999Y009900599+01201+00101999999ADDMA1102801999999REMMET060METAR ZSSS 200030Z 25002MPS 200V340 CAVOK 12/01 Q1028 NOSIG=
0087583670999992024032001004+31198+121336FM-15+000399999V0202601V003019999999Y009900599+01301+00101999999ADDMA1102801999999REMMET060METAR ZSSS 200100Z 26003MPS 240V320 CAVOK 13/01 Q1028 NOSIG=
0087583670999992024032001304+31198+121336FM-15+000399999V0202801V003019999999Y009900599+01501+00201999999ADDMA1102801999999REMMET060METAR ZSSS 200130Z 28003MPS 240V340 CAVOK 15/02 Q1028 NOSIG=
0087583670999992024032002004+31198+121336FM-15+000399999V0202901V004019999999Y009900599+01601+00101999999ADDMA1102801999999REMMET060METAR ZSSS 200200Z 29004MPS 240V330 CAVOK 16/01 Q1028 NOSIG=
0087583670999992024032002304+31198+121336FM-15+000399999V0203401V006019999999Y009900599+01701+00001999999ADDMA1102801999999REMMET060METAR ZSSS 200230Z 34006MPS 290V010 CAVOK 17/00 Q1028 NOSIG=
0088583670999992024032003004+31198+121336FM-15+000399999V0203401V006019999999Y009900599+01801+00001999999ADDMA1102801999999REMMET061METAR ZSSS 200300Z 34006MPS 310V010 CAVOK 18/M00 Q1028 NOSIG=
0088583670999992024032003304+31198+121336FM-15+000399999V0203601V006019999999Y009900599+01801+00001999999ADDMA1102701999999REMMET061METAR ZSSS 200330Z 36006MPS 330V030 CAVOK 18/M00 Q1027 NOSIG=
0088583670999992024032004004+31198+121336FM-15+000399999V0203401V007019999999Y009900599+01801-00101999999ADDMA1102701999999REMMET061METAR ZSSS 200400Z 34007MPS 320V020 CAVOK 18/M01 Q1027 NOSIG=
0099583670999992024032004304+31198+121336FM-15+000399999V0203401V006019999999Y009900599+01901-00101999999ADDMA1102701999999OC101101REMMET064METAR ZSSS 200430Z 34006G11MPS 310V030 CAVOK 19/M01 Q1027 NOSIG=
0104583670999992024032005004+31198+121336FM-15+000399999V0203401V006019999999Y009900599+01901-00301999999ADDMA1102601999999REMMET077METAR ZSSS 200500Z 34006MPS 310V010 CAVOK 19/M03 Q1026 BECMG TL0640 05005MPS=
0088583670999992024032005304+31198+121336FM-15+000399999V0203301V005019999999Y009900599+01901-00401999999ADDMA1102601999999REMMET061METAR ZSSS 200530Z 33005MPS 290V360 CAVOK 19/M04 Q1026 NOSIG=
0088583670999992024032006004+31198+121336FM-15+000399999V0203401V006019999999Y009900599+01901-00401999999ADDMA1102501999999REMMET061METAR ZSSS 200600Z 34006MPS 310V010 CAVOK 19/M04 Q1025 NOSIG=
0088583670999992024032006304+31198+121336FM-15+000399999V0203501V006019999999Y009900599+01901-00401999999ADDMA1102501999999REMMET061METAR ZSSS 200630Z 35006MPS 330V030 CAVOK 19/M04 Q1025 NOSIG=
0104583670999992024032007004+31198+121336FM-15+000399999V0203301V007019999999Y009900599+01901-00501999999ADDMA1102501999999REMMET077METAR ZSSS 200700Z 33007MPS 300V360 CAVOK 19/M05 Q1025 BECMG TL0830 05006MPS=
0088583670999992024032007304+31198+121336FM-15+000399999V0200101V005019999999Y009900599+01901-00101999999ADDMA1102501999999REMMET061METAR ZSSS 200730Z 01005MPS 310V030 CAVOK 19/M01 Q1025 NOSIG=
0104583670999992024032008004+31198+121336FM-15+000399999V0200201V006019999999Y009900599+01801-00201999999ADDMA1102501999999REMMET077METAR ZSSS 200800Z 02006MPS 350V060 CAVOK 18/M02 Q1025 BECMG TL0930 08005MPS=
0080583670999992024032008304+31198+121336FM-15+000399999V0200201N005019999999Y009900599+01701-00101999999ADDMA1102401999999REMMET053METAR ZSSS 200830Z 02005MPS CAVOK 17/M01 Q1024 NOSIG=
0080583670999992024032009004+31198+121336FM-15+000399999V0200401N005019999999Y009900599+01601-00101999999ADDMA1102401999999REMMET053METAR ZSSS 200900Z 04005MPS CAVOK 16/M01 Q1024 NOSIG=
0088583670999992024032009304+31198+121336FM-15+000399999V0200501V004019999999Y009900599+01501-00101999999ADDMA1102501999999REMMET061METAR ZSSS 200930Z 05004MPS 010V090 CAVOK 15/M01 Q1025 NOSIG=
0080583670999992024032010004+31198+121336FM-15+000399999V0200301N004019999999Y009900599+01401-00101999999ADDMA1102501999999REMMET053METAR ZSSS 201000Z 03004MPS CAVOK 14/M01 Q1025 NOSIG=
0079583670999992024032010304+31198+121336FM-15+000399999V0200401N005019999999Y009900599+01301+00001999999ADDMA1102501999999REMMET052METAR ZSSS 201030Z 04005MPS CAVOK 13/00 Q1025 NOSIG=
0087583670999992024032011004+31198+121336FM-15+000399999V0200701V003019999999Y009900599+01201+00201999999ADDMA1102501999999REMMET060METAR ZSSS 201100Z 07003MPS 040V100 CAVOK 12/02 Q1025 NOSIG=
0079583670999992024032011304+31198+121336FM-15+000399999V0200901N003019999999Y009900599+01201+00301999999ADDMA1102501999999REMMET052METAR ZSSS 201130Z 09003MPS CAVOK 12/03 Q1025 NOSIG=
0079583670999992024032012004+31198+121336FM-15+000399999V0201101N003019999999Y009900599+01101+00301999999ADDMA1102501999999REMMET052METAR ZSSS 201200Z 11003MPS CAVOK 11/03 Q1025 NOSIG=
0079583670999992024032012304+31198+121336FM-15+000399999V0201301N004019999999Y009900599+01001+00301999999ADDMA1102501999999REMMET052METAR ZSSS 201230Z 13004MPS CAVOK 10/03 Q1025 NOSIG=
0079583670999992024032013004+31198+121336FM-15+000399999V0201301N004019999999Y009900599+00901+00301999999ADDMA1102501999999REMMET052METAR ZSSS 201300Z 13004MPS CAVOK 09/03 Q1025 NOSIG=
0087583670999992024032013304+31198+121336FM-15+000399999V0201101V004019999999Y009900599+00901+00301999999ADDMA1102501999999REMMET060METAR ZSSS 201330Z 11004MPS 080V150 CAVOK 09/03 Q1025 NOSIG=
0087583670999992024032014004+31198+121336FM-15+000399999V0201201V003019999999Y009900599+00901+00201999999ADDMA1102501999999REMMET060METAR ZSSS 201400Z 12003MPS 090V160 CAVOK 09/02 Q1025 NOSIG=
0087583670999992024032014304+31198+121336FM-15+000399999V0201201V004019999999Y009900599+00901+00201999999ADDMA1102501999999REMMET060METAR ZSSS 201430Z 12004MPS 090V150 CAVOK 09/02 Q1025 NOSIG=
0087583670999992024032015004+31198+121336FM-15+000399999V0201101V003019999999Y009900599+00901+00201999999ADDMA1102401999999REMMET060METAR ZSSS 201500Z 11003MPS 080V160 CAVOK 09/02 Q1024 NOSIG=
0079583670999992024032015304+31198+121336FM-15+000399999V0201401N004019999999Y009900599+00801+00201999999ADDMA1102401999999REMMET052METAR ZSSS 201530Z 14004MPS CAVOK 08/02 Q1024 NOSIG=
0087583670999992024032016004+31198+121336FM-15+000399999V0201301V003019999999Y009900599+00801+00201999999ADDMA1102401999999REMMET060METAR ZSSS 201600Z 13003MPS 090V170 CAVOK 08/02 Q1024 NOSIG=
0079583670999992024032016304+31198+121336FM-15+000399999V0201401N004019999999Y009900599+00801+00201999999ADDMA1102401999999REMMET052METAR ZSSS 201630Z 14004MPS CAVOK 08/02 Q1024 NOSIG=
0079583670999992024032017004+31198+121336FM-15+000399999V0201401N003019999999Y009900599+00801+00201999999ADDMA1102401999999REMMET052METAR ZSSS 201700Z 14003MPS CAVOK 08/02 Q1024 NOSIG=
0079583670999992024032017304+31198+121336FM-15+000399999V0201401N003019999999Y009900599+00701+00301999999ADDMA1102301999999REMMET052METAR ZSSS 201730Z 14003MPS CAVOK 07/03 Q1023 NOSIG=
0079583670999992024032018004+31198+121336FM-15+000399999V0201401N003019999999Y009900599+00701+00201999999ADDMA1102301999999REMMET052METAR ZSSS 201800Z 14003MPS CAVOK 07/02 Q1023 NOSIG=
0079583670999992024032018304+31198+121336FM-15+000399999V0201201N002019999999Y009900599+00801+00301999999ADDMA1102201999999REMMET052METAR ZSSS 201830Z 12002MPS CAVOK 08/03 Q1022 NOSIG=
0079583670999992024032019004+31198+121336FM-15+000399999V0201301N003019999999Y009900599+00801+00301999999ADDMA1102201999999REMMET052METAR ZSSS 201900Z 13003MPS CAVOK 08/03 Q1022 NOSIG=
0079583670999992024032019304+31198+121336FM-15+000399999V0201301N003019999999Y009900599+00801+00301999999ADDMA1102201999999REMMET052METAR ZSSS 201930Z 13003MPS CAVOK 08/03 Q1022 NOSIG=
0079583670999992024032020004+31198+121336FM-15+000399999V0201301N003019999999Y009900599+00801+00301999999ADDMA1102101999999REMMET052METAR ZSSS 202000Z 13003MPS CAVOK 08/03 Q1021 NOSIG=
0079583670999992024032020304+31198+121336FM-15+000399999V0201301N003019999999Y009900599+00801+00301999999ADDMA1102101999999REMMET052METAR ZSSS 202030Z 13003MPS CAVOK 08/03 Q1021 NOSIG=
0087583670999992024032021004+31198+121336FM-15+000399999V0201401V003019999999Y009900599+00701+00401999999ADDMA1102101999999REMMET060METAR ZSSS 202100Z 14003MPS 100V160 CAVOK 07/04 Q1021 NOSIG=
0079583670999992024032021304+31198+121336FM-15+000399999V0201401N003019999999Y009900599+00701+00401999999ADDMA1102101999999REMMET052METAR ZSSS 202130Z 14003MPS CAVOK 07/04 Q1021 NOSIG=
0079583670999992024032022004+31198+121336FM-15+000399999V0201401N003019999999Y009900599+00701+00401999999ADDMA1102101999999REMMET052METAR ZSSS 202200Z 14003MPS CAVOK 07/04 Q1021 NOSIG=
0079583670999992024032022304+31198+121336FM-15+000399999V0201501N003019999999Y009900599+00801+00501999999ADDMA1102101999999REMMET052METAR ZSSS 202230Z 15003MPS CAVOK 08/05 Q1021 NOSIG=
0079583670999992024032023004+31198+121336FM-15+000399999V0201401N003019999999Y009900599+00901+00501999999ADDMA1102101999999REMMET052METAR ZSSS 202300Z 14003MPS CAVOK 09/05 Q1021 NOSIG=
0079583670999992024032023304+31198+121336FM-15+000399999V0201401N004019999999Y009900599+01001+00501999999ADDMA1102101999999REMMET052METAR ZSSS 202330Z 14004MPS CAVOK 10/05 Q1021 NOSIG=
0079583670999992024032100004+31198+121336FM-15+000399999V0201601N005019999999Y009900599+01101+00501999999ADDMA1102101999999REMMET052METAR ZSSS 210000Z 16005MPS CAVOK 11/05 Q1021 NOSIG=
0079583670999992024032100304+31198+121336FM-15+000399999V0201601N005019999999Y009900599+01201+00501999999ADDMA1102101999999REMMET052METAR ZSSS 210030Z 16005MPS CAVOK 12/05 Q1021 NOSIG=
0079583670999992024032101004+31198+121336FM-15+000399999V0201701N004019999999Y009900599+01301+00501999999ADDMA1102101999999REMMET052METAR ZSSS 210100Z 17004MPS CAVOK 13/05 Q1021 NOSIG=
0079583670999992024032101304+31198+121336FM-15+000399999V0201801N004019999999Y009900599+01501+00501999999ADDMA1102001999999REMMET052METAR ZSSS 210130Z 18004MPS CAVOK 15/05 Q1020 NOSIG=
0087583670999992024032102004+31198+121336FM-15+000399999V0201701V004019999999Y009900599+01601+00501999999ADDMA1102001999999REMMET060METAR ZSSS 210200Z 17004MPS 130V200 CAVOK 16/05 Q1020 NOSIG=
0087583670999992024032102304+31198+121336FM-15+000399999V0201801V004019999999Y009900599+01701+00401999999ADDMA1101901999999REMMET060METAR ZSSS 210230Z 18004MPS 150V210 CAVOK 17/04 Q1019 NOSIG=
0087583670999992024032103004+31198+121336FM-15+000399999V0201701V003019999999Y009900599+01801+00401999999ADDMA1101901999999REMMET060METAR ZSSS 210300Z 17003MPS 140V240 CAVOK 18/04 Q1019 NOSIG=
0087583670999992024032103304+31198+121336FM-15+000399999V0201801V004019999999Y009900599+01901+00301999999ADDMA1101901999999REMMET060METAR ZSSS 210330Z 18004MPS 150V210 CAVOK 19/03 Q1019 NOSIG=
0087583670999992024032104004+31198+121336FM-15+000399999V0201801V004019999999Y009900599+01901+00301999999ADDMA1101801999999REMMET060METAR ZSSS 210400Z 18004MPS 120V230 CAVOK 19/03 Q1018 NOSIG=
0087583670999992024032104304+31198+121336FM-15+000399999V0201601V005019999999Y009900599+02001+00301999999ADDMA1101701999999REMMET060METAR ZSSS 210430Z 16005MPS 130V190 CAVOK 20/03 Q1017 NOSIG=
0087583670999992024032105004+31198+121336FM-15+000399999V0201701V004019999999Y009900599+02001+00201999999ADDMA1101601999999REMMET060METAR ZSSS 210500Z 17004MPS 110V230 CAVOK 20/02 Q1016 NOSIG=
0087583670999992024032105304+31198+121336FM-15+000399999V0201801V005019999999Y009900599+02001+00201999999ADDMA1101601999999REMMET060METAR ZSSS 210530Z 18005MPS 140V220 CAVOK 20/02 Q1016 NOSIG=
0079583670999992024032106004+31198+121336FM-15+000399999V0201801N005019999999Y009900599+02101+00201999999ADDMA1101501999999REMMET052METAR ZSSS 210600Z 18005MPS CAVOK 21/02 Q1015 NOSIG=
0087583670999992024032106304+31198+121336FM-15+000399999V0201801V006019999999Y009900599+02001+00201999999ADDMA1101501999999REMMET060METAR ZSSS 210630Z 18006MPS 150V210 CAVOK 20/02 Q1015 NOSIG=
0079583670999992024032107004+31198+121336FM-15+000399999V0201701N006019999999Y009900599+02001+00001999999ADDMA1101401999999REMMET052METAR ZSSS 210700Z 17006MPS CAVOK 20/00 Q1014 NOSIG=
0087583670999992024032107304+31198+121336FM-15+000399999V0201601V005019999999Y009900599+02001+00101999999ADDMA1101401999999REMMET060METAR ZSSS 210730Z 16005MPS 110V190 CAVOK 20/01 Q1014 NOSIG=
0079583670999992024032108004+31198+121336FM-15+000399999V0201501N006019999999Y009900599+02001+00101999999ADDMA1101401999999REMMET052METAR ZSSS 210800Z 15006MPS CAVOK 20/01 Q1014 NOSIG=
0079583670999992024032108304+31198+121336FM-15+000399999V0201501N006019999999Y009900599+01901+00001999999ADDMA1101301999999REMMET052METAR ZSSS 210830Z 15006MPS CAVOK 19/00 Q1013 NOSIG=
0079583670999992024032109004+31198+121336FM-15+000399999V0201501N007019999999Y009900599+01901+00101999999ADDMA1101301999999REMMET052METAR ZSSS 210900Z 15007MPS CAVOK 19/01 Q1013 NOSIG=
0079583670999992024032109304+31198+121336FM-15+000399999V0201601N007019999999Y009900599+01801+00301999999ADDMA1101301999999REMMET052METAR ZSSS 210930Z 16007MPS CAVOK 18/03 Q1013 NOSIG=
0079583670999992024032110004+31198+121336FM-15+000399999V0201501N005019999999Y009900599+01701+00101999999ADDMA1101301999999REMMET052METAR ZSSS 211000Z 15005MPS CAVOK 17/01 Q1013 NOSIG=
0079583670999992024032110304+31198+121336FM-15+000399999V0201501N005019999999Y009900599+01701+00201999999ADDMA1101301999999REMMET052METAR ZSSS 211030Z 15005MPS CAVOK 17/02 Q1013 NOSIG=
0079583670999992024032111004+31198+121336FM-15+000399999V0201401N006019999999Y009900599+01601+00301999999ADDMA1101301999999REMMET052METAR ZSSS 211100Z 14006MPS CAVOK 16/03 Q1013 NOSIG=
0079583670999992024032111304+31198+121336FM-15+000399999V0201501N006019999999Y009900599+01501+00301999999ADDMA1101301999999REMMET052METAR ZSSS 211130Z 15006MPS CAVOK 15/03 Q1013 NOSIG=
0079583670999992024032112004+31198+121336FM-15+000399999V0201601N006019999999Y009900599+01401+00301999999ADDMA1101301999999REMMET052METAR ZSSS 211200Z 16006MPS CAVOK 14/03 Q1013 NOSIG=
0079583670999992024032112304+31198+121336FM-15+000399999V0201501N006019999999Y009900599+01401+00401999999ADDMA1101301999999REMMET052METAR ZSSS 211230Z 15006MPS CAVOK 14/04 Q1013 NOSIG=
0079583670999992024032113004+31198+121336FM-15+000399999V0201601N006019999999Y009900599+01301+00401999999ADDMA1101301999999REMMET052METAR ZSSS 211300Z 16006MPS CAVOK 13/04 Q1013 NOSIG=
0079583670999992024032113304+31198+121336FM-15+000399999V0201601N006019999999Y009900599+01301+00401999999ADDMA1101301999999REMMET052METAR ZSSS 211330Z 16006MPS CAVOK 13/04 Q1013 NOSIG=
0079583670999992024032114004+31198+121336FM-15+000399999V0201601N006019999999Y009900599+01301+00501999999ADDMA1101301999999REMMET052METAR ZSSS 211400Z 16006MPS CAVOK 13/05 Q1013 NOSIG=
0079583670999992024032114304+31198+121336FM-15+000399999V0201601N005019999999Y009900599+01301+00501999999ADDMA1101301999999REMMET052METAR ZSSS 211430Z 16005MPS CAVOK 13/05 Q1013 NOSIG=
0079583670999992024032115004+31198+121336FM-15+000399999V0201601N005019999999Y009900599+01301+00501999999ADDMA1101301999999REMMET052METAR ZSSS 211500Z 16005MPS CAVOK 13/05 Q1013 NOSIG=
0079583670999992024032115304+31198+121336FM-15+000399999V0201601N006019999999Y009900599+01301+00501999999ADDMA1101301999999REMMET052METAR ZSSS 211530Z 16006MPS CAVOK 13/05 Q1013 NOSIG=
0079583670999992024032116004+31198+121336FM-15+000399999V0201701N006019999999Y009900599+01301+00501999999ADDMA1101301999999REMMET052METAR ZSSS 211600Z 17006MPS CAVOK 13/05 Q1013 NOSIG=
0079583670999992024032116304+31198+121336FM-15+000399999V0201701N007019999999Y009900599+01401+00501999999ADDMA1101201999999REMMET052METAR ZSSS 211630Z 17007MPS CAVOK 14/05 Q1012 NOSIG=
0079583670999992024032117004+31198+121336FM-15+000399999V0201701N006019999999Y009900599+01401+00501999999ADDMA1101201999999REMMET052METAR ZSSS 211700Z 17006MPS CAVOK 14/05 Q1012 NOSIG=
0079583670999992024032117304+31198+121336FM-15+000399999V0201601N005019999999Y009900599+01301+00501999999ADDMA1101201999999REMMET052METAR ZSSS 211730Z 16005MPS CAVOK 13/05 Q1012 NOSIG=
0079583670999992024032118004+31198+121336FM-15+000399999V0201601N005019999999Y009900599+01301+00601999999ADDMA1101201999999REMMET052METAR ZSSS 211800Z 16005MPS CAVOK 13/06 Q1012 NOSIG=
0079583670999992024032118304+31198+121336FM-15+000399999V0201701N006019999999Y009900599+01301+00601999999ADDMA1101201999999REMMET052METAR ZSSS 211830Z 17006MPS CAVOK 13/06 Q1012 NOSIG=
0079583670999992024032119004+31198+121336FM-15+000399999V0201601N006019999999Y009900599+01301+00601999999ADDMA1101101999999REMMET052METAR ZSSS 211900Z 16006MPS CAVOK 13/06 Q1011 NOSIG=
0079583670999992024032119304+31198+121336FM-15+000399999V0201701N005019999999Y009900599+01301+00601999999ADDMA1101101999999REMMET052METAR ZSSS 211930Z 17005MPS CAVOK 13/06 Q1011 NOSIG=
0079583670999992024032120004+31198+121336FM-15+000399999V0201701N006019999999Y009900599+01301+00701999999ADDMA1101101999999REMMET052METAR ZSSS 212000Z 17006MPS CAVOK 13/07 Q1011 NOSIG=
0079583670999992024032120304+31198+121336FM-15+000399999V0201701N006019999999Y009900599+01301+00701999999ADDMA1101101999999REMMET052METAR ZSSS 212030Z 17006MPS CAVOK 13/07 Q1011 NOSIG=
0079583670999992024032121004+31198+121336FM-15+000399999V0201601N006019999999Y009900599+01401+00701999999ADDMA1101101999999REMMET052METAR ZSSS 212100Z 16006MPS CAVOK 14/07 Q1011 NOSIG=
0079583670999992024032121304+31198+121336FM-15+000399999V0201601N005019999999Y009900599+01301+00701999999ADDMA1101101999999REMMET052METAR ZSSS 212130Z 16005MPS CAVOK 13/07 Q1011 NOSIG=
0079583670999992024032122004+31198+121336FM-15+000399999V0201601N005019999999Y009900599+01401+00801999999ADDMA1101101999999REMMET052METAR ZSSS 212200Z 16005MPS CAVOK 14/08 Q1011 NOSIG=
0079583670999992024032122304+31198+121336FM-15+000399999V0201601N006019999999Y009900599+01401+00801999999ADDMA1101101999999REMMET052METAR ZSSS 212230Z 16006MPS CAVOK 14/08 Q1011 NOSIG=
0079583670999992024032123004+31198+121336FM-15+000399999V0201601N006019999999Y009900599+01401+00801999999ADDMA1101101999999REMMET052METAR ZSSS 212300Z 16006MPS CAVOK 14/08 Q1011 NOSIG=
0079583670999992024032123304+31198+121336FM-15+000399999V0201601N006019999999Y009900599+01501+00801999999ADDMA1101101999999REMMET052METAR ZSSS 212330Z 16006MPS CAVOK 15/08 Q1011 NOSIG=
0079583670999992024032200004+31198+121336FM-15+000399999V0201701N006019999999Y009900599+01601+00901999999ADDMA1101101999999REMMET052METAR ZSSS 220000Z 17006MPS CAVOK 16/09 Q1011 NOSIG=
0079583670999992024032200304+31198+121336FM-15+000399999V0201701N007019999999Y009900599+01701+00901999999ADDMA1101101999999REMMET052METAR ZSSS 220030Z 17007MPS CAVOK 17/09 Q1011 NOSIG=
0079583670999992024032201004+31198+121336FM-15+000399999V0201801N007019999999Y009900599+01801+00901999999ADDMA1101101999999REMMET052METAR ZSSS 220100Z 18007MPS CAVOK 18/09 Q1011 NOSIG=
0079583670999992024032201304+31198+121336FM-15+000399999V0201801N007019999999Y009900599+01901+00901999999ADDMA1101101999999REMMET052METAR ZSSS 220130Z 18007MPS CAVOK 19/09 Q1011 NOSIG=
0079583670999992024032202004+31198+121336FM-15+000399999V0201901N007019999999Y009900599+02001+00901999999ADDMA1101101999999REMMET052METAR ZSSS 220200Z 19007MPS CAVOK 20/09 Q1011 NOSIG=
0079583670999992024032202304+31198+121336FM-15+000399999V0201801N006019999999Y009900599+02101+00901999999ADDMA1101101999999REMMET052METAR ZSSS 220230Z 18006MPS CAVOK 21/09 Q1011 NOSIG=
0079583670999992024032203004+31198+121336FM-15+000399999V0201901N006019999999Y009900599+02101+01001999999ADDMA1101001999999REMMET052METAR ZSSS 220300Z 19006MPS CAVOK 21/10 Q1010 NOSIG=
0087583670999992024032203304+31198+121336FM-15+000399999V0201801V006019999999Y009900599+02201+01001999999ADDMA1101001999999REMMET060METAR ZSSS 220330Z 18006MPS 140V210 CAVOK 22/10 Q1010 NOSIG=
0087583670999992024032204004+31198+121336FM-15+000399999V0201901V006019999999Y009900599+02301+01101999999ADDMA1101001999999REMMET060METAR ZSSS 220400Z 19006MPS 140V210 CAVOK 23/11 Q1010 NOSIG=
0087583670999992024032204304+31198+121336FM-15+000399999V0202001V005019999999Y009900599+02301+01201999999ADDMA1100901999999REMMET060METAR ZSSS 220430Z 20005MPS 170V240 CAVOK 23/12 Q1009 NOSIG=
0087583670999992024032205004+31198+121336FM-15+000399999V0202001V005019999999Y009900599+02401+01101999999ADDMA1100901999999REMMET060METAR ZSSS 220500Z 20005MPS 160V220 CAVOK 24/11 Q1009 NOSIG=
0087583670999992024032205304+31198+121336FM-15+000399999V0201901V006019999999Y009900599+02401+01001999999ADDMA1100801999999REMMET060METAR ZSSS 220530Z 19006MPS 150V230 CAVOK 24/10 Q1008 NOSIG=
0087583670999992024032206004+31198+121336FM-15+000399999V0202001V004019999999Y009900599+02401+01101999999ADDMA1100701999999REMMET060METAR ZSSS 220600Z 20004MPS 150V230 CAVOK 24/11 Q1007 NOSIG=
0079583670999992024032206304+31198+121336FM-15+000399999V0201801N005019999999Y009900599+02501+01101999999ADDMA1100701999999REMMET052METAR ZSSS 220630Z 18005MPS CAVOK 25/11 Q1007 NOSIG=
0087583670999992024032207004+31198+121336FM-15+000399999V0202001V004019999999Y009900599+02501+01101999999ADDMA1100701999999REMMET060METAR ZSSS 220700Z 20004MPS 150V250 CAVOK 25/11 Q1007 NOSIG=
0087583670999992024032207304+31198+121336FM-15+000399999V0201901V004019999999Y009900599+02501+01101999999ADDMA1100701999999REMMET060METAR ZSSS 220730Z 19004MPS 160V240 CAVOK 25/11 Q1007 NOSIG=
0079583670999992024032208004+31198+121336FM-15+000399999V0201901N004019999999Y009900599+02501+01101999999ADDMA1100701999999REMMET052METAR ZSSS 220800Z 19004MPS CAVOK 25/11 Q1007 NOSIG=
0079583670999992024032208304+31198+121336FM-15+000399999V0201501N005019999999Y009900599+02501+01201999999ADDMA1100701999999REMMET052METAR ZSSS 220830Z 15005MPS CAVOK 25/12 Q1007 NOSIG=
0079583670999992024032209004+31198+121336FM-15+000399999V0201701N004019999999Y009900599+02401+01201999999ADDMA1100701999999REMMET052METAR ZSSS 220900Z 17004MPS CAVOK 24/12 Q1007 NOSIG=
0079583670999992024032209304+31198+121336FM-15+000399999V0201501N005019999999Y009900599+02301+01101999999ADDMA1100701999999REMMET052METAR ZSSS 220930Z 15005MPS CAVOK 23/11 Q1007 NOSIG=
0079583670999992024032210004+31198+121336FM-15+000399999V0201601N005019999999Y009900599+02201+01101999999ADDMA1100701999999REMMET052METAR ZSSS 221000Z 16005MPS CAVOK 22/11 Q1007 NOSIG=
0079583670999992024032210304+31198+121336FM-15+000399999V0201601N005019999999Y009900599+02001+01101999999ADDMA1100701999999REMMET052METAR ZSSS 221030Z 16005MPS CAVOK 20/11 Q1007 NOSIG=
0079583670999992024032211004+31198+121336FM-15+000399999V0201701N005019999999Y009900599+02001+01101999999ADDMA1100701999999REMMET052METAR ZSSS 221100Z 17005MPS CAVOK 20/11 Q1007 NOSIG=
0079583670999992024032211304+31198+121336FM-15+000399999V0201701N005019999999Y009900599+01901+01101999999ADDMA1100801999999REMMET052METAR ZSSS 221130Z 17005MPS CAVOK 19/11 Q1008 NOSIG=
0079583670999992024032212004+31198+121336FM-15+000399999V0201701N003019999999Y009900599+01801+01101999999ADDMA1100801999999REMMET052METAR ZSSS 221200Z 17003MPS CAVOK 18/11 Q1008 NOSIG=
0079583670999992024032212304+31198+121336FM-15+000399999V0201501N003019999999Y009900599+01801+01101999999ADDMA1100801999999REMMET052METAR ZSSS 221230Z 15003MPS CAVOK 18/11 Q1008 NOSIG=
0079583670999992024032213004+31198+121336FM-15+000399999V0201501N002019999999Y009900599+01801+01101999999ADDMA1100901999999REMMET052METAR ZSSS 221300Z 15002MPS CAVOK 18/11 Q1009 NOSIG=
0087583670999992024032213304+31198+121336FM-15+000399999V0201501V002019999999Y009900599+01701+01101999999ADDMA1100901999999REMMET060METAR ZSSS 221330Z 15002MPS 120V180 CAVOK 17/11 Q1009 NOSIG=
0079583670999992024032214004+31198+121336FM-15+000399999V0201501N003019999999Y009900599+01801+01101999999ADDMA1100901999999REMMET052METAR ZSSS 221400Z 15003MPS CAVOK 18/11 Q1009 NOSIG=
0079583670999992024032214304+31198+121336FM-15+000399999V0201601N002019999999Y009900599+01701+01101999999ADDMA1100901999999REMMET052METAR ZSSS 221430Z 16002MPS CAVOK 17/11 Q1009 NOSIG=
0087583670999992024032215004+31198+121336FM-15+000399999V0201301V002019999999Y009900599+01701+01101999999ADDMA1100901999999REMMET060METAR ZSSS 221500Z 13002MPS 100V160 CAVOK 17/11 Q1009 NOSIG=
0079583670999992024032215304+31198+121336FM-15+000399999V0201501N003019999999Y009900599+01701+01101999999ADDMA1100901999999REMMET052METAR ZSSS 221530Z 15003MPS CAVOK 17/11 Q1009 NOSIG=
0079583670999992024032216004+31198+121336FM-15+000399999V0201501N003019999999Y009900599+01601+01101999999ADDMA1100901999999REMMET052METAR ZSSS 221600Z 15003MPS CAVOK 16/11 Q1009 NOSIG=
0079583670999992024032216304+31198+121336FM-15+000399999V0201501N002019999999Y009900599+01601+01101999999ADDMA1100901999999REMMET052METAR ZSSS 221630Z 15002MPS CAVOK 16/11 Q1009 NOSIG=
0079583670999992024032217004+31198+121336FM-15+000399999V0201601N002019999999Y009900599+01601+01101999999ADDMA1100901999999REMMET052METAR ZSSS 221700Z 16002MPS CAVOK 16/11 Q1009 NOSIG=
0079583670999992024032217304+31198+121336FM-15+000399999V0201501N002019999999Y009900599+01601+01101999999ADDMA1100901999999REMMET052METAR ZSSS 221730Z 15002MPS CAVOK 16/11 Q1009 NOSIG=
0079583670999992024032218004+31198+121336FM-15+000399999V0201601N002019999999Y009900599+01501+01101999999ADDMA1100901999999REMMET052METAR ZSSS 221800Z 16002MPS CAVOK 15/11 Q1009 NOSIG=
0079583670999992024032218304+31198+121336FM-15+000399999V0201401N002019999999Y009900599+01501+01101999999ADDMA1100901999999REMMET052METAR ZSSS 221830Z 14002MPS CAVOK 15/11 Q1009 NOSIG=
0079583670999992024032219004+31198+121336FM-15+000399999V0201701N002019999999Y009900599+01501+01101999999ADDMA1100901999999REMMET052METAR ZSSS 221900Z 17002MPS CAVOK 15/11 Q1009 NOSIG=
0079583670999992024032219304+31198+121336FM-15+000399999V0201501N002019999999Y009900599+01501+01101999999ADDMA1100801999999REMMET052METAR ZSSS 221930Z 15002MPS CAVOK 15/11 Q1008 NOSIG=
0079583670999992024032220004+31198+121336FM-15+000399999V0201701N002019999999Y009900599+01501+01101999999ADDMA1100901999999REMMET052METAR ZSSS 222000Z 17002MPS CAVOK 15/11 Q1009 NOSIG=
0079583670999992024032220304+31198+121336FM-15+000399999V0209999V001019999999Y009900599+01501+01101999999ADDMA1100901999999REMMET052METAR ZSSS 222030Z VRB01MPS CAVOK 15/11 Q1009 NOSIG=
0079583670999992024032221004+31198+121336FM-15+000399999V0201601N001019999999Y009900599+01501+01101999999ADDMA1100901999999REMMET052METAR ZSSS 222100Z 16001MPS CAVOK 15/11 Q1009 NOSIG=
0079583670999992024032221304+31198+121336FM-15+000399999V0201601N001019999999Y009900599+01501+01101999999ADDMA1101001999999REMMET052METAR ZSSS 222130Z 16001MPS CAVOK 15/11 Q1010 NOSIG=
0079583670999992024032222004+31198+121336FM-15+000399999V0201501N001019999999Y009900599+01601+01101999999ADDMA1101001999999REMMET052METAR ZSSS 222200Z 15001MPS CAVOK 16/11 Q1010 NOSIG=
0079583670999992024032222304+31198+121336FM-15+000399999V0201701N001019999999Y009900599+01601+01201999999ADDMA1101001999999REMMET052METAR ZSSS 222230Z 17001MPS CAVOK 16/12 Q1010 NOSIG=
0079583670999992024032223004+31198+121336FM-15+000399999V0201701N002019999999Y009900599+01601+01201999999ADDMA1101101999999REMMET052METAR ZSSS 222300Z 17002MPS CAVOK 16/12 Q1011 NOSIG=
0079583670999992024032223304+31198+121336FM-15+000399999V0209999V001019999999Y009900599+01701+01201999999ADDMA1101101999999REMMET052METAR ZSSS 222330Z VRB01MPS CAVOK 17/12 Q1011 NOSIG=
0087583670999992024032300004+31198+121336FM-15+000399999V0201401V002019999999Y009900599+01801+01201999999ADDMA1101101999999REMMET060METAR ZSSS 230000Z 14002MPS 110V170 CAVOK 18/12 Q1011 NOSIG=
0079583670999992024032300304+31198+121336FM-15+000399999V0201601N002019999999Y009900599+01901+01201999999ADDMA1101201999999REMMET052METAR ZSSS 230030Z 16002MPS CAVOK 19/12 Q1012 NOSIG=
0087583670999992024032301004+31198+121336FM-15+000399999V0201301V002019999999Y009900599+02001+01201999999ADDMA1101201999999REMMET060METAR ZSSS 230100Z 13002MPS 100V160 CAVOK 20/12 Q1012 NOSIG=
0087583670999992024032301304+31198+121336FM-15+000399999V0201601V003019999999Y009900599+02101+01301999999ADDMA1101201999999REMMET060METAR ZSSS 230130Z 16003MPS 130V190 CAVOK 21/13 Q1012 NOSIG=
0087583670999992024032302004+31198+121336FM-15+000399999V0201701V003019999999Y009900599+02301+01301999999ADDMA1101201999999REMMET060METAR ZSSS 230200Z 17003MPS 110V210 CAVOK 23/13 Q1012 NOSIG=
0087583670999992024032302304+31198+121336FM-15+000399999V0201601V003019999999Y009900599+02401+01301999999ADDMA1101101999999REMMET060METAR ZSSS 230230Z 16003MPS 130V190 CAVOK 24/13 Q1011 NOSIG=
0087583670999992024032303004+31198+121336FM-15+000399999V0201401V003019999999Y009900599+02301+01301999999ADDMA1101101999999REMMET060METAR ZSSS 230300Z 14003MPS 100V170 CAVOK 23/13 Q1011 NOSIG=
0087583670999992024032303304+31198+121336FM-15+000399999V0201201V003019999999Y009900599+02401+01301999999ADDMA1101101999999REMMET060METAR ZSSS 230330Z 12003MPS 080V170 CAVOK 24/13 Q1011 NOSIG=
0087583670999992024032304004+31198+121336FM-15+000399999V0201601V003019999999Y009900599+02401+01401999999ADDMA1101101999999REMMET060METAR ZSSS 230400Z 16003MPS 130V190 CAVOK 24/14 Q1011 NOSIG=
0079583670999992024032304304+31198+121336FM-15+000399999V0201501N003019999999Y009900599+02501+01401999999ADDMA1101101999999REMMET052METAR ZSSS 230430Z 15003MPS CAVOK 25/14 Q1011 NOSIG=
0087583670999992024032305004+31198+121336FM-15+000399999V0201701V002019999999Y009900599+02501+01401999999ADDMA1101001999999REMMET060METAR ZSSS 230500Z 17002MPS 130V230 CAVOK 25/14 Q1010 NOSIG=
0087583670999992024032305304+31198+121336FM-15+000399999V0201501V002019999999Y009900599+02401+01401999999ADDMA1101001999999REMMET060METAR ZSSS 230530Z 15002MPS 110V210 CAVOK 24/14 Q1010 NOSIG=
0079583670999992024032306004+31198+121336FM-15+000399999V0201401N004019999999Y009900599+02401+01401999999ADDMA1101001999999REMMET052METAR ZSSS 230600Z 14004MPS CAVOK 24/14 Q1010 NOSIG=
0079583670999992024032306304+31198+121336FM-15+000399999V0201401N004019999999Y009900599+02401+01401999999ADDMA1100901999999REMMET052METAR ZSSS 230630Z 14004MPS CAVOK 24/14 Q1009 NOSIG=
0079583670999992024032307004+31198+121336FM-15+000399999V0201401N004019999999Y009900599+02301+01401999999ADDMA1100901999999REMMET052METAR ZSSS 230700Z 14004MPS CAVOK 23/14 Q1009 NOSIG=
0087583670999992024032307304+31198+121336FM-15+000399999V0201101V003019999999Y009900599+02301+01401999999ADDMA1100801999999REMMET060METAR ZSSS 230730Z 11003MPS 090V150 CAVOK 23/14 Q1008 NOSIG=
0087583670999992024032308004+31198+121336FM-15+000399999V0201301V003019999999Y009900599+02301+01401999999ADDMA1100801999999REMMET060METAR ZSSS 230800Z 13003MPS 100V160 CAVOK 23/14 Q1008 NOSIG=
0087583670999992024032308304+31198+121336FM-15+000399999V0201101V004019999999Y009900599+02301+01401999999ADDMA1100801999999REMMET060METAR ZSSS 230830Z 11004MPS 080V150 CAVOK 23/14 Q1008 NOSIG=
0087583670999992024032309004+31198+121336FM-15+000399999V0201201V003019999999Y009900599+02301+01401999999ADDMA1100801999999REMMET060METAR ZSSS 230900Z 12003MPS 090V160 CAVOK 23/14 Q1008 NOSIG=
0079583670999992024032309304+31198+121336FM-15+000399999V0201201N003019999999Y009900599+02301+01401999999ADDMA1100801999999REMMET052METAR ZSSS 230930Z 12003MPS CAVOK 23/14 Q1008 NOSIG=
0079583670999992024032310004+31198+121336FM-15+000399999V0201101N003019999999Y009900599+02201+01301999999ADDMA1100901999999REMMET052METAR ZSSS 231000Z 11003MPS CAVOK 22/13 Q1009 NOSIG=
0087583670999992024032310304+31198+121336FM-15+000399999V0201201V003019999999Y009900599+02201+01301999999ADDMA1100901999999REMMET060METAR ZSSS 231030Z 12003MPS 080V160 CAVOK 22/13 Q1009 NOSIG=
0079583670999992024032311004+31198+121336FM-15+000399999V0201101N003019999999Y009900599+02101+01201999999ADDMA1100901999999REMMET052METAR ZSSS 231100Z 11003MPS CAVOK 21/12 Q1009 NOSIG=
0087583670999992024032311304+31198+121336FM-15+000399999V0201201V003019999999Y009900599+02001+01201999999ADDMA1100901999999REMMET060METAR ZSSS 231130Z 12003MPS 090V160 CAVOK 20/12 Q1009 NOSIG=
0128583670999992024032312004+31198+121336FM-15+000399999V0201301V002012200019N009999199+01901+01201999999ADDGF100991999999999999999999MA1101001999999MW1801REMMET069METAR ZSSS 231200Z 13002MPS 090V160 9999 -SHRA NSC 19/12 Q1010 NOSIG=
0087583670999992024032312304+31198+121336FM-15+000399999V0201001V002019999999Y009900599+01901+01201999999ADDMA1100901999999REMMET060METAR ZSSS 231230Z 10002MPS 070V150 CAVOK 19/12 Q1009 NOSIG=
0159583670999992024032313004+31198+121336FM-15+000399999V0201201V002019999999N009999199+01901+01301999999ADDGA1021+009141091GE19AGL   +99999+99999GF199999021999009141999999MA1100901999999REMMET068METAR ZSSS 231300Z 12002MPS 060V170 9999 FEW030CB 19/13 Q1009 NOSIG=
0151583670999992024032313304+31198+121336FM-15+000399999V0209999V001019999999N009999199+01901+01301999999ADDGA1021+009141091GE19AGL   +99999+99999GF199999021999009141999999MA1101001999999REMMET060METAR ZSSS 231330Z VRB01MPS 9999 FEW030CB 19/13 Q1010 NOSIG=
0184583670999992024032314004+31198+121336FM-15+000399999V0201201V002019999999N009999199+01901+01401999999ADDGA1021+009141091GE19AGL   +99999+99999GF199999021999009141999999MA1101001999999MW1951REMMET087METAR ZSSS 231400Z 12002MPS 030V160 9999 -TSRA FEW030CB 19/14 Q1010 BECMG TL1540 -SHRA=
0178583670999992024032314304+31198+121336FM-15+000399999V0201601V003019999999N008000199+01701+01601999999ADDGA1021+009141091GE19AGL   +99999+99999GF199999021999009141999999MA1101001999999MW1951REMMET081METAR ZSSS 231430Z 16003MPS 110V230 8000 -TSRA FEW030CB 17/16 Q1010 RESHRA NOSIG=
0156583670999992024032315004+31198+121336FM-15+000399999V0209999V001019999999N009999199+01801+01501999999ADDGA1021+009141091GE19AGL   +99999+99999GF199999021999009141999999MA1101001999999REMMET065METAR ZSSS 231500Z VRB01MPS 9999 FEW030CB 18/15 Q1010 RETS NOSIG=
0087583670999992024032315304+31198+121336FM-15+000399999V0201201V002019999999Y009900599+01701+01501999999ADDMA1101001999999REMMET060METAR ZSSS 231530Z 12002MPS 080V160 CAVOK 17/15 Q1010 NOSIG=
0079583670999992024032316004+31198+121336FM-15+000399999V0201401N002019999999Y009900599+01701+01501999999ADDMA1101001999999REMMET052METAR ZSSS 231600Z 14002MPS CAVOK 17/15 Q1010 NOSIG=
0108583670999992024032316304+31198+121336FM-15+000399999V0209999V001012200019N008000199+01701+01501999999ADDGF100991999999999999999999MA1101001999999REMMET055METAR ZSSS 231630Z VRB01MPS 8000 NSC 17/15 Q1010 NOSIG=
0108583670999992024032317004+31198+121336FM-15+000399999V0201701N001012200019N008000199+01601+01501999999ADDGF100991999999999999999999MA1101001999999REMMET055METAR ZSSS 231700Z 17001MPS 8000 NSC 16/15 Q1010 NOSIG=
0108583670999992024032317304+31198+121336FM-15+000399999V0209999V001012200019N007000199+01601+01501999999ADDGF100991999999999999999999MA1101001999999REMMET055METAR ZSSS 231730Z VRB01MPS 7000 NSC 16/15 Q1010 NOSIG=
0108583670999992024032318004+31198+121336FM-15+000399999V0209999V001012200019N007000199+01601+01401999999ADDGF100991999999999999999999MA1101001999999REMMET055METAR ZSSS 231800Z VRB01MPS 7000 NSC 16/14 Q1010 NOSIG=
0108583670999992024032318304+31198+121336FM-15+000399999V0200101N003012200019N007000199+01501+01401999999ADDGF100991999999999999999999MA1101001999999REMMET055METAR ZSSS 231830Z 01003MPS 7000 NSC 15/14 Q1010 NOSIG=
0108583670999992024032319004+31198+121336FM-15+000399999V0203501N003012200019N008000199+01501+01301999999ADDGF100991999999999999999999MA1101001999999REMMET055METAR ZSSS 231900Z 35003MPS 8000 NSC 15/13 Q1010 NOSIG=
0108583670999992024032319304+31198+121336FM-15+000399999V0203601N001012200019N008000199+01501+01301999999ADDGF100991999999999999999999MA1101001999999REMMET055METAR ZSSS 231930Z 36001MPS 8000 NSC 15/13 Q1010 NOSIG=
0108583670999992024032320004+31198+121336FM-15+000399999V0203601N001012200019N008000199+01501+01401999999ADDGF100991999999999999999999MA1101001999999REMMET055METAR ZSSS 232000Z 36001MPS 8000 NSC 15/14 Q1010 NOSIG=
0108583670999992024032320304+31198+121336FM-15+000399999V0209999C000012200019N008000199+01501+01401999999ADDGF100991999999999999999999MA1101001999999REMMET055METAR ZSSS 232030Z 00000MPS 8000 NSC 15/14 Q1010 NOSIG=
0108583670999992024032321004+31198+121336FM-15+000399999V0200101N002012200019N008000199+01501+01401999999ADDGF100991999999999999999999MA1101101999999REMMET055METAR ZSSS 232100Z 01002MPS 8000 NSC 15/14 Q1011 NOSIG=
0108583670999992024032321304+31198+121336FM-15+000399999V0203601N004012200019N007000199+01401+01301999999ADDGF100991999999999999999999MA1101101999999REMMET055METAR ZSSS 232130Z 36004MPS 7000 NSC 14/13 Q1011 NOSIG=
0117583670999992024032322004+31198+121336FM-15+000399999V0203601N003012200019N005000199+01401+01301999999ADDGF100991999999999999999999MA1101201999999MW1101REMMET058METAR ZSSS 232200Z 36003MPS 5000 BR NSC 14/13 Q1012 NOSIG=
0117583670999992024032322304+31198+121336FM-15+000399999V0200101N002012200019N004000199+01501+01301999999ADDGF100991999999999999999999MA1101201999999MW1101REMMET058METAR ZSSS 232230Z 01002MPS 4000 BR NSC 15/13 Q1012 NOSIG=
0117583670999992024032323004+31198+121336FM-15+000399999V0203601N003012200019N004500199+01501+01401999999ADDGF100991999999999999999999MA1101201999999MW1101REMMET058METAR ZSSS 232300Z 36003MPS 4500 BR NSC 15/14 Q1012 NOSIG=
0117583670999992024032323304+31198+121336FM-15+000399999V0200101N004012200019N004500199+01601+01401999999ADDGF100991999999999999999999MA1101201999999MW1101REMMET058METAR ZSSS 232330Z 01004MPS 4500 BR NSC 16/14 Q1012 NOSIG=
0117583670999992024032400004+31198+121336FM-15+000399999V0200101N002012200019N005000199+01601+01401999999ADDGF100991999999999999999999MA1101201999999MW1101REMMET058METAR ZSSS 240000Z 01002MPS 5000 BR NSC 16/14 Q1012 NOSIG=
0108583670999992024032400304+31198+121336FM-15+000399999V0203501N003012200019N006000199+01701+01401999999ADDGF100991999999999999999999MA1101301999999REMMET055METAR ZSSS 240030Z 35003MPS 6000 NSC 17/14 Q1013 NOSIG=
0117583670999992024032401004+31198+121336FM-15+000399999V0200101N003012200019N005000199+01701+01501999999ADDGF100991999999999999999999MA1101301999999MW1101REMMET058METAR ZSSS 240100Z 01003MPS 5000 BR NSC 17/15 Q1013 NOSIG=
0135583670999992024032401304+31198+121336FM-15+000399999V0203501V002012200019N003000199+01701+01501999999ADDGF100991999999999999999999MA1101401999999MW1101MW2611REMMET070METAR ZSSS 240130Z 35002MPS 310V040 3000 -RA BR NSC 17/15 Q1014 NOSIG=
0183583670999992024032402004+31198+121336FM-15+000399999V0200401N003019999999N002200199+01601+01501999999ADDGA1041+007011999GE19AGL   +99999+99999GF199999041999007011999999MA1101401999999MW1101MW2631REMMET080METAR ZSSS 240200Z 04003MPS 2200 RA BR SCT023 16/15 Q1014 BECMG TL0250 3000 -RA=
0173583670999992024032402304+31198+121336FM-15+000399999V0203301N002019999999N002700199+01701+01501999999ADDGA1041+007011999GE19AGL   +99999+99999GF199999041999007011999999MA1101401999999MW1101MW2611REMMET070METAR ZSSS 240230Z 33002MPS 2700 -RA BR SCT023 17/15 Q1014 RERA NOSIG=
0117583670999992024032403004+31198+121336FM-15+000399999V0203601N004012200019N003000199+01701+01501999999ADDGF100991999999999999999999MA1101401999999MW1101REMMET058METAR ZSSS 240300Z 36004MPS 3000 BR NSC 17/15 Q1014 NOSIG=
0117583670999992024032403304+31198+121336FM-15+000399999V0203601N004012200019N003500199+01801+01501999999ADDGF100991999999999999999999MA1101301999999MW1101REMMET058METAR ZSSS 240330Z 36004MPS 3500 BR NSC 18/15 Q1013 NOSIG=
0117583670999992024032404004+31198+121336FM-15+000399999V0203601N004012200019N004000199+01801+01601999999ADDGF100991999999999999999999MA1101301999999MW1101REMMET058METAR ZSSS 240400Z 36004MPS 4000 BR NSC 18/16 Q1013 NOSIG=
0166583670999992024032404304+31198+121336FM-15+000399999V0200101V003019999999N003500199+01901+01601999999ADDGA1041+010061999GE19AGL   +99999+99999GF199999041999010061999999MA1101201999999MW1101REMMET069METAR ZSSS 240430Z 01003MPS 340V040 3500 BR SCT033 19/16 Q1012 NOSIG=
0117583670999992024032405004+31198+121336FM-15+000399999V0200201N004012200019N004000199+01901+01601999999ADDGF100991999999999999999999MA1101201999999MW1101REMMET058METAR ZSSS 240500Z 02004MPS 4000 BR NSC 19/16 Q1012 NOSIG=
0125583670999992024032405304+31198+121336FM-15+000399999V0203601V003012200019N005000199+02001+01601999999ADDGF100991999999999999999999MA1101201999999MW1101REMMET066METAR ZSSS 240530Z 36003MPS 320V060 5000 BR NSC 20/16 Q1012 NOSIG=
0125583670999992024032406004+31198+121336FM-15+000399999V0200201V002012200019N005000199+02001+01601999999ADDGF100991999999999999999999MA1101201999999MW1101REMMET066METAR ZSSS 240600Z 02002MPS 320V070 5000 BR NSC 20/16 Q1012 NOSIG=
0116583670999992024032406304+31198+121336FM-15+000399999V0200101V002012200019N006000199+02001+01601999999ADDGF100991999999999999999999MA1101201999999REMMET063METAR ZSSS 240630Z 01002MPS 340V040 6000 NSC 20/16 Q1012 NOSIG=
0108583670999992024032407004+31198+121336FM-15+000399999V0203601N003012200019N006000199+02001+01601999999ADDGF100991999999999999999999MA1101101999999REMMET055METAR ZSSS 240700Z 36003MPS 6000 NSC 20/16 Q1011 NOSIG=
0108583670999992024032407304+31198+121336FM-15+000399999V0200201N004012200019N006000199+02101+01601999999ADDGF100991999999999999999999MA1101101999999REMMET055METAR ZSSS 240730Z 02004MPS 6000 NSC 21/16 Q1011 NOSIG=
0108583670999992024032408004+31198+121336FM-15+000399999V0203601N004012200019N007000199+02101+01601999999ADDGF100991999999999999999999MA1101101999999REMMET055METAR ZSSS 240800Z 36004MPS 7000 NSC 21/16 Q1011 NOSIG=
0108583670999992024032408304+31198+121336FM-15+000399999V0200201N004012200019N007000199+02001+01501999999ADDGF100991999999999999999999MA1101101999999REMMET055METAR ZSSS 240830Z 02004MPS 7000 NSC 20/15 Q1011 NOSIG=
0116583670999992024032409004+31198+121336FM-15+000399999V0200201V003012200019N007000199+02001+01501999999ADDGF100991999999999999999999MA1101101999999REMMET063METAR ZSSS 240900Z 02003MPS 350V050 7000 NSC 20/15 Q1011 NOSIG=
0108583670999992024032409304+31198+121336FM-15+000399999V0200101N005012200019N008000199+01901+01501999999ADDGF100991999999999999999999MA1101101999999REMMET055METAR ZSSS 240930Z 01005MPS 8000 NSC 19/15 Q1011 NOSIG=
0120583670999992024032410004+31198+121336FM-15+000399999V0200101N005012200019N008000199+01901+01501999999ADDGF100991999999999999999999MA1101201999999MW1801REMMET061METAR ZSSS 241000Z 01005MPS 8000 -SHRA NSC 19/15 Q1012 NOSIG=
0116583670999992024032410304+31198+121336FM-15+000399999V0200201V005012200019N008000199+01901+01501999999ADDGF100991999999999999999999MA1101201999999REMMET063METAR ZSSS 241030Z 02005MPS 360V060 8000 NSC 19/15 Q1012 NOSIG=
0108583670999992024032411004+31198+121336FM-15+000399999V0200401N005012200019N008000199+01801+01401999999ADDGF100991999999999999999999MA1101301999999REMMET055METAR ZSSS 241100Z 04005MPS 8000 NSC 18/14 Q1013 NOSIG=
0079583670999992024032411304+31198+121336FM-15+000399999V0200301N004019999999Y009900599+01701+01401999999ADDMA1101301999999REMMET052METAR ZSSS 241130Z 03004MPS CAVOK 17/14 Q1013 NOSIG=
0079583670999992024032412004+31198+121336FM-15+000399999V0200401N005019999999Y009900599+01701+01301999999ADDMA1101301999999REMMET052METAR ZSSS 241200Z 04005MPS CAVOK 17/13 Q1013 NOSIG=
0079583670999992024032412304+31198+121336FM-15+000399999V0200501N003019999999Y009900599+01601+01301999999ADDMA1101301999999REMMET052METAR ZSSS 241230Z 05003MPS CAVOK 16/13 Q1013 NOSIG=
0087583670999992024032413004+31198+121336FM-15+000399999V0200501V002019999999Y009900599+01601+01301999999ADDMA1101301999999REMMET060METAR ZSSS 241300Z 05002MPS 020V090 CAVOK 16/13 Q1013 NOSIG=
0087583670999992024032413304+31198+121336FM-15+000399999V0200601V002019999999Y009900599+01701+01301999999ADDMA1101301999999REMMET060METAR ZSSS 241330Z 06002MPS 030V090 CAVOK 17/13 Q1013 NOSIG=
0079583670999992024032414004+31198+121336FM-15+000399999V0209999V001019999999Y009900599+01701+01301999999ADDMA1101301999999REMMET052METAR ZSSS 241400Z VRB01MPS CAVOK 17/13 Q1013 NOSIG=
0079583670999992024032414304+31198+121336FM-15+000399999V0200201N002019999999Y009900599+01701+01301999999ADDMA1101401999999REMMET052METAR ZSSS 241430Z 02002MPS CAVOK 17/13 Q1014 NOSIG=
0079583670999992024032415004+31198+121336FM-15+000399999V0200601N002019999999Y009900599+01701+01301999999ADDMA1101301999999REMMET052METAR ZSSS 241500Z 06002MPS CAVOK 17/13 Q1013 NOSIG=
0079583670999992024032415304+31198+121336FM-15+000399999V0209999V001019999999Y009900599+01601+01301999999ADDMA1101201999999REMMET052METAR ZSSS 241530Z VRB01MPS CAVOK 16/13 Q1012 NOSIG=
0079583670999992024032416004+31198+121336FM-15+000399999V0209999V001019999999Y009900599+01701+01301999999ADDMA1101201999999REMMET052METAR ZSSS 241600Z VRB01MPS CAVOK 17/13 Q1012 NOSIG=
0079583670999992024032416304+31198+121336FM-15+000399999V0201401N002019999999Y009900599+01601+01301999999ADDMA1101201999999REMMET052METAR ZSSS 241630Z 14002MPS CAVOK 16/13 Q1012 NOSIG=
0087583670999992024032417004+31198+121336FM-15+000399999V0200901V002019999999Y009900599+01601+01301999999ADDMA1101101999999REMMET060METAR ZSSS 241700Z 09002MPS 030V130 CAVOK 16/13 Q1011 NOSIG=
0079583670999992024032417304+31198+121336FM-15+000399999V0201101N002019999999Y009900599+01601+01301999999ADDMA1101101999999REMMET052METAR ZSSS 241730Z 11002MPS CAVOK 16/13 Q1011 NOSIG=
0079583670999992024032418004+31198+121336FM-15+000399999V0201201N002019999999Y009900599+01601+01301999999ADDMA1101001999999REMMET052METAR ZSSS 241800Z 12002MPS CAVOK 16/13 Q1010 NOSIG=
0079583670999992024032418304+31198+121336FM-15+000399999V0201401N003019999999Y009900599+01501+01301999999ADDMA1101001999999REMMET052METAR ZSSS 241830Z 14003MPS CAVOK 15/13 Q1010 NOSIG=
0087583670999992024032419004+31198+121336FM-15+000399999V0200801V002019999999Y009900599+01501+01201999999ADDMA1101001999999REMMET060METAR ZSSS 241900Z 08002MPS 050V110 CAVOK 15/12 Q1010 NOSIG=
0079583670999992024032419304+31198+121336FM-15+000399999V0201201N002019999999Y009900599+01501+01301999999ADDMA1100901999999REMMET052METAR ZSSS 241930Z 12002MPS CAVOK 15/13 Q1009 NOSIG=
0079583670999992024032420004+31198+121336FM-15+000399999V0201501N004019999999Y009900599+01401+01201999999ADDMA1101001999999REMMET052METAR ZSSS 242000Z 15004MPS CAVOK 14/12 Q1010 NOSIG=
0079583670999992024032420304+31198+121336FM-15+000399999V0201401N002019999999Y009900599+01401+01301999999ADDMA1100901999999REMMET052METAR ZSSS 242030Z 14002MPS CAVOK 14/13 Q1009 NOSIG=
0079583670999992024032421004+31198+121336FM-15+000399999V0201501N003019999999Y009900599+01501+01201999999ADDMA1100901999999REMMET052METAR ZSSS 242100Z 15003MPS CAVOK 15/12 Q1009 NOSIG=
0079583670999992024032421304+31198+121336FM-15+000399999V0201401N004019999999Y009900599+01401+01201999999ADDMA1100901999999REMMET052METAR ZSSS 242130Z 14004MPS CAVOK 14/12 Q1009 NOSIG=
0108583670999992024032422004+31198+121336FM-15+000399999V0201501N003012200019N007000199+01401+01201999999ADDGF100991999999999999999999MA1100901999999REMMET055METAR ZSSS 242200Z 15003MPS 7000 NSC 14/12 Q1009 NOSIG=
0108583670999992024032422304+31198+121336FM-15+000399999V0201601N003012200019N007000199+01401+01201999999ADDGF100991999999999999999999MA1100901999999REMMET055METAR ZSSS 242230Z 16003MPS 7000 NSC 14/12 Q1009 NOSIG=
0108583670999992024032423004+31198+121336FM-15+000399999V0201501N003012200019N006000199+01501+01301999999ADDGF100991999999999999999999MA1100901999999REMMET055METAR ZSSS 242300Z 15003MPS 6000 NSC 15/13 Q1009 NOSIG=
0116583670999992024032423304+31198+121336FM-15+000399999V0202101V002012200019N006000199+01501+01301999999ADDGF100991999999999999999999MA1101001999999REMMET063METAR ZSSS 242330Z 21002MPS 150V270 6000 NSC 15/13 Q1010 NOSIG=
0171583670999992024032500004+31198+121336FM-15+000399999V0202201V002019999999N006000199+01601+01301999999ADDGA1021+003051999GE19AGL   +99999+99999GF199999021999003051999999MA1101001999999REMMET080METAR ZSSS 250000Z 22002MPS 140V260 6000 FEW010 16/13 Q1010 BECMG TL0050 BKN010=
0157583670999992024032500304+31198+121336FM-15+000399999V0203001V005019999999N006000199+01701+01401999999ADDGA1041+003661999GE19AGL   +99999+99999GF199999041999003661999999MA1101101999999REMMET066METAR ZSSS 250030Z 30005MPS 240V320 6000 SCT012 17/14 Q1011 NOSIG=
0157583670999992024032501004+31198+121336FM-15+000399999V0203001V00401003661CN006000199+01701+01401999999ADDGA1071+003661999GE19AGL   +99999+99999GF199999071999003661999999MA1101101999999REMMET066METAR ZSSS 250100Z 30004MPS 270V350 6000 BKN012 17/14 Q1011 NOSIG=
0166583670999992024032501304+31198+121336FM-15+000399999V0202801V00201003661CN005000199+01701+01401999999ADDGA1071+003661999GE19AGL   +99999+99999GF199999071999003661999999MA1101001999999MW1101REMMET069METAR ZSSS 250130Z 28002MPS 230V040 5000 BR BKN012 17/14 Q1010 NOSIG=
0172583670999992024032502004+31198+121336FM-15+000399999V0209999V00101003661CN005000199+01801+01501999999ADDGA1071+003661999GE19AGL   +99999+99999GF199999071999003661999999MA1101001999999MW1101REMMET075METAR ZSSS 250200Z VRB01MPS 5000 BR BKN012 18/15 Q1010 BECMG TL0230 SCT012=
0166583670999992024032502304+31198+121336FM-15+000399999V0202901V00501004571CN005000199+02001+01501999999ADDGA1071+004571999GE19AGL   +99999+99999GF199999071999004571999999MA1101001999999MW1101REMMET069METAR ZSSS 250230Z 29005MPS 270V340 5000 BR BKN015 20/15 Q1010 NOSIG=
0166583670999992024032503004+31198+121336FM-15+000399999V0203101V005019999999N005000199+02201+01601999999ADDGA1041+006101999GE19AGL   +99999+99999GF199999041999006101999999MA1101001999999MW1101REMMET069METAR ZSSS 250300Z 31005MPS 280V340 5000 BR SCT020 22/16 Q1010 NOSIG=
0157583670999992024032503304+31198+121336FM-15+000399999V0203101V006019999999N006000199+02201+01601999999ADDGA1041+006101999GE19AGL   +99999+99999GF199999041999006101999999MA1101001999999REMMET066METAR ZSSS 250330Z 31006MPS 280V340 6000 SCT020 22/16 Q1010 NOSIG=
0149583670999992024032504004+31198+121336FM-15+000399999V0203101N007019999999N006000199+02201+01601999999ADDGA1041+006101999GE19AGL   +99999+99999GF199999041999006101999999MA1101101999999REMMET058METAR ZSSS 250400Z 31007MPS 6000 SCT020 22/16 Q1011 NOSIG=
0157583670999992024032504304+31198+121336FM-15+000399999V0203201V006019999999N006000199+02101+01501999999ADDGA1041+006101999GE19AGL   +99999+99999GF199999041999006101999999MA1101001999999REMMET066METAR ZSSS 250430Z 32006MPS 290V360 6000 SCT020 21/15 Q1010 NOSIG=
0157583670999992024032505004+31198+121336FM-15+000399999V0203201V005019999999N006000199+02101+01501999999ADDGA1041+006101999GE19AGL   +99999+99999GF199999041999006101999999MA1101001999999REMMET066METAR ZSSS 250500Z 32005MPS 290V360 6000 SCT020 21/15 Q1010 NOSIG=
0149583670999992024032505304+31198+121336FM-15+000399999V0203301N008019999999N007000199+02101+01401999999ADDGA1041+006101999GE19AGL   +99999+99999GF199999041999006101999999MA1101001999999REMMET058METAR ZSSS 250530Z 33008MPS 7000 SCT020 21/14 Q1010 NOSIG=
0157583670999992024032506004+31198+121336FM-15+000399999V0203201V006019999999N007000199+02001+01401999999ADDGA1041+006101999GE19AGL   +99999+99999GF199999041999006101999999MA1101001999999REMMET066METAR ZSSS 250600Z 32006MPS 290V350 7000 SCT020 20/14 Q1010 NOSIG=
0157583670999992024032506304+31198+121336FM-15+000399999V0203201V006019999999N007000199+02001+01301999999ADDGA1041+006101999GE19AGL   +99999+99999GF199999041999006101999999MA1101001999999REMMET066METAR ZSSS 250630Z 32006MPS 290V350 7000 SCT020 20/13 Q1010 NOSIG=
0149583670999992024032507004+31198+121336FM-15+000399999V0203401N009019999999N007000199+01901+01301999999ADDGA1041+006101999GE19AGL   +99999+99999GF199999041999006101999999MA1101001999999REMMET058METAR ZSSS 250700Z 34009MPS 7000 SCT020 19/13 Q1010 NOSIG=
0149583670999992024032507304+31198+121336FM-15+000399999V0203301N010019999999N009999199+01801+01201999999ADDGA1041+006101999GE19AGL   +99999+99999GF199999041999006101999999MA1100901999999REMMET058METAR ZSSS 250730Z 33010MPS 9999 SCT020 18/12 Q1009 NOSIG=
0168583670999992024032508004+31198+121336FM-15+000399999V0203301N007019999999N009999199+01701+01201999999ADDGA1041+006101999GE19AGL   +99999+99999GF199999041999006101999999MA1101001999999REMMET077METAR ZSSS 250800Z 33007MPS 9999 SCT020 17/12 Q1010 BECMG TL0930 SHRA BKN013=
0160583670999992024032508304+31198+121336FM-15+000399999V0203201N010019999999N009999199+01601+01101999999ADDGA1041+006101999GE19AGL   +99999+99999GF199999041999006101999999MA1101101999999OC101501REMMET061METAR ZSSS 250830Z 32010G15MPS 9999 SCT020 16/11 Q1011 NOSIG=
0214583670999992024032509004+31198+121336FM-15+000399999V0203201N008019999999N009999199+01501+01101999999ADDGA1041+006101999GA2021+009141091GE19AGL   +99999+99999GF199999041999006101999999MA1101201999999MW1801REMMET101METAR ZSSS 250900Z 32008MPS 9999 -SHRA SCT020 FEW030CB 15/11 Q1012 BECMG TL0930 TSRA BKN013 FEW030CB=
0211583670999992024032509304+31198+121336FM-15+000399999V0203201V00501009141CN002800199+01301+01201999999ADDGA1041+006101999GA2041+009141091GE19AGL   +99999+99999GF199999041999006101999999MA1101201999999MW1821REMMET098METAR ZSSS 250930Z 32005MPS 270V360 2800 +SHRA SCT020 SCT030CB 13/12 Q1012 BECMG TL1030 3000 SHRA=
0222583670999992024032510004+31198+121336FM-15+000399999V0203401N00601003351CN004500199+01301+01201999999ADDGA1071+003351999GA2041+009141091GE19AGL   +99999+99999GF199999071999003351999999MA1101201999999MW1951REMMET109METAR ZSSS 251000Z 34006MPS 4500 -TSRA BKN011 SCT030CB 13/12 Q1012 RESHRA BECMG TL1100 -SHRA BKN009 FEW030CB=
0199583670999992024032510304+31198+121336FM-15+000399999V0203101V00701003351CN009999199+01301+01201999999ADDGA1071+003351999GA2021+009141091GE19AGL   +99999+99999GF199999071999003351999999MA1101301999999MW1801REMMET086METAR ZSSS 251030Z 31007MPS 280V340 9999 -SHRA BKN011 FEW030CB 13/12 Q1013 RETS NOSIG=
0200583670999992024032511004+31198+121336FM-15+000399999V0203001N00801003961CN009999199+01301+01101999999ADDGA1071+003961999GA2021+009141091GE19AGL   +99999+99999GF199999071999003961999999MA1101401999999MW1801REMMET087METAR ZSSS 251100Z 30008MPS 9999 -SHRA BKN013 FEW030CB 13/11 Q1014 BECMG TL1230 BKN015=
0180583670999992024032511304+31198+121336FM-15+000399999V0203201V00601003961CN009999199+01201+01001999999ADDGA1071+003961999GE19AGL   +99999+99999GF199999071999003961999999MA1101401999999MW1801OC101201REMMET075METAR ZSSS 251130Z 32006G12MPS 290V350 9999 -SHRA BKN013 12/10 Q1014 NOSIG=
0163583670999992024032512004+31198+121336FM-15+000399999V0203101N00801003961CN009999199+01201+00901999999ADDGA1071+003961999GE19AGL   +99999+99999GF199999071999003961999999MA1101501999999REMMET072METAR ZSSS 251200Z 31008MPS 9999 BKN013 12/09 Q1015 BECMG TL1230 BKN015=
0168583670999992024032512304+31198+121336FM-15+000399999V0203101V00701004571CN009999199+01201+00901999999ADDGA1071+004571999GE19AGL   +99999+99999GF199999071999004571999999MA1101601999999OC101301REMMET069METAR ZSSS 251230Z 31007G13MPS 270V350 9999 BKN015 12/09 Q1016 NOSIG=
0149583670999992024032513004+31198+121336FM-15+000399999V0203201N00801004571CN009999199+01201+00901999999ADDGA1071+004571999GE19AGL   +99999+99999GF199999071999004571999999MA1101701999999REMMET058METAR ZSSS 251300Z 32008MPS 9999 BKN015 12/09 Q1017 NOSIG=
0157583670999992024032513304+31198+121336FM-15+000399999V0203001V00801004571CN009999199+01201+00901999999ADDGA1071+004571999GE19AGL   +99999+99999GF199999071999004571999999MA1101701999999REMMET066METAR ZSSS 251330Z 30008MPS 280V340 9999 BKN015 12/09 Q1017 NOSIG=
0149583670999992024032514004+31198+121336FM-15+000399999V0203101N00901004571CN009999199+01101+00801999999ADDGA1071+004571999GE19AGL   +99999+99999GF199999071999004571999999MA1101701999999REMMET058METAR ZSSS 251400Z 31009MPS 9999 BKN015 11/08 Q1017 NOSIG=
0168583670999992024032514304+31198+121336FM-15+000399999V0203001V00901004571CN009999199+01101+00801999999ADDGA1071+004571999GE19AGL   +99999+99999GF199999071999004571999999MA1101801999999OC101401REMMET069METAR ZSSS 251430Z 30009G14MPS 280V340 9999 BKN015 11/08 Q1018 NOSIG=
0149583670999992024032515004+31198+121336FM-15+000399999V0203101N00801004571CN009999199+01101+00801999999ADDGA1071+004571999GE19AGL   +99999+99999GF199999071999004571999999MA1101801999999REMMET058METAR ZSSS 251500Z 31008MPS 9999 BKN015 11/08 Q1018 NOSIG=
0149583670999992024032515304+31198+121336FM-15+000399999V0203001N00801004571CN009999199+01101+00801999999ADDGA1071+004571999GE19AGL   +99999+99999GF199999071999004571999999MA1101801999999REMMET058METAR ZSSS 251530Z 30008MPS 9999 BKN015 11/08 Q1018 NOSIG=
0157583670999992024032516004+31198+121336FM-15+000399999V0203101V00801006101CN009999199+01101+00801999999ADDGA1071+006101999GE19AGL   +99999+99999GF199999071999006101999999MA1101901999999REMMET066METAR ZSSS 251600Z 31008MPS 280V340 9999 BKN020 11/08 Q1019 NOSIG=
0149583670999992024032516304+31198+121336FM-15+000399999V0203201N00701004881CN009999199+01101+00801999999ADDGA1071+004881999GE19AGL   +99999+99999GF199999071999004881999999MA1101901999999REMMET058METAR ZSSS 251630Z 32007MPS 9999 BKN016 11/08 Q1019 NOSIG=
0149583670999992024032517004+31198+121336FM-15+000399999V0203201N00701004881CN009999199+01101+00801999999ADDGA1071+004881999GE19AGL   +99999+99999GF199999071999004881999999MA1101901999999REMMET058METAR ZSSS 251700Z 32007MPS 9999 BKN016 11/08 Q1019 NOSIG=
0161583670999992024032517304+31198+121336FM-15+000399999V0203201N00601004881CN009999199+01101+00801999999ADDGA1071+004881999GE19AGL   +99999+99999GF199999071999004881999999MA1102001999999MW1801REMMET064METAR ZSSS 251730Z 32006MPS 9999 -SHRA BKN016 11/08 Q1020 NOSIG=
0161583670999992024032518004+31198+121336FM-15+000399999V0203201N00601004881CN009999199+01101+00801999999ADDGA1071+004881999GE19AGL   +99999+99999GF199999071999004881999999MA1101901999999MW1801REMMET064METAR ZSSS 251800Z 32006MPS 9999 -SHRA BKN016 11/08 Q1019 NOSIG=
0157583670999992024032518304+31198+121336FM-15+000399999V0203201V00601007011CN009999199+01101+00801999999ADDGA1071+007011999GE19AGL   +99999+99999GF199999071999007011999999MA1102001999999REMMET066METAR ZSSS 251830Z 32006MPS 290V350 9999 BKN023 11/08 Q1020 NOSIG=
0149583670999992024032519004+31198+121336FM-15+000399999V0203101N00601007011CN009999199+01101+00801999999ADDGA1071+007011999GE19AGL   +99999+99999GF199999071999007011999999MA1102001999999REMMET058METAR ZSSS 251900Z 31006MPS 9999 BKN023 11/08 Q1020 NOSIG=
0149583670999992024032519304+31198+121336FM-15+000399999V0203101N00501007011CN009999199+01101+00801999999ADDGA1071+007011999GE19AGL   +99999+99999GF199999071999007011999999MA1102101999999REMMET058METAR ZSSS 251930Z 31005MPS 9999 BKN023 11/08 Q1021 NOSIG=
0157583670999992024032520004+31198+121336FM-15+000399999V0203201V00501007011CN009999199+01101+00801999999ADDGA1071+007011999GE19AGL   +99999+99999GF199999071999007011999999MA1102101999999REMMET066METAR ZSSS 252000Z 32005MPS 290V350 9999 BKN023 11/08 Q1021 NOSIG=
0157583670999992024032520304+31198+121336FM-15+000399999V0203301V00601007011CN009999199+01101+00701999999ADDGA1071+007011999GE19AGL   +99999+99999GF199999071999007011999999MA1102201999999REMMET066METAR ZSSS 252030Z 33006MPS 290V350 9999 BKN023 11/07 Q1022 NOSIG=
0149583670999992024032521004+31198+121336FM-15+000399999V0203301N00501006101CN009999199+01101+00701999999ADDGA1071+006101999GE19AGL   +99999+99999GF199999071999006101999999MA1102201999999REMMET058METAR ZSSS 252100Z 33005MPS 9999 BKN020 11/07 Q1022 NOSIG=
0149583670999992024032521304+31198+121336FM-15+000399999V0203201N00601006101CN009999199+01101+00701999999ADDGA1071+006101999GE19AGL   +99999+99999GF199999071999006101999999MA1102301999999REMMET058METAR ZSSS 252130Z 32006MPS 9999 BKN020 11/07 Q1023 NOSIG=
0149583670999992024032522004+31198+121336FM-15+000399999V0203301N00501006101CN009999199+01101+00701999999ADDGA1071+006101999GE19AGL   +99999+99999GF199999071999006101999999MA1102301999999REMMET058METAR ZSSS 252200Z 33005MPS 9999 BKN020 11/07 Q1023 NOSIG=
0149583670999992024032522304+31198+121336FM-15+000399999V0203201N00601006101CN009999199+01101+00701999999ADDGA1071+006101999GE19AGL   +99999+99999GF199999071999006101999999MA1102301999999REMMET058METAR ZSSS 252230Z 32006MPS 9999 BKN020 11/07 Q1023 NOSIG=
0149583670999992024032523004+31198+121336FM-15+000399999V0203301N005019999999N009999199+01201+00801999999ADDGA1041+006101999GE19AGL   +99999+99999GF199999041999006101999999MA1102301999999REMMET058METAR ZSSS 252300Z 33005MPS 9999 SCT020 12/08 Q1023 NOSIG=
0157583670999992024032523304+31198+121336FM-15+000399999V0203301V006019999999N009999199+01201+00701999999ADDGA1041+007011999GE19AGL   +99999+99999GF199999041999007011999999MA1102401999999REMMET066METAR ZSSS 252330Z 33006MPS 300V360 9999 SCT023 12/07 Q1024 NOSIG=
0149583670999992024032600004+31198+121336FM-15+000399999V0203401N008019999999N009999199+01201+00701999999ADDGA1041+007011999GE19AGL   +99999+99999GF199999041999007011999999MA1102401999999REMMET058METAR ZSSS 260000Z 34008MPS 9999 SCT023 12/07 Q1024 NOSIG=
0149583670999992024032600304+31198+121336FM-15+000399999V0203401N008019999999N009999199+01301+00701999999ADDGA1041+007011999GE19AGL   +99999+99999GF199999041999007011999999MA1102501999999REMMET058METAR ZSSS 260030Z 34008MPS 9999 SCT023 13/07 Q1025 NOSIG=
0149583670999992024032601004+31198+121336FM-15+000399999V0203401N007019999999N009999199+01201+00701999999ADDGA1041+007011999GE19AGL   +99999+99999GF199999041999007011999999MA1102501999999REMMET058METAR ZSSS 260100Z 34007MPS 9999 SCT023 12/07 Q1025 NOSIG=
0149583670999992024032601304+31198+121336FM-15+000399999V0203401N00701007011CN009999199+01301+00701999999ADDGA1071+007011999GE19AGL   +99999+99999GF199999071999007011999999MA1102501999999REMMET058METAR ZSSS 260130Z 34007MPS 9999 BKN023 13/07 Q1025 NOSIG=
0157583670999992024032602004+31198+121336FM-15+000399999V0203401V00701007011CN009999199+01301+00701999999ADDGA1071+007011999GE19AGL   +99999+99999GF199999071999007011999999MA1102601999999REMMET066METAR ZSSS 260200Z 34007MPS 310V010 9999 BKN023 13/07 Q1026 NOSIG=
0157583670999992024032602304+31198+121336FM-15+000399999V0203501V00601009141CN009999199+01401+00601999999ADDGA1071+009141999GE19AGL   +99999+99999GF199999071999009141999999MA1102501999999REMMET066METAR ZSSS 260230Z 35006MPS 320V020 9999 BKN030 14/06 Q1025 NOSIG=
0157583670999992024032603004+31198+121336FM-15+000399999V0203401V00601009141CN009999199+01401+00701999999ADDGA1071+009141999GE19AGL   +99999+99999GF199999071999009141999999MA1102501999999REMMET066METAR ZSSS 260300Z 34006MPS 310V020 9999 BKN030 14/07 Q1025 NOSIG=
0149583670999992024032603304+31198+121336FM-15+000399999V0203501N00601009141CN009999199+01501+00801999999ADDGA1071+009141999GE19AGL   +99999+99999GF199999071999009141999999MA1102501999999REMMET058METAR ZSSS 260330Z 35006MPS 9999 BKN030 15/08 Q1025 NOSIG=
0149583670999992024032604004+31198+121336FM-15+000399999V0203301N00501009141CN009999199+01701+00701999999ADDGA1071+009141999GE19AGL   +99999+99999GF199999071999009141999999MA1102501999999REMMET058METAR ZSSS 260400Z 33005MPS 9999 BKN030 17/07 Q1025 NOSIG=
0149583670999992024032604304+31198+121336FM-15+000399999V0203501N00601010061CN009999199+01601+00701999999ADDGA1071+010061999GE19AGL   +99999+99999GF199999071999010061999999MA1102501999999REMMET058METAR ZSSS 260430Z 35006MPS 9999 BKN033 16/07 Q1025 NOSIG=
0149583670999992024032605004+31198+121336FM-15+000399999V0203501N00601010061CN009999199+01501+00701999999ADDGA1071+010061999GE19AGL   +99999+99999GF199999071999010061999999MA1102501999999REMMET058METAR ZSSS 260500Z 35006MPS 9999 BKN033 15/07 Q1025 NOSIG=
0157583670999992024032605304+31198+121336FM-15+000399999V0203401V00601010061CN009999199+01501+00701999999ADDGA1071+010061999GE19AGL   +99999+99999GF199999071999010061999999MA1102401999999REMMET066METAR ZSSS 260530Z 34006MPS 310V020 9999 BKN033 15/07 Q1024 NOSIG=
0149583670999992024032606004+31198+121336FM-15+000399999V0203501N00501012191CN009999199+01501+00601999999ADDGA1071+012191999GE19AGL   +99999+99999GF199999071999012191999999MA1102401999999REMMET058METAR ZSSS 260600Z 35005MPS 9999 BKN040 15/06 Q1024 NOSIG=
0149583670999992024032606304+31198+121336FM-15+000399999V0203501N00501012191CN009999199+01501+00701999999ADDGA1071+012191999GE19AGL   +99999+99999GF199999071999012191999999MA1102401999999REMMET058METAR ZSSS 260630Z 35005MPS 9999 BKN040 15/07 Q1024 NOSIG=
0157583670999992024032607004+31198+121336FM-15+000399999V0203501V00401012191CN009999199+01601+00701999999ADDGA1071+012191999GE19AGL   +99999+99999GF199999071999012191999999MA1102401999999REMMET066METAR ZSSS 260700Z 35004MPS 310V020 9999 BKN040 16/07 Q1024 NOSIG=
0149583670999992024032607304+31198+121336FM-15+000399999V0203401N00401012191CN009999199+01601+00601999999ADDGA1071+012191999GE19AGL   +99999+99999GF199999071999012191999999MA1102401999999REMMET058METAR ZSSS 260730Z 34004MPS 9999 BKN040 16/06 Q1024 NOSIG=
0157583670999992024032608004+31198+121336FM-15+000399999V0200101V00401012191CN009999199+01601+00701999999ADDGA1071+012191999GE19AGL   +99999+99999GF199999071999012191999999MA1102401999999REMMET066METAR ZSSS 260800Z 01004MPS 310V030 9999 BKN040 16/07 Q1024 NOSIG=
0149583670999992024032608304+31198+121336FM-15+000399999V0200201N00401012191CN009999199+01501+00601999999ADDGA1071+012191999GE19AGL   +99999+99999GF199999071999012191999999MA1102401999999REMMET058METAR ZSSS 260830Z 02004MPS 9999 BKN040 15/06 Q1024 NOSIG=
0157583670999992024032609004+31198+121336FM-15+000399999V0200201V004019999999N009999199+01501+00601999999ADDGA1041+012191999GE19AGL   +99999+99999GF199999041999012191999999MA1102301999999REMMET066METAR ZSSS 260900Z 02004MPS 330V040 9999 SCT040 15/06 Q1023 NOSIG=
0149583670999992024032609304+31198+121336FM-15+000399999V0203401N004019999999N009999199+01501+00601999999ADDGA1021+012191999GE19AGL   +99999+99999GF199999021999012191999999MA1102301999999REMMET058METAR ZSSS 260930Z 34004MPS 9999 FEW040 15/06 Q1023 NOSIG=
0149583670999992024032610004+31198+121336FM-15+000399999V0203501N004019999999N009999199+01401+00601999999ADDGA1021+012191999GE19AGL   +99999+99999GF199999021999012191999999MA1102401999999REMMET058METAR ZSSS 261000Z 35004MPS 9999 FEW040 14/06 Q1024 NOSIG=
0157583670999992024032610304+31198+121336FM-15+000399999V0200201V003019999999N009999199+01401+00701999999ADDGA1041+012191999GE19AGL   +99999+99999GF199999041999012191999999MA1102401999999REMMET066METAR ZSSS 261030Z 02003MPS 360V060 9999 SCT040 14/07 Q1024 NOSIG=
0149583670999992024032611004+31198+121336FM-15+000399999V0200301N003019999999N009999199+01401+00701999999ADDGA1041+012191999GE19AGL   +99999+99999GF199999041999012191999999MA1102401999999REMMET058METAR ZSSS 261100Z 03003MPS 9999 SCT040 14/07 Q1024 NOSIG=
0157583670999992024032611304+31198+121336FM-15+000399999V0200601V002019999999N009999199+01401+00701999999ADDGA1041+012191999GE19AGL   +99999+99999GF199999041999012191999999MA1102401999999REMMET066METAR ZSSS 261130Z 06002MPS 030V100 9999 SCT040 14/07 Q1024 NOSIG=
0079583670999992024032616004+31198+121336FM-15+000399999V0201501N004019999999Y009900599+01001+00801999999ADDMA1102501999999REMMET052METAR ZSSS 261600Z 15004MPS CAVOK 10/08 Q1025 NOSIG=
0079583670999992024032616304+31198+121336FM-15+000399999V0201201N003019999999Y009900599+01001+00801999999ADDMA1102501999999REMMET052METAR ZSSS 261630Z 12003MPS CAVOK 10/08 Q1025 NOSIG=
0079583670999992024032617004+31198+121336FM-15+000399999V0201301N003019999999Y009900599+01001+00801999999ADDMA1102401999999REMMET052METAR ZSSS 261700Z 13003MPS CAVOK 10/08 Q1024 NOSIG=
0079583670999992024032617304+31198+121336FM-15+000399999V0201301N003019999999Y009900599+01001+00801999999ADDMA1102401999999REMMET052METAR ZSSS 261730Z 13003MPS CAVOK 10/08 Q1024 NOSIG=
0079583670999992024032618004+31198+121336FM-15+000399999V0201301N003019999999Y009900599+01001+00801999999ADDMA1102401999999REMMET052METAR ZSSS 261800Z 13003MPS CAVOK 10/08 Q1024 NOSIG=
0079583670999992024032618304+31198+121336FM-15+000399999V0201401N003019999999Y009900599+01001+00701999999ADDMA1102401999999REMMET052METAR ZSSS 261830Z 14003MPS CAVOK 10/07 Q1024 NOSIG=
0157583670999992024032703304+31198+121336FM-15+000399999V0201601V007019999999N009999199+01501+00701999999ADDGA1021+007011999GE19AGL   +99999+99999GF199999021999007011999999MA1102201999999REMMET066METAR ZSSS 270330Z 16007MPS 130V190 9999 FEW023 15/07 Q1022 NOSIG=
0079583670999992024032704004+31198+121336FM-15+000399999V0201501N006019999999Y009900599+01601+00801999999ADDMA1102101999999REMMET052METAR ZSSS 270400Z 15006MPS CAVOK 16/08 Q1021 NOSIG=
0079583670999992024032704304+31198+121336FM-15+000399999V0201701N005019999999Y009900599+01601+00801999999ADDMA1102101999999REMMET052METAR ZSSS 270430Z 17005MPS CAVOK 16/08 Q1021 NOSIG=
0087583670999992024032705004+31198+121336FM-15+000399999V0201601V006019999999Y009900599+01601+00701999999ADDMA1102001999999REMMET060METAR ZSSS 270500Z 16006MPS 120V180 CAVOK 16/07 Q1020 NOSIG=
0087583670999992024032705304+31198+121336FM-15+000399999V0201301V006019999999Y009900599+01701+00701999999ADDMA1101901999999REMMET060METAR ZSSS 270530Z 13006MPS 090V170 CAVOK 17/07 Q1019 NOSIG=
0079583670999992024032706004+31198+121336FM-15+000399999V0201301N007019999999Y009900599+01601+00701999999ADDMA1101801999999REMMET052METAR ZSSS 270600Z 13007MPS CAVOK 16/07 Q1018 NOSIG=
0079583670999992024032706304+31198+121336FM-15+000399999V0201401N007019999999Y009900599+01601+00701999999ADDMA1101801999999REMMET052METAR ZSSS 270630Z 14007MPS CAVOK 16/07 Q1018 NOSIG=
0087583670999992024032707004+31198+121336FM-15+000399999V0201501V007019999999Y009900599+01601+00701999999ADDMA1101601999999REMMET060METAR ZSSS 270700Z 15007MPS 110V180 CAVOK 16/07 Q1016 NOSIG=
0087583670999992024032707304+31198+121336FM-15+000399999V0201701V006019999999Y009900599+01501+00801999999ADDMA1101601999999REMMET060METAR ZSSS 270730Z 17006MPS 140V200 CAVOK 15/08 Q1016 NOSIG=
0079583670999992024032708004+31198+121336FM-15+000399999V0201501N006019999999Y009900599+01601+00801999999ADDMA1101601999999REMMET052METAR ZSSS 270800Z 15006MPS CAVOK 16/08 Q1016 NOSIG=
0087583670999992024032708304+31198+121336FM-15+000399999V0201401V005019999999Y009900599+01501+00801999999ADDMA1101601999999REMMET060METAR ZSSS 270830Z 14005MPS 110V170 CAVOK 15/08 Q1016 NOSIG=
0079583670999992024032709004+31198+121336FM-15+000399999V0201401N007019999999Y009900599+01401+00801999999ADDMA1101601999999REMMET052METAR ZSSS 270900Z 14007MPS CAVOK 14/08 Q1016 NOSIG=
0079583670999992024032709304+31198+121336FM-15+000399999V0201401N006019999999Y009900599+01401+00801999999ADDMA1101601999999REMMET052METAR ZSSS 270930Z 14006MPS CAVOK 14/08 Q1016 NOSIG=
0079583670999992024032710004+31198+121336FM-15+000399999V0201401N005019999999Y009900599+01301+00801999999ADDMA1101501999999REMMET052METAR ZSSS 271000Z 14005MPS CAVOK 13/08 Q1015 NOSIG=
0087583670999992024032710304+31198+121336FM-15+000399999V0201501V007019999999Y009900599+01301+00801999999ADDMA1101501999999REMMET060METAR ZSSS 271030Z 15007MPS 120V180 CAVOK 13/08 Q1015 NOSIG=
0079583670999992024032711004+31198+121336FM-15+000399999V0201501N007019999999Y009900599+01301+00801999999ADDMA1101501999999REMMET052METAR ZSSS 271100Z 15007MPS CAVOK 13/08 Q1015 NOSIG=
0079583670999992024032711304+31198+121336FM-15+000399999V0201401N005019999999Y009900599+01301+00801999999ADDMA1101501999999REMMET052METAR ZSSS 271130Z 14005MPS CAVOK 13/08 Q1015 NOSIG=
0149583670999992024032712004+31198+121336FM-15+000399999V0201501N005019999999N009999199+01301+00801999999ADDGA1041+006101999GE19AGL   +99999+99999GF199999041999006101999999MA1101501999999REMMET058METAR ZSSS 271200Z 15005MPS 9999 SCT020 13/08 Q1015 NOSIG=
0149583670999992024032712304+31198+121336FM-15+000399999V0201401N005019999999N009999199+01301+00801999999ADDGA1041+006101999GE19AGL   +99999+99999GF199999041999006101999999MA1101501999999REMMET058METAR ZSSS 271230Z 14005MPS 9999 SCT020 13/08 Q1015 NOSIG=
0149583670999992024032713004+31198+121336FM-15+000399999V0201401N00501006101CN009999199+01301+00801999999ADDGA1071+006101999GE19AGL   +99999+99999GF199999071999006101999999MA1101601999999REMMET058METAR ZSSS 271300Z 14005MPS 9999 BKN020 13/08 Q1016 NOSIG=
0157583670999992024032713304+31198+121336FM-15+000399999V0201401V00401006101CN009999199+01301+00801999999ADDGA1071+006101999GE19AGL   +99999+99999GF199999071999006101999999MA1101501999999REMMET066METAR ZSSS 271330Z 14004MPS 110V170 9999 BKN020 13/08 Q1015 NOSIG=
0157583670999992024032714004+31198+121336FM-15+000399999V0201301V00301006101CN009999199+01301+00801999999ADDGA1071+006101999GE19AGL   +99999+99999GF199999071999006101999999MA1101501999999REMMET066METAR ZSSS 271400Z 13003MPS 100V160 9999 BKN020 13/08 Q1015 NOSIG=
0157583670999992024032714304+31198+121336FM-15+000399999V0201301V00401006101CN009999199+01301+00901999999ADDGA1071+006101999GE19AGL   +99999+99999GF199999071999006101999999MA1101501999999REMMET066METAR ZSSS 271430Z 13004MPS 100V160 9999 BKN020 13/09 Q1015 NOSIG=
0167583670999992024032715004+31198+121336FM-15+000399999V0201201V00301004881CN009999199+01301+00901999999ADDGA1071+004881999GE19AGL   +99999+99999GF199999071999004881999999MA1101401999999MW1611REMMET070METAR ZSSS 271500Z 12003MPS 070V170 9999 -RA BKN016 13/09 Q1014 NOSIG=
0159583670999992024032715304+31198+121336FM-15+000399999V0201501N00601004881CN009999199+01301+00901999999ADDGA1071+004881999GE19AGL   +99999+99999GF199999071999004881999999MA1101301999999MW1611REMMET062METAR ZSSS 271530Z 15006MPS 9999 -RA BKN016 13/09 Q1013 NOSIG=
0167583670999992024032716004+31198+121336FM-15+000399999V0201401V00401004881CN009999199+01301+00901999999ADDGA1071+004881999GE19AGL   +99999+99999GF199999071999004881999999MA1101301999999MW1611REMMET070METAR ZSSS 271600Z 14004MPS 110V170 9999 -RA BKN016 13/09 Q1013 NOSIG=
0159583670999992024032716304+31198+121336FM-15+000399999V0201501N004019999999N009999199+01301+01001999999ADDGA1041+004881999GE19AGL   +99999+99999GF199999041999004881999999MA1101201999999MW1611REMMET062METAR ZSSS 271630Z 15004MPS 9999 -RA SCT016 13/10 Q1012 NOSIG=
0173583670999992024032717004+31198+121336FM-15+000399999V0201601N006019999999N007000199+01201+01001999999ADDGA1041+004881999GE19AGL   +99999+99999GF199999041999004881999999MA1101201999999MW1811REMMET076METAR ZSSS 271700Z 16006MPS 7000 SHRA SCT016 12/10 Q1012 BECMG TL1730 -SHRA=
0168583670999992024032717304+31198+121336FM-15+000399999V0201601N004019999999N009999199+01201+01001999999ADDGA1041+004881999GE19AGL   +99999+99999GF199999041999004881999999MA1101101999999MW1801REMMET071METAR ZSSS 271730Z 16004MPS 9999 -SHRA SCT016 12/10 Q1011 RESHRA NOSIG=
0120583670999992024040118004+31198+121336FM-15+000399999V0201501N007012200019N009999199+01601+01401999999ADDGF100991999999999999999999MA1100801999999MW1801REMMET061METAR ZSSS 011800Z 15007MPS 9999 -SHRA NSC 16/14 Q1008 NOSIG=
0120583670999992024040118304+31198+121336FM-15+000399999V0201401N006012200019N009999199+01601+01401999999ADDGF100991999999999999999999MA1100801999999MW1801REMMET061METAR ZSSS 011830Z 14006MPS 9999 -SHRA NSC 16/14 Q1008 NOSIG=
0120583670999992024040119004+31198+121336FM-15+000399999V0201401N005012200019N009999199+01601+01401999999ADDGF100991999999999999999999MA1100701999999MW1801REMMET061METAR ZSSS 011900Z 14005MPS 9999 -SHRA NSC 16/14 Q1007 NOSIG=
0120583670999992024040119304+31198+121336FM-15+000399999V0201501N005012200019N009999199+01601+01401999999ADDGF100991999999999999999999MA1100601999999MW1801REMMET061METAR ZSSS 011930Z 15005MPS 9999 -SHRA NSC 16/14 Q1006 NOSIG=
0120583670999992024040120004+31198+121336FM-15+000399999V0201501N006012200019N009999199+01601+01401999999ADDGF100991999999999999999999MA1100601999999MW1801REMMET061METAR ZSSS 012000Z 15006MPS 9999 -SHRA NSC 16/14 Q1006 NOSIG=
0079583670999992024040120304+31198+121336FM-15+000399999V0201601N006019999999Y009900599+01601+01401999999ADDMA1100601999999REMMET052METAR ZSSS 012030Z 16006MPS CAVOK 16/14 Q1006 NOSIG=
0161583670999992024040121004+31198+121336FM-15+000399999V0201601N005019999999N009999199+01701+01401999999ADDGA1041+012191999GE19AGL   +99999+99999GF199999041999012191999999MA1100601999999MW1801REMMET064METAR ZSSS 012100Z 16005MPS 9999 -SHRA SCT040 17/14 Q1006 NOSIG=
0079583670999992024040121304+31198+121336FM-15+000399999V0201601N007019999999Y009900599+01701+01401999999ADDMA1100601999999REMMET052METAR ZSSS 012130Z 16007MPS CAVOK 17/14 Q1006 NOSIG=
0149583670999992024040122004+31198+121336FM-15+000399999V0201701N00601012191CN009999199+01701+01501999999ADDGA1071+012191999GE19AGL   +99999+99999GF199999071999012191999999MA1100601999999REMMET058METAR ZSSS 012200Z 17006MPS 9999 BKN040 17/15 Q1006 NOSIG=
0161583670999992024040122304+31198+121336FM-15+000399999V0201701N00501012191CN009999199+01801+01501999999ADDGA1071+012191999GE19AGL   +99999+99999GF199999071999012191999999MA1100601999999MW1801REMMET064METAR ZSSS 012230Z 17005MPS 9999 -SHRA BKN040 18/15 Q1006 NOSIG=
0161583670999992024040123004+31198+121336FM-15+000399999V0201601N00401012191CN009999199+01801+01601999999ADDGA1071+012191999GE19AGL   +99999+99999GF199999071999012191999999MA1100601999999MW1801REMMET064METAR ZSSS 012300Z 16004MPS 9999 -SHRA BKN040 18/16 Q1006 NOSIG=
0161583670999992024040123304+31198+121336FM-15+000399999V0201601N004019999999N009999199+01801+01601999999ADDGA1021+003961999GE19AGL   +99999+99999GF199999021999003961999999MA1100501999999MW1801REMMET064METAR ZSSS 012330Z 16004MPS 9999 -SHRA FEW013 18/16 Q1005 NOSIG=
0163583670999992024040200004+31198+121336FM-15+000399999V0201801N00401004571CN009999199+01901+01601999999ADDGA1071+004571999GE19AGL   +99999+99999GF199999071999004571999999MA1100601999999REMMET072METAR ZSSS 020000Z 18004MPS 9999 BKN015 19/16 Q1006 BECMG TL0030 BKN013=
0149583670999992024040200304+31198+121336FM-15+000399999V0201801N00601003661CN009999199+01901+01701999999ADDGA1071+003661999GE19AGL   +99999+99999GF199999071999003661999999MA1100601999999REMMET058METAR ZSSS 020030Z 18006MPS 9999 BKN012 19/17 Q1006 NOSIG=
0170583670999992024040201004+31198+121336FM-15+000399999V0201801N00501003661CN009999199+02001+01801999999ADDGA1071+003661999GE19AGL   +99999+99999GF199999071999003661999999MA1100601999999REMMET079METAR ZSSS 020100Z 18005MPS 9999 BKN012 20/18 Q1006 BECMG TL0200 SCT012 OVC033=
0149583670999992024040201304+31198+121336FM-15+000399999V0201801N005019999999N009999199+02101+01801999999ADDGA1041+003661999GE19AGL   +99999+99999GF199999041999003661999999MA1100501999999REMMET058METAR ZSSS 020130Z 18005MPS 9999 SCT012 21/18 Q1005 NOSIG=
0163583670999992024040202004+31198+121336FM-15+000399999V0201701N005019999999N009999199+02101+01801999999ADDGA1041+004571999GE19AGL   +99999+99999GF199999041999004571999999MA1100501999999REMMET072METAR ZSSS 020200Z 17005MPS 9999 SCT015 21/18 Q1005 BECMG TL0340 BKN011=
0157583670999992024040202304+31198+121336FM-15+000399999V0201701V005019999999N009999199+02201+01801999999ADDGA1041+004571999GE19AGL   +99999+99999GF199999041999004571999999MA1100501999999REMMET066METAR ZSSS 020230Z 17005MPS 150V210 9999 SCT015 22/18 Q1005 NOSIG=
0194583670999992024040203004+31198+121336FM-15+000399999V0201501V005019999999N009999199+02201+01701999999ADDGA1041+004571999GE19AGL   +99999+99999GF199999041999004571999999MA1100501999999REMMET103METAR ZSSS 020300Z 15005MPS 120V180 9999 SCT015 22/17 Q1005 BECMG TL0400 24007MPS TSRA BKN013 SCT030CB=
0182583670999992024040203304+31198+121336FM-15+000399999V0201701V003019999999N009999199+02101+01701999999ADDGA1041+004571999GA2021+009141091GE19AGL   +99999+99999GF199999041999004571999999MA1100501999999REMMET075METAR ZSSS 020330Z 17003MPS 140V200 9999 SCT015 FEW030CB 21/17 Q1005 NOSIG=
0182583670999992024040204004+31198+121336FM-15+000399999V0201901V002019999999N009999199+02001+01701999999ADDGA1041+004881999GA2021+009141091GE19AGL   +99999+99999GF199999041999004881999999MA1100501999999REMMET075METAR ZSSS 020400Z 19002MPS 130V280 9999 SCT016 FEW030CB 20/17 Q1005 NOSIG=
0079583670999992024040221004+31198+121336FM-15+000399999V0202201N004019999999Y009900599+01901+01801999999ADDMA1100401999999REMMET052METAR ZSSS 022100Z 22004MPS CAVOK 19/18 Q1004 NOSIG=
0079583670999992024040221304+31198+121336FM-15+000399999V0202201N004019999999Y009900599+01901+01801999999ADDMA1100401999999REMMET052METAR ZSSS 022130Z 22004MPS CAVOK 19/18 Q1004 NOSIG=
0079583670999992024040222004+31198+121336FM-15+000399999V0202201N004019999999Y009900599+02001+01801999999ADDMA1100401999999REMMET052METAR ZSSS 022200Z 22004MPS CAVOK 20/18 Q1004 NOSIG=
0079583670999992024040222304+31198+121336FM-15+000399999V0202301N004019999999Y009900599+02001+01801999999ADDMA1100401999999REMMET052METAR ZSSS 022230Z 23004MPS CAVOK 20/18 Q1004 NOSIG=
0149583670999992024040223004+31198+121336FM-15+000399999V0202301N00401012191CN009999199+02001+01801999999ADDGA1071+012191999GE19AGL   +99999+99999GF199999071999012191999999MA1100501999999REMMET058METAR ZSSS 022300Z 23004MPS 9999 BKN040 20/18 Q1005 NOSIG=
0149583670999992024040223304+31198+121336FM-15+000399999V0202301N004019999999N009999199+02001+01801999999ADDGA1041+009141999GE19AGL   +99999+99999GF199999041999009141999999MA1100501999999REMMET058METAR ZSSS 022330Z 23004MPS 9999 SCT030 20/18 Q1005 NOSIG=
0165583670999992024040300004+31198+121336FM-15+000399999V0202501N004019999999N009999199+02001+01801999999ADDGA1041+009141999GE19AGL   +99999+99999GF199999041999009141999999MA1100501999999REMMET074METAR ZSSS 030000Z 25004MPS 9999 SCT030 20/18 Q1005 BECMG TL0130 32005MPS=
0201583670999992024040300304+31198+121336FM-15+000399999V0202501V005010091419N005000199+02001+01801999999ADDGA1021+004571999GA2071+009141999GE19AGL   +99999+99999GF199999021999004571999999MA1100601999999MW1101MW2801REMMET082METAR ZSSS 030030Z 25005MPS 220V290 5000 -SHRA BR FEW015 BKN030 20/18 Q1006 NOSIG=
0233583670999992024040301004+31198+121336FM-15+000399999V0202601V005010121919N007000199+02001+01801999999ADDGA1041+002441999GA2081+012191999GE19AGL   +99999+99999GF199999041999002441999999MA1100601999999MW1801OC101001REMMET112METAR ZSSS 030100Z 26005G10MPS 240V300 7000 -SHRA SCT008 OVC040 20/18 Q1006 BECMG TL0150 32005MPS BKN007 OVC040=
0149583670999992024040301304+31198+121336FM-15+000399999V0203301N00701002441CN009999199+01701+01601999999ADDGA1071+002441999GE19AGL   +99999+99999GF199999071999002441999999MA1100701999999REMMET058METAR ZSSS 030130Z 33007MPS 9999 BKN008 17/16 Q1007 NOSIG=
0157583670999992024040302004+31198+121336FM-15+000399999V0203301V00501002741CN009999199+01901+01701999999ADDGA1071+002741999GE19AGL   +99999+99999GF199999071999002741999999MA1100801999999REMMET066METAR ZSSS 030200Z 33005MPS 300V360 9999 BKN009 19/17 Q1008 NOSIG=
0157583670999992024040302304+31198+121336FM-15+000399999V0203001V00501003351CN009999199+01801+01601999999ADDGA1071+003351999GE19AGL   +99999+99999GF199999071999003351999999MA1100801999999REMMET066METAR ZSSS 030230Z 30005MPS 260V340 9999 BKN011 18/16 Q1008 NOSIG=
0163583670999992024040303004+31198+121336FM-15+000399999V0203001N00701003351CN009999199+01801+01501999999ADDGA1071+003351999GE19AGL   +99999+99999GF199999071999003351999999MA1100801999999REMMET072METAR ZSSS 030300Z 30007MPS 9999 BKN011 18/15 Q1008 BECMG TL0340 BKN009=
0157583670999992024040303304+31198+121336FM-15+000399999V0203001V00701002741CN009999199+01901+01501999999ADDGA1071+002741999GE19AGL   +99999+99999GF199999071999002741999999MA1100801999999REMMET066METAR ZSSS 030330Z 30007MPS 270V330 9999 BKN009 19/15 Q1008 NOSIG=
0163583670999992024040304004+31198+121336FM-15+000399999V0203101N00801003961CN009999199+02001+01501999999ADDGA1071+003961999GE19AGL   +99999+99999GF199999071999003961999999MA1100801999999REMMET072METAR ZSSS 030400Z 31008MPS 9999 BKN013 20/15 Q1008 BECMG TL0440 BKN015=
0149583670999992024040304304+31198+121336FM-15+000399999V0203001N00801003961CN009999199+01801+01501999999ADDGA1071+003961999GE19AGL   +99999+99999GF199999071999003961999999MA1100801999999REMMET058METAR ZSSS 030430Z 30008MPS 9999 BKN013 18/15 Q1008 NOSIG=
0163583670999992024040305004+31198+121336FM-15+000399999V0203001N00901003961CN009999199+01801+01401999999ADDGA1071+003961999GE19AGL   +99999+99999GF199999071999003961999999MA1100901999999REMMET072METAR ZSSS 030500Z 30009MPS 9999 BKN013 18/14 Q1009 BECMG TL0630 BKN015=
0157583670999992024040305304+31198+121336FM-15+000399999V0203101V00701004571CN009999199+01801+01401999999ADDGA1071+004571999GE19AGL   +99999+99999GF199999071999004571999999MA1100801999999REMMET066METAR ZSSS 030530Z 31007MPS 280V340 9999 BKN015 18/14 Q1008 NOSIG=
0157583670999992024040306004+31198+121336FM-15+000399999V0203201V00601005181CN009999199+01801+01401999999ADDGA1071+005181999GE19AGL   +99999+99999GF199999071999005181999999MA1100901999999REMMET066METAR ZSSS 030600Z 32006MPS 280V350 9999 BKN017 18/14 Q1009 NOSIG=
0149583670999992024040306304+31198+121336FM-15+000399999V0203001N00701005181CN009999199+01801+01401999999ADDGA1071+005181999GE19AGL   +99999+99999GF199999071999005181999999MA1100901999999REMMET058METAR ZSSS 030630Z 30007MPS 9999 BKN017 18/14 Q1009 NOSIG=
0168583670999992024040307004+31198+121336FM-15+000399999V0203101V00501005181CN009999199+01801+01401999999ADDGA1071+005181999GE19AGL   +99999+99999GF199999071999005181999999MA1101001999999OC101001REMMET069METAR ZSSS 030700Z 31005G10MPS 280V340 9999 BKN017 18/14 Q1010 NOSIG=
0149583670999992024040307304+31198+121336FM-15+000399999V0203201N00601005181CN009999199+01701+01401999999ADDGA1071+005181999GE19AGL   +99999+99999GF199999071999005181999999MA1101001999999REMMET058METAR ZSSS 030730Z 32006MPS 9999 BKN017 17/14 Q1010 NOSIG=
0163583670999992024040308004+31198+121336FM-15+000399999V0203501N00801005181CN008000199+01601+01301999999ADDGA1071+005181999GE19AGL   +99999+99999GF199999071999005181999999MA1101101999999REMMET072METAR ZSSS 030800Z 35008MPS 8000 BKN017 16/13 Q1011 BECMG TL0910 BKN013=
0149583670999992024040308304+31198+121336FM-15+000399999V0203401N00701003961CN009000199+01601+01301999999ADDGA1071+003961999GE19AGL   +99999+99999GF199999071999003961999999MA1101101999999REMMET058METAR ZSSS 030830Z 34007MPS 9000 BKN013 16/13 Q1011 NOSIG=
0163583670999992024040309004+31198+121336FM-15+000399999V0203401N00601003961CN009999199+01601+01201999999ADDGA1071+003961999GE19AGL   +99999+99999GF199999071999003961999999MA1101101999999REMMET072METAR ZSSS 030900Z 34006MPS 9999 BKN013 16/12 Q1011 BECMG TL0950 BKN015=
0149583670999992024040309304+31198+121336FM-15+000399999V0203301N00601005181CN009999199+01601+01201999999ADDGA1071+005181999GE19AGL   +99999+99999GF199999071999005181999999MA1101201999999REMMET058METAR ZSSS 030930Z 33006MPS 9999 BKN017 16/12 Q1012 NOSIG=
0149583670999992024040310004+31198+121336FM-15+000399999V0203501N00801005181CN009999199+01501+01101999999ADDGA1071+005181999GE19AGL   +99999+99999GF199999071999005181999999MA1101201999999REMMET058METAR ZSSS 031000Z 35008MPS 9999 BKN017 15/11 Q1012 NOSIG=
0149583670999992024040310304+31198+121336FM-15+000399999V0203501N00501005181CN009999199+01501+01201999999ADDGA1071+005181999GE19AGL   +99999+99999GF199999071999005181999999MA1101301999999REMMET058METAR ZSSS 031030Z 35005MPS 9999 BKN017 15/12 Q1013 NOSIG=
0149583670999992024040311004+31198+121336FM-15+000399999V0203301N00501005181CN009999199+01501+01101999999ADDGA1071+005181999GE19AGL   +99999+99999GF199999071999005181999999MA1101401999999REMMET058METAR ZSSS 031100Z 33005MPS 9999 BKN017 15/11 Q1014 NOSIG=
0149583670999992024040311304+31198+121336FM-15+000399999V0203501N00701005181CN009999199+01501+01101999999ADDGA1071+005181999GE19AGL   +99999+99999GF199999071999005181999999MA1101401999999REMMET058METAR ZSSS 031130Z 35007MPS 9999 BKN017 15/11 Q1014 NOSIG=
0149583670999992024040312004+31198+121336FM-15+000399999V0203501N00701005181CN009999199+01401+01101999999ADDGA1071+005181999GE19AGL   +99999+99999GF199999071999005181999999MA1101401999999REMMET058METAR ZSSS 031200Z 35007MPS 9999 BKN017 14/11 Q1014 NOSIG=
0149583670999992024040312304+31198+121336FM-15+000399999V0203601N00701004571CN009999199+01401+01101999999ADDGA1071+004571999GE19AGL   +99999+99999GF199999071999004571999999MA1101401999999REMMET058METAR ZSSS 031230Z 36007MPS 9999 BKN015 14/11 Q1014 NOSIG=
0163583670999992024040313004+31198+121336FM-15+000399999V0200101N00701004571CN009999199+01401+01101999999ADDGA1071+004571999GE19AGL   +99999+99999GF199999071999004571999999MA1101401999999REMMET072METAR ZSSS 031300Z 01007MPS 9999 BKN015 14/11 Q1014 BECMG TL1320 BKN013=
0149583670999992024040313304+31198+121336FM-15+000399999V0203601N00601003661CN009999199+01401+01101999999ADDGA1071+003661999GE19AGL   +99999+99999GF199999071999003661999999MA1101501999999REMMET058METAR ZSSS 031330Z 36006MPS 9999 BKN012 14/11 Q1015 NOSIG=
0149583670999992024040314004+31198+121336FM-15+000399999V0203601N00601003661CN009999199+01401+01101999999ADDGA1071+003661999GE19AGL   +99999+99999GF199999071999003661999999MA1101501999999REMMET058METAR ZSSS 031400Z 36006MPS 9999 BKN012 14/11 Q1015 NOSIG=
0149583670999992024040314304+31198+121336FM-15+000399999V0200201N00601003661CN009999199+01401+01101999999ADDGA1071+003661999GE19AGL   +99999+99999GF199999071999003661999999MA1101501999999REMMET058METAR ZSSS 031430Z 02006MPS 9999 BKN012 14/11 Q1015 NOSIG=
0163583670999992024040315004+31198+121336FM-15+000399999V0200101N00601003661CN009999199+01301+01001999999ADDGA1071+003661999GE19AGL   +99999+99999GF199999071999003661999999MA1101501999999REMMET072METAR ZSSS 031500Z 01006MPS 9999 BKN012 13/10 Q1015 BECMG TL1550 BKN015=
0149583670999992024040315304+31198+121336FM-15+000399999V0203601N00401003961CN009999199+01301+01001999999ADDGA1071+003961999GE19AGL   +99999+99999GF199999071999003961999999MA1101601999999REMMET058METAR ZSSS 031530Z 36004MPS 9999 BKN013 13/10 Q1016 NOSIG=
0163583670999992024040316004+31198+121336FM-15+000399999V0203601N00501003961CN009999199+01301+00801999999ADDGA1071+003961999GE19AGL   +99999+99999GF199999071999003961999999MA1101601999999REMMET072METAR ZSSS 031600Z 36005MPS 9999 BKN013 13/08 Q1016 BECMG TL1650 BKN015=
0149583670999992024040316304+31198+121336FM-15+000399999V0203601N00501006101CN009999199+01201+00701999999ADDGA1071+006101999GE19AGL   +99999+99999GF199999071999006101999999MA1101601999999REMMET058METAR ZSSS 031630Z 36005MPS 9999 BKN020 12/07 Q1016 NOSIG=
0149583670999992024040317004+31198+121336FM-15+000399999V0200101N003019999999N009999199+01201+00701999999ADDGA1021+006101999GE19AGL   +99999+99999GF199999021999006101999999MA1101601999999REMMET058METAR ZSSS 031700Z 01003MPS 9999 FEW020 12/07 Q1016 NOSIG=
0087583670999992024040317304+31198+121336FM-15+000399999V0203601V003019999999Y009900599+01201+00601999999ADDMA1101601999999REMMET060METAR ZSSS 031730Z 36003MPS 330V030 CAVOK 12/06 Q1016 NOSIG=
0079583670999992024040318004+31198+121336FM-15+000399999V0200101N003019999999Y009900599+01201+00601999999ADDMA1101601999999REMMET052METAR ZSSS 031800Z 01003MPS CAVOK 12/06 Q1016 NOSIG=
0079583670999992024040318304+31198+121336FM-15+000399999V0200101N003019999999Y009900599+01201+00501999999ADDMA1101501999999REMMET052METAR ZSSS 031830Z 01003MPS CAVOK 12/05 Q1015 NOSIG=
0079583670999992024040319004+31198+121336FM-15+000399999V0203601N003019999999Y009900599+01201+00501999999ADDMA1101601999999REMMET052METAR ZSSS 031900Z 36003MPS CAVOK 12/05 Q1016 NOSIG=
0079583670999992024040319304+31198+121336FM-15+000399999V0203601N003019999999Y009900599+01201+00401999999ADDMA1101601999999REMMET052METAR ZSSS 031930Z 36003MPS CAVOK 12/04 Q1016 NOSIG=
0079583670999992024040320004+31198+121336FM-15+000399999V0200101N004019999999Y009900599+01201+00301999999ADDMA1101601999999REMMET052METAR ZSSS 032000Z 01004MPS CAVOK 12/03 Q1016 NOSIG=
0079583670999992024040320304+31198+121336FM-15+000399999V0200301N004019999999Y009900599+01201+00301999999ADDMA1101501999999REMMET052METAR ZSSS 032030Z 03004MPS CAVOK 12/03 Q1015 NOSIG=
0079583670999992024040321004+31198+121336FM-15+000399999V0200101N005019999999Y009900599+01201+00401999999ADDMA1101601999999REMMET052METAR ZSSS 032100Z 01005MPS CAVOK 12/04 Q1016 NOSIG=
0079583670999992024040321304+31198+121336FM-15+000399999V0200101N003019999999Y009900599+01101+00501999999ADDMA1101601999999REMMET052METAR ZSSS 032130Z 01003MPS CAVOK 11/05 Q1016 NOSIG=
0079583670999992024040322004+31198+121336FM-15+000399999V0200101N003019999999Y009900599+01101+00501999999ADDMA1101601999999REMMET052METAR ZSSS 032200Z 01003MPS CAVOK 11/05 Q1016 NOSIG=
0079583670999992024040322304+31198+121336FM-15+000399999V0203501N003019999999Y009900599+01201+00501999999ADDMA1101701999999REMMET052METAR ZSSS 032230Z 35003MPS CAVOK 12/05 Q1017 NOSIG=
0079583670999992024040323004+31198+121336FM-15+000399999V0200101N005019999999Y009900599+01301+00501999999ADDMA1101701999999REMMET052METAR ZSSS 032300Z 01005MPS CAVOK 13/05 Q1017 NOSIG=
0079583670999992024040323304+31198+121336FM-15+000399999V0203601N004019999999Y009900599+01301+00501999999ADDMA1101701999999REMMET052METAR ZSSS 032330Z 36004MPS CAVOK 13/05 Q1017 NOSIG=
0079583670999992024040400004+31198+121336FM-15+000399999V0203601N003019999999Y009900599+01401+00401999999ADDMA1101801999999REMMET052METAR ZSSS 040000Z 36003MPS CAVOK 14/04 Q1018 NOSIG=
0087583670999992024040400304+31198+121336FM-15+000399999V0200201V004019999999Y009900599+01401+00301999999ADDMA1101801999999REMMET060METAR ZSSS 040030Z 02004MPS 360V060 CAVOK 14/03 Q1018 NOSIG=
0087583670999992024040401004+31198+121336FM-15+000399999V0200101V003019999999Y009900599+01501+00301999999ADDMA1101801999999REMMET060METAR ZSSS 040100Z 01003MPS 340V040 CAVOK 15/03 Q1018 NOSIG=
0087583670999992024040401304+31198+121336FM-15+000399999V0200101V003019999999Y009900599+01501+00201999999ADDMA1101901999999REMMET060METAR ZSSS 040130Z 01003MPS 340V040 CAVOK 15/02 Q1019 NOSIG=
0087583670999992024040402004+31198+121336FM-15+000399999V0203501V003019999999Y009900599+01601+00201999999ADDMA1101901999999REMMET060METAR ZSSS 040200Z 35003MPS 320V020 CAVOK 16/02 Q1019 NOSIG=
0087583670999992024040402304+31198+121336FM-15+000399999V0200201V003019999999Y009900599+01601+00201999999ADDMA1101801999999REMMET060METAR ZSSS 040230Z 02003MPS 340V050 CAVOK 16/02 Q1018 NOSIG=
0087583670999992024040403004+31198+121336FM-15+000399999V0203401V002019999999Y009900599+01601+00201999999ADDMA1101801999999REMMET060METAR ZSSS 040300Z 34002MPS 300V010 CAVOK 16/02 Q1018 NOSIG=
0087583670999992024040403304+31198+121336FM-15+000399999V0200301V004019999999Y009900599+01701+00101999999ADDMA1101801999999REMMET060METAR ZSSS 040330Z 03004MPS 340V060 CAVOK 17/01 Q1018 NOSIG=
0088583670999992024040404004+31198+121336FM-15+000399999V0200601V003019999999Y009900599+01701+00001999999ADDMA1101801999999REMMET061METAR ZSSS 040400Z 06003MPS 010V090 CAVOK 17/M00 Q1018 NOSIG=
0087583670999992024040404304+31198+121336FM-15+000399999V0200501V003019999999Y009900599+01801+00201999999ADDMA1101801999999REMMET060METAR ZSSS 040430Z 05003MPS 360V100 CAVOK 18/02 Q1018 NOSIG=
0087583670999992024040405004+31198+121336FM-15+000399999V0200701V003019999999Y009900599+01801+00101999999ADDMA1101801999999REMMET060METAR ZSSS 040500Z 07003MPS 040V110 CAVOK 18/01 Q1018 NOSIG=
0087583670999992024040405304+31198+121336FM-15+000399999V0200401V003019999999Y009900599+01801+00201999999ADDMA1101801999999REMMET060METAR ZSSS 040530Z 04003MPS 330V130 CAVOK 18/02 Q1018 NOSIG=
0087583670999992024040406004+31198+121336FM-15+000399999V0200301V003019999999Y009900599+01801+00101999999ADDMA1101701999999REMMET060METAR ZSSS 040600Z 03003MPS 350V070 CAVOK 18/01 Q1017 NOSIG=
0087583670999992024040406304+31198+121336FM-15+000399999V0200301V003019999999Y009900599+01801+00201999999ADDMA1101701999999REMMET060METAR ZSSS 040630Z 03003MPS 350V100 CAVOK 18/02 Q1017 NOSIG=
0087583670999992024040407004+31198+121336FM-15+000399999V0200201V004019999999Y009900599+01701+00301999999ADDMA1101701999999REMMET060METAR ZSSS 040700Z 02004MPS 350V050 CAVOK 17/03 Q1017 NOSIG=
0079583670999992024040407304+31198+121336FM-15+000399999V0200201N006019999999Y009900599+01701+00201999999ADDMA1101601999999REMMET052METAR ZSSS 040730Z 02006MPS CAVOK 17/02 Q1016 NOSIG=
0087583670999992024040408004+31198+121336FM-15+000399999V0200501V004019999999Y009900599+01801+00201999999ADDMA1101701999999REMMET060METAR ZSSS 040800Z 05004MPS 010V100 CAVOK 18/02 Q1017 NOSIG=
0087583670999992024040408304+31198+121336FM-15+000399999V0200301V004019999999Y009900599+01701+00201999999ADDMA1101701999999REMMET060METAR ZSSS 040830Z 03004MPS 350V070 CAVOK 17/02 Q1017 NOSIG=
0079583670999992024040409004+31198+121336FM-15+000399999V0200201N006019999999Y009900599+01701+00101999999ADDMA1101701999999REMMET052METAR ZSSS 040900Z 02006MPS CAVOK 17/01 Q1017 NOSIG=
0079583670999992024040409304+31198+121336FM-15+000399999V0200101N006019999999Y009900599+01601+00201999999ADDMA1101701999999REMMET052METAR ZSSS 040930Z 01006MPS CAVOK 16/02 Q1017 NOSIG=
0079583670999992024040410004+31198+121336FM-15+000399999V0200301N006019999999Y009900599+01601+00201999999ADDMA1101801999999REMMET052METAR ZSSS 041000Z 03006MPS CAVOK 16/02 Q1018 NOSIG=
0079583670999992024040410304+31198+121336FM-15+000399999V0200101N006019999999Y009900599+01501+00201999999ADDMA1101801999999REMMET052METAR ZSSS 041030Z 01006MPS CAVOK 15/02 Q1018 NOSIG=
0079583670999992024040411004+31198+121336FM-15+000399999V0200101N005019999999Y009900599+01401+00201999999ADDMA1101901999999REMMET052METAR ZSSS 041100Z 01005MPS CAVOK 14/02 Q1019 NOSIG=
0079583670999992024040411304+31198+121336FM-15+000399999V0200101N005019999999Y009900599+01401+00101999999ADDMA1101901999999REMMET052METAR ZSSS 041130Z 01005MPS CAVOK 14/01 Q1019 NOSIG=
0079583670999992024040412004+31198+121336FM-15+000399999V0200301N005019999999Y009900599+01401+00301999999ADDMA1101901999999REMMET052METAR ZSSS 041200Z 03005MPS CAVOK 14/03 Q1019 NOSIG=
0079583670999992024040412304+31198+121336FM-15+000399999V0200201N006019999999Y009900599+01301+00501999999ADDMA1102001999999REMMET052METAR ZSSS 041230Z 02006MPS CAVOK 13/05 Q1020 NOSIG=
0079583670999992024040413004+31198+121336FM-15+000399999V0200201N006019999999Y009900599+01301+00301999999ADDMA1102001999999REMMET052METAR ZSSS 041300Z 02006MPS CAVOK 13/03 Q1020 NOSIG=
0079583670999992024040413304+31198+121336FM-15+000399999V0200101N005019999999Y009900599+01201+00401999999ADDMA1102001999999REMMET052METAR ZSSS 041330Z 01005MPS CAVOK 12/04 Q1020 NOSIG=
0079583670999992024040414004+31198+121336FM-15+000399999V0200101N005019999999Y009900599+01201+00401999999ADDMA1102001999999REMMET052METAR ZSSS 041400Z 01005MPS CAVOK 12/04 Q1020 NOSIG=
0079583670999992024040414304+31198+121336FM-15+000399999V0203601N005019999999Y009900599+01201+00401999999ADDMA1102001999999REMMET052METAR ZSSS 041430Z 36005MPS CAVOK 12/04 Q1020 NOSIG=
0079583670999992024040415004+31198+121336FM-15+000399999V0200101N004019999999Y009900599+01201+00401999999ADDMA1102001999999REMMET052METAR ZSSS 041500Z 01004MPS CAVOK 12/04 Q1020 NOSIG=
0079583670999992024040415304+31198+121336FM-15+000399999V0200101N004019999999Y009900599+01201+00401999999ADDMA1102001999999REMMET052METAR ZSSS 041530Z 01004MPS CAVOK 12/04 Q1020 NOSIG=
0079583670999992024040416004+31198+121336FM-15+000399999V0200201N005019999999Y009900599+01201+00401999999ADDMA1102001999999REMMET052METAR ZSSS 041600Z 02005MPS CAVOK 12/04 Q1020 NOSIG=
0079583670999992024040416304+31198+121336FM-15+000399999V0200101N004019999999Y009900599+01201+00401999999ADDMA1102001999999REMMET052METAR ZSSS 041630Z 01004MPS CAVOK 12/04 Q1020 NOSIG=
0079583670999992024040417004+31198+121336FM-15+000399999V0200201N004019999999Y009900599+01201+00401999999ADDMA1102001999999REMMET052METAR ZSSS 041700Z 02004MPS CAVOK 12/04 Q1020 NOSIG=
0079583670999992024040417304+31198+121336FM-15+000399999V0200101N004019999999Y009900599+01201+00401999999ADDMA1102001999999REMMET052METAR ZSSS 041730Z 01004MPS CAVOK 12/04 Q1020 NOSIG=
0079583670999992024040418004+31198+121336FM-15+000399999V0200101N004019999999Y009900599+01201+00401999999ADDMA1101901999999REMMET052METAR ZSSS 041800Z 01004MPS CAVOK 12/04 Q1019 NOSIG=
0079583670999992024040418304+31198+121336FM-15+000399999V0200201N003019999999Y009900599+01101+00401999999ADDMA1101901999999REMMET052METAR ZSSS 041830Z 02003MPS CAVOK 11/04 Q1019 NOSIG=
0079583670999992024040419004+31198+121336FM-15+000399999V0200201N004019999999Y009900599+01101+00401999999ADDMA1101901999999REMMET052METAR ZSSS 041900Z 02004MPS CAVOK 11/04 Q1019 NOSIG=
0079583670999992024040419304+31198+121336FM-15+000399999V0200101N004019999999Y009900599+01101+00401999999ADDMA1101901999999REMMET052METAR ZSSS 041930Z 01004MPS CAVOK 11/04 Q1019 NOSIG=
0079583670999992024040420004+31198+121336FM-15+000399999V0200101N004019999999Y009900599+01101+00501999999ADDMA1101901999999REMMET052METAR ZSSS 042000Z 01004MPS CAVOK 11/05 Q1019 NOSIG=
0079583670999992024040420304+31198+121336FM-15+000399999V0203601N002019999999Y009900599+01101+00501999999ADDMA1101901999999REMMET052METAR ZSSS 042030Z 36002MPS CAVOK 11/05 Q1019 NOSIG=
0079583670999992024040421004+31198+121336FM-15+000399999V0200101N003019999999Y009900599+01001+00501999999ADDMA1101901999999REMMET052METAR ZSSS 042100Z 01003MPS CAVOK 10/05 Q1019 NOSIG=
0079583670999992024040421304+31198+121336FM-15+000399999V0200201N003019999999Y009900599+01001+00501999999ADDMA1101901999999REMMET052METAR ZSSS 042130Z 02003MPS CAVOK 10/05 Q1019 NOSIG=
0079583670999992024040422004+31198+121336FM-15+000399999V0200201N002019999999Y009900599+01001+00501999999ADDMA1101901999999REMMET052METAR ZSSS 042200Z 02002MPS CAVOK 10/05 Q1019 NOSIG=
0079583670999992024040422304+31198+121336FM-15+000399999V0200301N003019999999Y009900599+01101+00501999999ADDMA1102001999999REMMET052METAR ZSSS 042230Z 03003MPS CAVOK 11/05 Q1020 NOSIG=
0079583670999992024040423004+31198+121336FM-15+000399999V0200301N004019999999Y009900599+01201+00501999999ADDMA1102001999999REMMET052METAR ZSSS 042300Z 03004MPS CAVOK 12/05 Q1020 NOSIG=
0079583670999992024040423304+31198+121336FM-15+000399999V0200301N004019999999Y009900599+01301+00501999999ADDMA1102001999999REMMET052METAR ZSSS 042330Z 03004MPS CAVOK 13/05 Q1020 NOSIG=
0087583670999992024040500004+31198+121336FM-15+000399999V0200301V004019999999Y009900599+01301+00401999999ADDMA1102001999999REMMET060METAR ZSSS 050000Z 03004MPS 360V070 CAVOK 13/04 Q1020 NOSIG=
0087583670999992024040500304+31198+121336FM-15+000399999V0200601V005019999999Y009900599+01401+00201999999ADDMA1102001999999REMMET060METAR ZSSS 050030Z 06005MPS 040V100 CAVOK 14/02 Q1020 NOSIG=
0087583670999992024040501004+31198+121336FM-15+000399999V0200501V005019999999Y009900599+01501+00201999999ADDMA1102001999999REMMET060METAR ZSSS 050100Z 05005MPS 010V100 CAVOK 15/02 Q1020 NOSIG=
0087583670999992024040501304+31198+121336FM-15+000399999V0200201V004019999999Y009900599+01601+00301999999ADDMA1102001999999REMMET060METAR ZSSS 050130Z 02004MPS 360V090 CAVOK 16/03 Q1020 NOSIG=
0087583670999992024040502004+31198+121336FM-15+000399999V0200301V003019999999Y009900599+01601+00201999999ADDMA1102001999999REMMET060METAR ZSSS 050200Z 03003MPS 280V080 CAVOK 16/02 Q1020 NOSIG=
0087583670999992024040502304+31198+121336FM-15+000399999V0200601V003019999999Y009900599+01701+00301999999ADDMA1102001999999REMMET060METAR ZSSS 050230Z 06003MPS 020V090 CAVOK 17/03 Q1020 NOSIG=
0087583670999992024040503004+31198+121336FM-15+000399999V0200201V004019999999Y009900599+01701+00401999999ADDMA1102001999999REMMET060METAR ZSSS 050300Z 02004MPS 350V050 CAVOK 17/04 Q1020 NOSIG=
0087583670999992024040503304+31198+121336FM-15+000399999V0200201V005019999999Y009900599+01701+00301999999ADDMA1102001999999REMMET060METAR ZSSS 050330Z 02005MPS 350V070 CAVOK 17/03 Q1020 NOSIG=
0087583670999992024040504004+31198+121336FM-15+000399999V0200501V004019999999Y009900599+01801+00401999999ADDMA1101901999999REMMET060METAR ZSSS 050400Z 05004MPS 360V100 CAVOK 18/04 Q1019 NOSIG=
0087583670999992024040504304+31198+121336FM-15+000399999V0200501V005019999999Y009900599+01801+00301999999ADDMA1101901999999REMMET060METAR ZSSS 050430Z 05005MPS 020V080 CAVOK 18/03 Q1019 NOSIG=
0087583670999992024040505004+31198+121336FM-15+000399999V0200501V003019999999Y009900599+01901+00301999999ADDMA1101901999999REMMET060METAR ZSSS 050500Z 05003MPS 010V090 CAVOK 19/03 Q1019 NOSIG=
0087583670999992024040505304+31198+121336FM-15+000399999V0200601V005019999999Y009900599+01901+00101999999ADDMA1101901999999REMMET060METAR ZSSS 050530Z 06005MPS 030V090 CAVOK 19/01 Q1019 NOSIG=
0087583670999992024040506004+31198+121336FM-15+000399999V0200601V003019999999Y009900599+01901+00301999999ADDMA1101901999999REMMET060METAR ZSSS 050600Z 06003MPS 360V110 CAVOK 19/03 Q1019 NOSIG=
0087583670999992024040506304+31198+121336FM-15+000399999V0200601V004019999999Y009900599+01901+00301999999ADDMA1101801999999REMMET060METAR ZSSS 050630Z 06004MPS 030V100 CAVOK 19/03 Q1018 NOSIG=
0087583670999992024040507004+31198+121336FM-15+000399999V0200401V004019999999Y009900599+01901+00301999999ADDMA1101801999999REMMET060METAR ZSSS 050700Z 04004MPS 360V060 CAVOK 19/03 Q1018 NOSIG=
0087583670999992024040507304+31198+121336FM-15+000399999V0200401V005019999999Y009900599+01901+00401999999ADDMA1101801999999REMMET060METAR ZSSS 050730Z 04005MPS 360V100 CAVOK 19/04 Q1018 NOSIG=
0087583670999992024040508004+31198+121336FM-15+000399999V0200601V004019999999Y009900599+01801+00401999999ADDMA1101801999999REMMET060METAR ZSSS 050800Z 06004MPS 020V110 CAVOK 18/04 Q1018 NOSIG=
0087583670999992024040508304+31198+121336FM-15+000399999V0200501V005019999999Y009900599+01801+00301999999ADDMA1101801999999REMMET060METAR ZSSS 050830Z 05005MPS 010V070 CAVOK 18/03 Q1018 NOSIG=
0087583670999992024040509004+31198+121336FM-15+000399999V0200501V005019999999Y009900599+01701+00301999999ADDMA1101801999999REMMET060METAR ZSSS 050900Z 05005MPS 010V080 CAVOK 17/03 Q1018 NOSIG=
0079583670999992024040509304+31198+121336FM-15+000399999V0200501N005019999999Y009900599+01601+00401999999ADDMA1101801999999REMMET052METAR ZSSS 050930Z 05005MPS CAVOK 16/04 Q1018 NOSIG=
0079583670999992024040510004+31198+121336FM-15+000399999V0200501N004019999999Y009900599+01601+00301999999ADDMA1101801999999REMMET052METAR ZSSS 051000Z 05004MPS CAVOK 16/03 Q1018 NOSIG=
0079583670999992024040510304+31198+121336FM-15+000399999V0200501N004019999999Y009900599+01601+00401999999ADDMA1101801999999REMMET052METAR ZSSS 051030Z 05004MPS CAVOK 16/04 Q1018 NOSIG=
0079583670999992024040511004+31198+121336FM-15+000399999V0200401N005019999999Y009900599+01501+00401999999ADDMA1101801999999REMMET052METAR ZSSS 051100Z 04005MPS CAVOK 15/04 Q1018 NOSIG=
0087583670999992024040511304+31198+121336FM-15+000399999V0200701V003019999999Y009900599+01501+00401999999ADDMA1101901999999REMMET060METAR ZSSS 051130Z 07003MPS 040V110 CAVOK 15/04 Q1019 NOSIG=
0087583670999992024040512004+31198+121336FM-15+000399999V0200901V003019999999Y009900599+01501+00401999999ADDMA1101901999999REMMET060METAR ZSSS 051200Z 09003MPS 070V130 CAVOK 15/04 Q1019 NOSIG=
0087583670999992024040512304+31198+121336FM-15+000399999V0201001V003019999999Y009900599+01501+00501999999ADDMA1102001999999REMMET060METAR ZSSS 051230Z 10003MPS 070V140 CAVOK 15/05 Q1020 NOSIG=
0087583670999992024040513004+31198+121336FM-15+000399999V0201301V003019999999Y009900599+01401+00601999999ADDMA1102001999999REMMET060METAR ZSSS 051300Z 13003MPS 100V160 CAVOK 14/06 Q1020 NOSIG=
0087583670999992024040513304+31198+121336FM-15+000399999V0201101V003019999999Y009900599+01401+00701999999ADDMA1102001999999REMMET060METAR ZSSS 051330Z 11003MPS 080V140 CAVOK 14/07 Q1020 NOSIG=
0079583670999992024040514004+31198+121336FM-15+000399999V0200901N003019999999Y009900599+01401+00701999999ADDMA1102001999999REMMET052METAR ZSSS 051400Z 09003MPS CAVOK 14/07 Q1020 NOSIG=
0087583670999992024040514304+31198+121336FM-15+000399999V0201101V003019999999Y009900599+01401+00801999999ADDMA1102001999999REMMET060METAR ZSSS 051430Z 11003MPS 080V140 CAVOK 14/08 Q1020 NOSIG=
0087583670999992024040515004+31198+121336FM-15+000399999V0200901V002019999999Y009900599+01301+00801999999ADDMA1102001999999REMMET060METAR ZSSS 051500Z 09002MPS 070V140 CAVOK 13/08 Q1020 NOSIG=
0079583670999992024040515304+31198+121336FM-15+000399999V0201101N003019999999Y009900599+01301+00801999999ADDMA1101901999999REMMET052METAR ZSSS 051530Z 11003MPS CAVOK 13/08 Q1019 NOSIG=
0079583670999992024040516004+31198+121336FM-15+000399999V0201201N003019999999Y009900599+01301+00801999999ADDMA1101901999999REMMET052METAR ZSSS 051600Z 12003MPS CAVOK 13/08 Q1019 NOSIG=
0079583670999992024040516304+31198+121336FM-15+000399999V0201001N002019999999Y009900599+01301+00801999999ADDMA1101901999999REMMET052METAR ZSSS 051630Z 10002MPS CAVOK 13/08 Q1019 NOSIG=
0079583670999992024040517004+31198+121336FM-15+000399999V0200801N003019999999Y009900599+01301+00801999999ADDMA1101901999999REMMET052METAR ZSSS 051700Z 08003MPS CAVOK 13/08 Q1019 NOSIG=
0087583670999992024040517304+31198+121336FM-15+000399999V0200601V002019999999Y009900599+01301+00801999999ADDMA1101901999999REMMET060METAR ZSSS 051730Z 06002MPS 010V100 CAVOK 13/08 Q1019 NOSIG=
0087583670999992024040518004+31198+121336FM-15+000399999V0200301V002019999999Y009900599+01301+00901999999ADDMA1101901999999REMMET060METAR ZSSS 051800Z 03002MPS 350V060 CAVOK 13/09 Q1019 NOSIG=
0079583670999992024040518304+31198+121336FM-15+000399999V0200801N002019999999Y009900599+01301+00801999999ADDMA1101901999999REMMET052METAR ZSSS 051830Z 08002MPS CAVOK 13/08 Q1019 NOSIG=
0079583670999992024040519004+31198+121336FM-15+000399999V0200501N002019999999Y009900599+01301+00901999999ADDMA1101801999999REMMET052METAR ZSSS 051900Z 05002MPS CAVOK 13/09 Q1018 NOSIG=
0079583670999992024040519304+31198+121336FM-15+000399999V0209999V001019999999Y009900599+01301+00901999999ADDMA1101901999999REMMET052METAR ZSSS 051930Z VRB01MPS CAVOK 13/09 Q1019 NOSIG=
0168583670999992024040520004+31198+121336FM-15+000399999V0201901N002019999999N009999199+01301+00901999999ADDGA1041+007011999GE19AGL   +99999+99999GF199999041999007011999999MA1101901999999REMMET077METAR ZSSS 052000Z 19002MPS 9999 SCT023 13/09 Q1019 BECMG TL2050 SHRA BKN013=
0161583670999992024040520304+31198+121336FM-15+000399999V0201601N002019999999N009999199+01201+01001999999ADDGA1041+007011999GE19AGL   +99999+99999GF199999041999007011999999MA1101901999999MW1801REMMET064METAR ZSSS 052030Z 16002MPS 9999 -SHRA SCT023 12/10 Q1019 NOSIG=
0149583670999992024040521004+31198+121336FM-15+000399999V0209999C000019999999N009999199+01201+01001999999ADDGA1021+006101999GE19AGL   +99999+99999GF199999021999006101999999MA1101901999999REMMET058METAR ZSSS 052100Z 00000MPS 9999 FEW020 12/10 Q1019 NOSIG=
0161583670999992024040521304+31198+121336FM-15+000399999V0209999V001019999999N009999199+01201+00901999999ADDGA1021+006101999GE19AGL   +99999+99999GF199999021999006101999999MA1101901999999MW1801REMMET064METAR ZSSS 052130Z VRB01MPS 9999 -SHRA FEW020 12/09 Q1019 NOSIG=
0161583670999992024040522004+31198+121336FM-15+000399999V0209999V001019999999N009999199+01201+00901999999ADDGA1021+006101999GE19AGL   +99999+99999GF199999021999006101999999MA1101901999999MW1801REMMET064METAR ZSSS 052200Z VRB01MPS 9999 -SHRA FEW020 12/09 Q1019 NOSIG=
0118583670999992024040522304+31198+121336FM-15+000399999V0200101N002012200019N007000199+01101+00801999999ADDGF100991999999999999999999MA1102001999999MW1611REMMET059METAR ZSSS 052230Z 01002MPS 7000 -RA NSC 11/08 Q1020 NOSIG=
0118583670999992024040523004+31198+121336FM-15+000399999V0209999V001012200019N009999199+01101+00901999999ADDGF100991999999999999999999MA1102001999999MW1611REMMET059METAR ZSSS 052300Z VRB01MPS 9999 -RA NSC 11/09 Q1020 NOSIG=
0118583670999992024040523304+31198+121336FM-15+000399999V0209999V001012200019N008000199+01201+01001999999ADDGF100991999999999999999999MA1102001999999MW1611REMMET059METAR ZSSS 052330Z VRB01MPS 8000 -RA NSC 12/10 Q1020 NOSIG=
0108583670999992024040600004+31198+121336FM-15+000399999V0209999V001012200019N007000199+01201+01001999999ADDGF100991999999999999999999MA1102001999999REMMET055METAR ZSSS 060000Z VRB01MPS 7000 NSC 12/10 Q1020 NOSIG=
0176583670999992024040600304+31198+121336FM-15+000399999V0200301V002019999999N005000199+01301+01101999999ADDGA1041+002741999GE19AGL   +99999+99999GF199999041999002741999999MA1102001999999MW1101MW2611REMMET073METAR ZSSS 060030Z 03002MPS 340V080 5000 -RA BR SCT009 13/11 Q1020 NOSIG=
0180583670999992024040601004+31198+121336FM-15+000399999V0200601V002019999999N005000199+01301+01201999999ADDGA1041+002741999GE19AGL   +99999+99999GF199999041999002741999999MA1102001999999MW1101REMMET083METAR ZSSS 060100Z 06002MPS 020V120 5000 BR SCT009 13/12 Q1020 BECMG TL0130 BKN009=
0149583670999992024040601304+31198+121336FM-15+000399999V0209999V00101002741CN006000199+01401+01201999999ADDGA1071+002741999GE19AGL   +99999+99999GF199999071999002741999999MA1102001999999REMMET058METAR ZSSS 060130Z VRB01MPS 6000 BKN009 14/12 Q1020 NOSIG=
0171583670999992024040602004+31198+121336FM-15+000399999V0200701V00301002741CN008000199+01501+01301999999ADDGA1071+002741999GE19AGL   +99999+99999GF199999071999002741999999MA1102001999999REMMET080METAR ZSSS 060200Z 07003MPS 030V100 8000 BKN009 15/13 Q1020 BECMG TL0230 BKN011=
0157583670999992024040602304+31198+121336FM-15+000399999V0201101V00201003661CN009999199+01601+01301999999ADDGA1071+003661999GE19AGL   +99999+99999GF199999071999003661999999MA1102001999999REMMET066METAR ZSSS 060230Z 11002MPS 060V190 9999 BKN012 16/13 Q1020 NOSIG=
0157583670999992024040603004+31198+121336FM-15+000399999V0201301V003019999999N009999199+01601+01201999999ADDGA1021+004571999GE19AGL   +99999+99999GF199999021999004571999999MA1102001999999REMMET066METAR ZSSS 060300Z 13003MPS 090V160 9999 FEW015 16/12 Q1020 NOSIG=
0149583670999992024040603304+31198+121336FM-15+000399999V0201101N003019999999N009999199+01601+01201999999ADDGA1021+006101999GE19AGL   +99999+99999GF199999021999006101999999MA1101901999999REMMET058METAR ZSSS 060330Z 11003MPS 9999 FEW020 16/12 Q1019 NOSIG=
0157583670999992024040604004+31198+121336FM-15+000399999V0201101V003019999999N009999199+01701+01201999999ADDGA1021+007921999GE19AGL   +99999+99999GF199999021999007921999999MA1101901999999REMMET066METAR ZSSS 060400Z 11003MPS 080V150 9999 FEW026 17/12 Q1019 NOSIG=
0157583670999992024040604304+31198+121336FM-15+000399999V0201301V00301007921CN009999199+01701+01201999999ADDGA1071+007921999GE19AGL   +99999+99999GF199999071999007921999999MA1101901999999REMMET066METAR ZSSS 060430Z 13003MPS 100V170 9999 BKN026 17/12 Q1019 NOSIG=
0149583670999992024040605004+31198+121336FM-15+000399999V0209999V00201007921CN009999199+01801+01201999999ADDGA1071+007921999GE19AGL   +99999+99999GF199999071999007921999999MA1101801999999REMMET058METAR ZSSS 060500Z VRB02MPS 9999 BKN026 18/12 Q1018 NOSIG=
0157583670999992024040605304+31198+121336FM-15+000399999V0201001V00301007921CN009999199+01801+01201999999ADDGA1071+007921999GE19AGL   +99999+99999GF199999071999007921999999MA1101801999999REMMET066METAR ZSSS 060530Z 10003MPS 070V180 9999 BKN026 18/12 Q1018 NOSIG=
0157583670999992024040606004+31198+121336FM-15+000399999V0201201V00301007921CN009999199+01801+01101999999ADDGA1071+007921999GE19AGL   +99999+99999GF199999071999007921999999MA1101801999999REMMET066METAR ZSSS 060600Z 12003MPS 080V160 9999 BKN026 18/11 Q1018 NOSIG=
0157583670999992024040606304+31198+121336FM-15+000399999V0201101V00301010061CN009999199+01801+01101999999ADDGA1071+010061999GE19AGL   +99999+99999GF199999071999010061999999MA1101801999999REMMET066METAR ZSSS 060630Z 11003MPS 080V160 9999 BKN033 18/11 Q1018 NOSIG=
0149583670999992024040607004+31198+121336FM-15+000399999V0201101N00301010061CN009999199+01801+01101999999ADDGA1071+010061999GE19AGL   +99999+99999GF199999071999010061999999MA1101701999999REMMET058METAR ZSSS 060700Z 11003MPS 9999 BKN033 18/11 Q1017 NOSIG=
0149583670999992024040607304+31198+121336FM-15+000399999V0201201N00401010061CN009999199+01801+01201999999ADDGA1071+010061999GE19AGL   +99999+99999GF199999071999010061999999MA1101701999999REMMET058METAR ZSSS 060730Z 12004MPS 9999 BKN033 18/12 Q1017 NOSIG=
0157583670999992024040608004+31198+121336FM-15+000399999V0201101V00401010061CN009999199+01801+01201999999ADDGA1071+010061999GE19AGL   +99999+99999GF199999071999010061999999MA1101701999999REMMET066METAR ZSSS 060800Z 11004MPS 080V140 9999 BKN033 18/12 Q1017 NOSIG=
0157583670999992024040608304+31198+121336FM-15+000399999V0201101V00301007921CN009999199+01701+01101999999ADDGA1071+007921999GE19AGL   +99999+99999GF199999071999007921999999MA1101701999999REMMET066METAR ZSSS 060830Z 11003MPS 070V160 9999 BKN026 17/11 Q1017 NOSIG=
0157583670999992024040609004+31198+121336FM-15+000399999V0201101V00301007921CN009999199+01701+01201999999ADDGA1071+007921999GE19AGL   +99999+99999GF199999071999007921999999MA1101701999999REMMET066METAR ZSSS 060900Z 11003MPS 080V150 9999 BKN026 17/12 Q1017 NOSIG=
0079583670999992024040609304+31198+121336FM-15+000399999V0201101N003019999999Y009900599+01701+01101999999ADDMA1101701999999REMMET052METAR ZSSS 060930Z 11003MPS CAVOK 17/11 Q1017 NOSIG=
0087583670999992024040610004+31198+121336FM-15+000399999V0201101V003019999999Y009900599+01701+01101999999ADDMA1101701999999REMMET060METAR ZSSS 061000Z 11003MPS 070V150 CAVOK 17/11 Q1017 NOSIG=
0087583670999992024040610304+31198+121336FM-15+000399999V0201101V003019999999Y009900599+01601+01101999999ADDMA1101701999999REMMET060METAR ZSSS 061030Z 11003MPS 090V160 CAVOK 16/11 Q1017 NOSIG=
0157583670999992024040611004+31198+121336FM-15+000399999V0201001V003019999999N009999199+01601+01101999999ADDGA1021+006101999GE19AGL   +99999+99999GF199999021999006101999999MA1101801999999REMMET066METAR ZSSS 061100Z 10003MPS 080V140 9999 FEW020 16/11 Q1018 NOSIG=
0157583670999992024040611304+31198+121336FM-15+000399999V0201001V002019999999N009999199+01601+01101999999ADDGA1021+006101999GE19AGL   +99999+99999GF199999021999006101999999MA1101801999999REMMET066METAR ZSSS 061130Z 10002MPS 070V130 9999 FEW020 16/11 Q1018 NOSIG=
0157583670999992024040612004+31198+121336FM-15+000399999V0201101V003019999999N009999199+01601+01101999999ADDGA1021+006101999GE19AGL   +99999+99999GF199999021999006101999999MA1101801999999REMMET066METAR ZSSS 061200Z 11003MPS 080V150 9999 FEW020 16/11 Q1018 NOSIG=
0079583670999992024040612304+31198+121336FM-15+000399999V0201201N004019999999Y009900599+01501+01101999999ADDMA1101801999999REMMET052METAR ZSSS 061230Z 12004MPS CAVOK 15/11 Q1018 NOSIG=
0087583670999992024040613004+31198+121336FM-15+000399999V0201101V003019999999Y009900599+01501+01101999999ADDMA1101801999999REMMET060METAR ZSSS 061300Z 11003MPS 090V150 CAVOK 15/11 Q1018 NOSIG=
0079583670999992024040613304+31198+121336FM-15+000399999V0201101N002019999999Y009900599+01501+01101999999ADDMA1101901999999REMMET052METAR ZSSS 061330Z 11002MPS CAVOK 15/11 Q1019 NOSIG=
0079583670999992024040614004+31198+121336FM-15+000399999V0201001N002019999999Y009900599+01501+01101999999ADDMA1101901999999REMMET052METAR ZSSS 061400Z 10002MPS CAVOK 15/11 Q1019 NOSIG=
0087583670999992024040614304+31198+121336FM-15+000399999V0201301V002019999999Y009900599+01501+01101999999ADDMA1101801999999REMMET060METAR ZSSS 061430Z 13002MPS 100V160 CAVOK 15/11 Q1018 NOSIG=
0087583670999992024040615004+31198+121336FM-15+000399999V0201301V002019999999Y009900599+01501+01001999999ADDMA1101801999999REMMET060METAR ZSSS 061500Z 13002MPS 110V170 CAVOK 15/10 Q1018 NOSIG=
0079583670999992024040615304+31198+121336FM-15+000399999V0201201N002019999999Y009900599+01501+01001999999ADDMA1101801999999REMMET052METAR ZSSS 061530Z 12002MPS CAVOK 15/10 Q1018 NOSIG=
0079583670999992024040616004+31198+121336FM-15+000399999V0201101N002019999999Y009900599+01501+01001999999ADDMA1101801999999REMMET052METAR ZSSS 061600Z 11002MPS CAVOK 15/10 Q1018 NOSIG=
0079583670999992024040616304+31198+121336FM-15+000399999V0209999V001019999999Y009900599+01401+01001999999ADDMA1101801999999REMMET052METAR ZSSS 061630Z VRB01MPS CAVOK 14/10 Q1018 NOSIG=
0079583670999992024040617004+31198+121336FM-15+000399999V0201001N001019999999Y009900599+01401+01101999999ADDMA1101801999999REMMET052METAR ZSSS 061700Z 10001MPS CAVOK 14/11 Q1018 NOSIG=
0079583670999992024040617304+31198+121336FM-15+000399999V0201001N001019999999Y009900599+01401+01101999999ADDMA1101801999999REMMET052METAR ZSSS 061730Z 10001MPS CAVOK 14/11 Q1018 NOSIG=
0079583670999992024040618004+31198+121336FM-15+000399999V0201401N002019999999Y009900599+01401+01101999999ADDMA1101701999999REMMET052METAR ZSSS 061800Z 14002MPS CAVOK 14/11 Q1017 NOSIG=
0079583670999992024040618304+31198+121336FM-15+000399999V0200801N002019999999Y009900599+01401+01101999999ADDMA1101701999999REMMET052METAR ZSSS 061830Z 08002MPS CAVOK 14/11 Q1017 NOSIG=
0079583670999992024040619004+31198+121336FM-15+000399999V0201001N002019999999Y009900599+01401+01101999999ADDMA1101701999999REMMET052METAR ZSSS 061900Z 10002MPS CAVOK 14/11 Q1017 NOSIG=
0161583670999992024040619304+31198+121336FM-15+000399999V0201101N002019999999N009999199+01401+01101999999ADDGA1041+004571999GE19AGL   +99999+99999GF199999041999004571999999MA1101701999999MW1801REMMET064METAR ZSSS 061930Z 11002MPS 9999 -SHRA SCT015 14/11 Q1017 NOSIG=
0161583670999992024040620004+31198+121336FM-15+000399999V0201101N003019999999N009999199+01401+01101999999ADDGA1021+004571999GE19AGL   +99999+99999GF199999021999004571999999MA1101701999999MW1801REMMET064METAR ZSSS 062000Z 11003MPS 9999 -SHRA FEW015 14/11 Q1017 NOSIG=
0128583670999992024040620304+31198+121336FM-15+000399999V0201001V002012200019N009999199+01301+01101999999ADDGF100991999999999999999999MA1101701999999MW1801REMMET069METAR ZSSS 062030Z 10002MPS 070V130 9999 -SHRA NSC 13/11 Q1017 NOSIG=
0120583670999992024040621004+31198+121336FM-15+000399999V0200801N002012200019N009999199+01301+01101999999ADDGF100991999999999999999999MA1101701999999MW1801REMMET061METAR ZSSS 062100Z 08002MPS 9999 -SHRA NSC 13/11 Q1017 NOSIG=
0120583670999992024040621304+31198+121336FM-15+000399999V0209999V001012200019N009999199+01301+01101999999ADDGF100991999999999999999999MA1101701999999MW1801REMMET061METAR ZSSS 062130Z VRB01MPS 9999 -SHRA NSC 13/11 Q1017 NOSIG=
